<?xml version="1.0" encoding="UTF-8"?>
<gpx version="1.1" creator="north-bay-planning" xmlns="http://www.topografix.com/GPX/1/1">
<metadata><name>October trip Davis to the Golden Gate day 1</name><desc>Thu Oct 22 Embarcadero to Bicentennial</desc></metadata>
<wpt lat="37.824620" lon="-122.526580"><name>Night 1 Bicentennial site 02</name><desc>Booked.</desc></wpt>
<wpt lat="37.903820" lon="-122.603640"><name>Night 2 Pantoll hike-and-bike</name><desc>Walk-up.</desc></wpt>
<wpt lat="38.018280" lon="-122.733140"><name>Night 3 Samuel P. Taylor hike-and-bike</name><desc>Walk-up.</desc></wpt>
<wpt lat="37.860800" lon="-122.545820"><name>Night 4 Haypress</name><desc>Reserve on recreation.gov.</desc></wpt>
<trk><name>Thu Oct 22 Embarcadero to Bicentennial</name><trkseg><trkpt lat="37.792869" lon="-122.396860"><ele>6.7</ele></trkpt><trkpt lat="37.792579" lon="-122.397225"><ele>6.7</ele></trkpt><trkpt lat="37.792440" lon="-122.397404"><ele>6.9</ele></trkpt><trkpt lat="37.792338" lon="-122.397533"><ele>7.2</ele></trkpt><trkpt lat="37.791890" lon="-122.398102"><ele>8.9</ele></trkpt><trkpt lat="37.791825" lon="-122.398183"><ele>9.3</ele></trkpt><trkpt lat="37.791734" lon="-122.398298"><ele>9.7</ele></trkpt><trkpt lat="37.791648" lon="-122.398407"><ele>9.2</ele></trkpt><trkpt lat="37.791601" lon="-122.398465"><ele>8.8</ele></trkpt><trkpt lat="37.791341" lon="-122.398795"><ele>6.7</ele></trkpt><trkpt lat="37.791194" lon="-122.398983"><ele>5.9</ele></trkpt><trkpt lat="37.791146" lon="-122.399042"><ele>5.6</ele></trkpt><trkpt lat="37.791051" lon="-122.399163"><ele>5.1</ele></trkpt><trkpt lat="37.790929" lon="-122.399316"><ele>4.4</ele></trkpt><trkpt lat="37.790878" lon="-122.399381"><ele>4.0</ele></trkpt><trkpt lat="37.790713" lon="-122.399596"><ele>3.0</ele></trkpt><trkpt lat="37.790641" lon="-122.399686"><ele>2.6</ele></trkpt><trkpt lat="37.790312" lon="-122.400097"><ele>3.4</ele></trkpt><trkpt lat="37.790123" lon="-122.400339"><ele>4.0</ele></trkpt><trkpt lat="37.790056" lon="-122.400421"><ele>4.1</ele></trkpt><trkpt lat="37.789887" lon="-122.400635"><ele>4.2</ele></trkpt><trkpt lat="37.789377" lon="-122.401281"><ele>9.0</ele></trkpt><trkpt lat="37.789347" lon="-122.401319"><ele>9.3</ele></trkpt><trkpt lat="37.789321" lon="-122.401351"><ele>9.6</ele></trkpt><trkpt lat="37.789284" lon="-122.401398"><ele>10.0</ele></trkpt><trkpt lat="37.789245" lon="-122.401447"><ele>10.4</ele></trkpt><trkpt lat="37.789206" lon="-122.401497"><ele>10.8</ele></trkpt><trkpt lat="37.788917" lon="-122.401864"><ele>14.0</ele></trkpt><trkpt lat="37.788818" lon="-122.401988"><ele>15.2</ele></trkpt><trkpt lat="37.788706" lon="-122.402129"><ele>16.6</ele></trkpt><trkpt lat="37.788656" lon="-122.402196"><ele>17.1</ele></trkpt><trkpt lat="37.788512" lon="-122.402375"><ele>17.1</ele></trkpt><trkpt lat="37.788031" lon="-122.402984"><ele>17.3</ele></trkpt><trkpt lat="37.787838" lon="-122.403231"><ele>17.8</ele></trkpt><trkpt lat="37.787785" lon="-122.403298"><ele>18.2</ele></trkpt><trkpt lat="37.787736" lon="-122.403360"><ele>18.5</ele></trkpt><trkpt lat="37.787676" lon="-122.403436"><ele>19.0</ele></trkpt><trkpt lat="37.787512" lon="-122.403643"><ele>20.2</ele></trkpt><trkpt lat="37.787446" lon="-122.403726"><ele>20.8</ele></trkpt><trkpt lat="37.786750" lon="-122.404606"><ele>28.3</ele></trkpt><trkpt lat="37.786587" lon="-122.404814"><ele>28.3</ele></trkpt><trkpt lat="37.786503" lon="-122.404921"><ele>28.3</ele></trkpt><trkpt lat="37.786378" lon="-122.405081"><ele>28.3</ele></trkpt><trkpt lat="37.786355" lon="-122.405111"><ele>28.4</ele></trkpt><trkpt lat="37.786258" lon="-122.405233"><ele>28.6</ele></trkpt><trkpt lat="37.785873" lon="-122.405717"><ele>28.2</ele></trkpt><trkpt lat="37.785843" lon="-122.405754"><ele>27.9</ele></trkpt><trkpt lat="37.785714" lon="-122.405916"><ele>26.6</ele></trkpt><trkpt lat="37.785551" lon="-122.406123"><ele>25.0</ele></trkpt><trkpt lat="37.785472" lon="-122.406223"><ele>24.1</ele></trkpt><trkpt lat="37.785445" lon="-122.406258"><ele>23.8</ele></trkpt><trkpt lat="37.784912" lon="-122.406933"><ele>16.9</ele></trkpt><trkpt lat="37.784846" lon="-122.407015"><ele>16.0</ele></trkpt><trkpt lat="37.784619" lon="-122.407303"><ele>15.5</ele></trkpt><trkpt lat="37.784577" lon="-122.407357"><ele>15.4</ele></trkpt><trkpt lat="37.784137" lon="-122.407917"><ele>13.7</ele></trkpt><trkpt lat="37.784112" lon="-122.407946"><ele>13.6</ele></trkpt><trkpt lat="37.784013" lon="-122.408071"><ele>13.7</ele></trkpt><trkpt lat="37.783905" lon="-122.408209"><ele>14.2</ele></trkpt><trkpt lat="37.783873" lon="-122.408248"><ele>14.4</ele></trkpt><trkpt lat="37.783509" lon="-122.408711"><ele>15.5</ele></trkpt><trkpt lat="37.783329" lon="-122.408937"><ele>15.8</ele></trkpt><trkpt lat="37.783202" lon="-122.409100"><ele>16.4</ele></trkpt><trkpt lat="37.783134" lon="-122.409185"><ele>16.7</ele></trkpt><trkpt lat="37.783037" lon="-122.409308"><ele>17.2</ele></trkpt><trkpt lat="37.782851" lon="-122.409543"><ele>17.9</ele></trkpt><trkpt lat="37.782368" lon="-122.410153"><ele>19.6</ele></trkpt><trkpt lat="37.782350" lon="-122.410175"><ele>19.7</ele></trkpt><trkpt lat="37.782207" lon="-122.410356"><ele>20.2</ele></trkpt><trkpt lat="37.782194" lon="-122.410403"><ele>20.3</ele></trkpt><trkpt lat="37.782173" lon="-122.410479"><ele>20.5</ele></trkpt><trkpt lat="37.782139" lon="-122.410529"><ele>20.6</ele></trkpt><trkpt lat="37.782060" lon="-122.410630"><ele>20.9</ele></trkpt><trkpt lat="37.781205" lon="-122.411717"><ele>21.1</ele></trkpt><trkpt lat="37.781094" lon="-122.411859"><ele>21.1</ele></trkpt><trkpt lat="37.781012" lon="-122.411963"><ele>20.8</ele></trkpt><trkpt lat="37.780981" lon="-122.412003"><ele>20.7</ele></trkpt><trkpt lat="37.780695" lon="-122.412366"><ele>19.3</ele></trkpt><trkpt lat="37.780659" lon="-122.412410"><ele>19.2</ele></trkpt><trkpt lat="37.780527" lon="-122.412576"><ele>19.0</ele></trkpt><trkpt lat="37.780481" lon="-122.412635"><ele>18.9</ele></trkpt><trkpt lat="37.780429" lon="-122.412702"><ele>18.8</ele></trkpt><trkpt lat="37.779627" lon="-122.413733"><ele>17.5</ele></trkpt><trkpt lat="37.779578" lon="-122.413796"><ele>17.6</ele></trkpt><trkpt lat="37.779008" lon="-122.414529"><ele>20.0</ele></trkpt><trkpt lat="37.778882" lon="-122.414691"><ele>20.4</ele></trkpt><trkpt lat="37.778828" lon="-122.414759"><ele>20.6</ele></trkpt><trkpt lat="37.778777" lon="-122.414826"><ele>20.8</ele></trkpt><trkpt lat="37.778646" lon="-122.414992"><ele>21.5</ele></trkpt><trkpt lat="37.777786" lon="-122.416083"><ele>22.5</ele></trkpt><trkpt lat="37.777687" lon="-122.416197"><ele>22.3</ele></trkpt><trkpt lat="37.777545" lon="-122.416362"><ele>22.1</ele></trkpt><trkpt lat="37.777426" lon="-122.416513"><ele>21.8</ele></trkpt><trkpt lat="37.776747" lon="-122.417371"><ele>21.2</ele></trkpt><trkpt lat="37.776724" lon="-122.417399"><ele>21.1</ele></trkpt><trkpt lat="37.776712" lon="-122.417415"><ele>21.1</ele></trkpt><trkpt lat="37.776619" lon="-122.417527"><ele>21.0</ele></trkpt><trkpt lat="37.776582" lon="-122.417574"><ele>20.9</ele></trkpt><trkpt lat="37.776543" lon="-122.417620"><ele>20.8</ele></trkpt><trkpt lat="37.776448" lon="-122.417742"><ele>20.8</ele></trkpt><trkpt lat="37.776369" lon="-122.417844"><ele>21.1</ele></trkpt><trkpt lat="37.776316" lon="-122.417913"><ele>21.2</ele></trkpt><trkpt lat="37.776215" lon="-122.418042"><ele>21.6</ele></trkpt><trkpt lat="37.775706" lon="-122.418695"><ele>21.9</ele></trkpt><trkpt lat="37.775468" lon="-122.418998"><ele>21.6</ele></trkpt><trkpt lat="37.775424" lon="-122.419054"><ele>21.5</ele></trkpt><trkpt lat="37.775396" lon="-122.419090"><ele>21.4</ele></trkpt><trkpt lat="37.775321" lon="-122.419183"><ele>21.3</ele></trkpt><trkpt lat="37.775263" lon="-122.419260"><ele>21.2</ele></trkpt><trkpt lat="37.775185" lon="-122.419361"><ele>21.0</ele></trkpt><trkpt lat="37.775065" lon="-122.419515"><ele>20.7</ele></trkpt><trkpt lat="37.775051" lon="-122.419565"><ele>20.6</ele></trkpt><trkpt lat="37.774841" lon="-122.419837"><ele>20.4</ele></trkpt><trkpt lat="37.774755" lon="-122.420004"><ele>20.4</ele></trkpt><trkpt lat="37.774572" lon="-122.420236"><ele>20.4</ele></trkpt><trkpt lat="37.774527" lon="-122.420293"><ele>20.4</ele></trkpt><trkpt lat="37.774487" lon="-122.420344"><ele>20.4</ele></trkpt><trkpt lat="37.774441" lon="-122.420366"><ele>20.4</ele></trkpt><trkpt lat="37.774325" lon="-122.420523"><ele>20.4</ele></trkpt><trkpt lat="37.774229" lon="-122.420652"><ele>20.4</ele></trkpt><trkpt lat="37.774123" lon="-122.420738"><ele>20.8</ele></trkpt><trkpt lat="37.773721" lon="-122.421246"><ele>22.4</ele></trkpt><trkpt lat="37.773650" lon="-122.421336"><ele>22.7</ele></trkpt><trkpt lat="37.773462" lon="-122.421593"><ele>23.4</ele></trkpt><trkpt lat="37.773223" lon="-122.421895"><ele>24.2</ele></trkpt><trkpt lat="37.773076" lon="-122.422056"><ele>24.6</ele></trkpt><trkpt lat="37.773032" lon="-122.422112"><ele>24.8</ele></trkpt><trkpt lat="37.772930" lon="-122.422242"><ele>25.3</ele></trkpt><trkpt lat="37.772827" lon="-122.422371"><ele>25.8</ele></trkpt><trkpt lat="37.772599" lon="-122.422660"><ele>26.8</ele></trkpt><trkpt lat="37.772407" lon="-122.422903"><ele>27.4</ele></trkpt><trkpt lat="37.772253" lon="-122.423098"><ele>28.0</ele></trkpt><trkpt lat="37.772157" lon="-122.423212"><ele>28.5</ele></trkpt><trkpt lat="37.772096" lon="-122.423280"><ele>28.8</ele></trkpt><trkpt lat="37.772060" lon="-122.423317"><ele>29.0</ele></trkpt><trkpt lat="37.772030" lon="-122.423352"><ele>29.1</ele></trkpt><trkpt lat="37.771986" lon="-122.423402"><ele>29.4</ele></trkpt><trkpt lat="37.771918" lon="-122.423485"><ele>29.7</ele></trkpt><trkpt lat="37.771861" lon="-122.423559"><ele>30.0</ele></trkpt><trkpt lat="37.771805" lon="-122.423628"><ele>30.3</ele></trkpt><trkpt lat="37.771770" lon="-122.423673"><ele>30.5</ele></trkpt><trkpt lat="37.771310" lon="-122.424255"><ele>33.7</ele></trkpt><trkpt lat="37.771268" lon="-122.424317"><ele>34.1</ele></trkpt><trkpt lat="37.771181" lon="-122.424450"><ele>35.0</ele></trkpt><trkpt lat="37.771138" lon="-122.424510"><ele>35.5</ele></trkpt><trkpt lat="37.771102" lon="-122.424556"><ele>35.8</ele></trkpt><trkpt lat="37.770861" lon="-122.424862"><ele>38.2</ele></trkpt><trkpt lat="37.770796" lon="-122.424937"><ele>38.8</ele></trkpt><trkpt lat="37.770738" lon="-122.425000"><ele>39.2</ele></trkpt><trkpt lat="37.770657" lon="-122.425099"><ele>39.9</ele></trkpt><trkpt lat="37.770137" lon="-122.425741"><ele>43.7</ele></trkpt><trkpt lat="37.770085" lon="-122.425815"><ele>44.1</ele></trkpt><trkpt lat="37.769993" lon="-122.425956"><ele>44.8</ele></trkpt><trkpt lat="37.769952" lon="-122.426014"><ele>44.8</ele></trkpt><trkpt lat="37.769754" lon="-122.426263"><ele>44.8</ele></trkpt><trkpt lat="37.769720" lon="-122.426302"><ele>44.8</ele></trkpt><trkpt lat="37.769660" lon="-122.426369"><ele>44.8</ele></trkpt><trkpt lat="37.769632" lon="-122.426399"><ele>44.8</ele></trkpt><trkpt lat="37.769619" lon="-122.426415"><ele>44.8</ele></trkpt><trkpt lat="37.769552" lon="-122.426491"><ele>44.6</ele></trkpt><trkpt lat="37.769422" lon="-122.426650"><ele>44.1</ele></trkpt><trkpt lat="37.769390" lon="-122.426689"><ele>43.9</ele></trkpt><trkpt lat="37.769279" lon="-122.426807"><ele>43.5</ele></trkpt><trkpt lat="37.769184" lon="-122.426898"><ele>43.2</ele></trkpt><trkpt lat="37.769162" lon="-122.426906"><ele>43.0</ele></trkpt><trkpt lat="37.769130" lon="-122.426911"><ele>42.9</ele></trkpt><trkpt lat="37.769096" lon="-122.426913"><ele>42.7</ele></trkpt><trkpt lat="37.769082" lon="-122.426911"><ele>42.6</ele></trkpt><trkpt lat="37.769028" lon="-122.426906"><ele>42.4</ele></trkpt><trkpt lat="37.768946" lon="-122.426896"><ele>41.9</ele></trkpt><trkpt lat="37.768452" lon="-122.426845"><ele>39.5</ele></trkpt><trkpt lat="37.767951" lon="-122.426791"><ele>36.5</ele></trkpt><trkpt lat="37.767873" lon="-122.426784"><ele>35.9</ele></trkpt><trkpt lat="37.767798" lon="-122.426776"><ele>35.2</ele></trkpt><trkpt lat="37.767064" lon="-122.426708"><ele>31.8</ele></trkpt><trkpt lat="37.766348" lon="-122.426638"><ele>29.4</ele></trkpt><trkpt lat="37.766262" lon="-122.426631"><ele>29.2</ele></trkpt><trkpt lat="37.766207" lon="-122.426626"><ele>29.0</ele></trkpt><trkpt lat="37.765776" lon="-122.426585"><ele>28.0</ele></trkpt><trkpt lat="37.765314" lon="-122.426540"><ele>27.4</ele></trkpt><trkpt lat="37.764747" lon="-122.426484"><ele>27.1</ele></trkpt><trkpt lat="37.764639" lon="-122.426475"><ele>27.1</ele></trkpt><trkpt lat="37.764564" lon="-122.426467"><ele>27.1</ele></trkpt><trkpt lat="37.763950" lon="-122.426408"><ele>27.1</ele></trkpt><trkpt lat="37.763543" lon="-122.426369"><ele>26.7</ele></trkpt><trkpt lat="37.763114" lon="-122.426328"><ele>26.0</ele></trkpt><trkpt lat="37.763097" lon="-122.426326"><ele>25.9</ele></trkpt><trkpt lat="37.763021" lon="-122.426319"><ele>25.8</ele></trkpt><trkpt lat="37.762956" lon="-122.426313"><ele>25.7</ele></trkpt><trkpt lat="37.762642" lon="-122.426281"><ele>25.2</ele></trkpt><trkpt lat="37.762162" lon="-122.426236"><ele>24.6</ele></trkpt><trkpt lat="37.762096" lon="-122.426230"><ele>24.4</ele></trkpt><trkpt lat="37.761519" lon="-122.426175"><ele>22.5</ele></trkpt><trkpt lat="37.761422" lon="-122.426165"><ele>22.2</ele></trkpt><trkpt lat="37.761360" lon="-122.426159"><ele>22.1</ele></trkpt><trkpt lat="37.760919" lon="-122.426117"><ele>21.4</ele></trkpt><trkpt lat="37.760639" lon="-122.426090"><ele>21.6</ele></trkpt><trkpt lat="37.759911" lon="-122.426020"><ele>22.9</ele></trkpt><trkpt lat="37.759823" lon="-122.426012"><ele>22.9</ele></trkpt><trkpt lat="37.759760" lon="-122.426005"><ele>22.9</ele></trkpt><trkpt lat="37.759754" lon="-122.426107"><ele>22.9</ele></trkpt><trkpt lat="37.759748" lon="-122.426212"><ele>22.9</ele></trkpt><trkpt lat="37.759742" lon="-122.426305"><ele>22.9</ele></trkpt><trkpt lat="37.759760" lon="-122.426331"><ele>22.9</ele></trkpt><trkpt lat="37.759731" lon="-122.426794"><ele>22.9</ele></trkpt><trkpt lat="37.759700" lon="-122.426789"><ele>22.9</ele></trkpt><trkpt lat="37.759641" lon="-122.426782"><ele>22.9</ele></trkpt><trkpt lat="37.759603" lon="-122.426779"><ele>22.9</ele></trkpt><trkpt lat="37.759597" lon="-122.426779"><ele>22.9</ele></trkpt><trkpt lat="37.759603" lon="-122.426779"><ele>22.9</ele></trkpt><trkpt lat="37.759641" lon="-122.426782"><ele>22.9</ele></trkpt><trkpt lat="37.759700" lon="-122.426789"><ele>22.9</ele></trkpt><trkpt lat="37.759731" lon="-122.426794"><ele>22.9</ele></trkpt><trkpt lat="37.759760" lon="-122.426331"><ele>22.9</ele></trkpt><trkpt lat="37.759742" lon="-122.426305"><ele>22.9</ele></trkpt><trkpt lat="37.759748" lon="-122.426212"><ele>22.9</ele></trkpt><trkpt lat="37.759754" lon="-122.426107"><ele>22.9</ele></trkpt><trkpt lat="37.759760" lon="-122.426005"><ele>22.9</ele></trkpt><trkpt lat="37.759769" lon="-122.425857"><ele>22.9</ele></trkpt><trkpt lat="37.759828" lon="-122.425862"><ele>22.9</ele></trkpt><trkpt lat="37.759920" lon="-122.425871"><ele>22.9</ele></trkpt><trkpt lat="37.760647" lon="-122.425941"><ele>21.6</ele></trkpt><trkpt lat="37.761369" lon="-122.426011"><ele>22.1</ele></trkpt><trkpt lat="37.761431" lon="-122.426016"><ele>22.3</ele></trkpt><trkpt lat="37.761528" lon="-122.426026"><ele>22.5</ele></trkpt><trkpt lat="37.762201" lon="-122.426090"><ele>24.7</ele></trkpt><trkpt lat="37.762632" lon="-122.426132"><ele>25.2</ele></trkpt><trkpt lat="37.762964" lon="-122.426164"><ele>25.7</ele></trkpt><trkpt lat="37.763029" lon="-122.426170"><ele>25.8</ele></trkpt><trkpt lat="37.763106" lon="-122.426177"><ele>25.9</ele></trkpt><trkpt lat="37.763118" lon="-122.426179"><ele>26.0</ele></trkpt><trkpt lat="37.763522" lon="-122.426217"><ele>26.6</ele></trkpt><trkpt lat="37.763550" lon="-122.426220"><ele>26.7</ele></trkpt><trkpt lat="37.763980" lon="-122.426261"><ele>27.1</ele></trkpt><trkpt lat="37.764225" lon="-122.426279"><ele>27.1</ele></trkpt><trkpt lat="37.764333" lon="-122.426290"><ele>27.1</ele></trkpt><trkpt lat="37.764572" lon="-122.426317"><ele>27.1</ele></trkpt><trkpt lat="37.764647" lon="-122.426326"><ele>27.1</ele></trkpt><trkpt lat="37.764756" lon="-122.426336"><ele>27.1</ele></trkpt><trkpt lat="37.765319" lon="-122.426390"><ele>27.4</ele></trkpt><trkpt lat="37.765785" lon="-122.426435"><ele>27.8</ele></trkpt><trkpt lat="37.766217" lon="-122.426476"><ele>28.6</ele></trkpt><trkpt lat="37.766271" lon="-122.426482"><ele>28.7</ele></trkpt><trkpt lat="37.766357" lon="-122.426489"><ele>28.9</ele></trkpt><trkpt lat="37.767057" lon="-122.426557"><ele>30.5</ele></trkpt><trkpt lat="37.767806" lon="-122.426628"><ele>34.1</ele></trkpt><trkpt lat="37.767882" lon="-122.426636"><ele>34.7</ele></trkpt><trkpt lat="37.767959" lon="-122.426645"><ele>35.4</ele></trkpt><trkpt lat="37.768460" lon="-122.426701"><ele>38.5</ele></trkpt><trkpt lat="37.768997" lon="-122.426764"><ele>40.0</ele></trkpt><trkpt lat="37.769047" lon="-122.426769"><ele>40.0</ele></trkpt><trkpt lat="37.769111" lon="-122.426775"><ele>40.1</ele></trkpt><trkpt lat="37.769117" lon="-122.426775"><ele>40.1</ele></trkpt><trkpt lat="37.769126" lon="-122.426771"><ele>40.1</ele></trkpt><trkpt lat="37.769139" lon="-122.426763"><ele>40.1</ele></trkpt><trkpt lat="37.769151" lon="-122.426753"><ele>40.2</ele></trkpt><trkpt lat="37.769173" lon="-122.426729"><ele>40.2</ele></trkpt><trkpt lat="37.769216" lon="-122.426677"><ele>40.3</ele></trkpt><trkpt lat="37.769282" lon="-122.426598"><ele>40.6</ele></trkpt><trkpt lat="37.769357" lon="-122.426506"><ele>41.0</ele></trkpt><trkpt lat="37.769650" lon="-122.426132"><ele>42.1</ele></trkpt><trkpt lat="37.769728" lon="-122.426035"><ele>42.1</ele></trkpt><trkpt lat="37.769764" lon="-122.425991"><ele>42.1</ele></trkpt><trkpt lat="37.769844" lon="-122.425885"><ele>42.1</ele></trkpt><trkpt lat="37.770169" lon="-122.425473"><ele>40.6</ele></trkpt><trkpt lat="37.770211" lon="-122.425413"><ele>40.3</ele></trkpt><trkpt lat="37.770283" lon="-122.425300"><ele>39.7</ele></trkpt><trkpt lat="37.770296" lon="-122.425281"><ele>39.6</ele></trkpt><trkpt lat="37.770331" lon="-122.425233"><ele>39.3</ele></trkpt><trkpt lat="37.770588" lon="-122.424909"><ele>37.3</ele></trkpt><trkpt lat="37.770602" lon="-122.424894"><ele>37.2</ele></trkpt><trkpt lat="37.770655" lon="-122.424832"><ele>36.7</ele></trkpt><trkpt lat="37.770718" lon="-122.424760"><ele>36.3</ele></trkpt><trkpt lat="37.770764" lon="-122.424707"><ele>36.0</ele></trkpt><trkpt lat="37.770866" lon="-122.424590"><ele>35.3</ele></trkpt><trkpt lat="37.771274" lon="-122.424075"><ele>32.0</ele></trkpt><trkpt lat="37.771324" lon="-122.424011"><ele>31.5</ele></trkpt><trkpt lat="37.771535" lon="-122.423745"><ele>29.6</ele></trkpt><trkpt lat="37.771719" lon="-122.423525"><ele>28.6</ele></trkpt><trkpt lat="37.771745" lon="-122.423492"><ele>28.5</ele></trkpt><trkpt lat="37.771803" lon="-122.423411"><ele>28.1</ele></trkpt><trkpt lat="37.771866" lon="-122.423325"><ele>27.8</ele></trkpt><trkpt lat="37.771925" lon="-122.423248"><ele>27.4</ele></trkpt><trkpt lat="37.771954" lon="-122.423210"><ele>27.2</ele></trkpt><trkpt lat="37.772088" lon="-122.423035"><ele>26.3</ele></trkpt><trkpt lat="37.772256" lon="-122.422818"><ele>25.3</ele></trkpt><trkpt lat="37.772398" lon="-122.422636"><ele>24.9</ele></trkpt><trkpt lat="37.772516" lon="-122.422453"><ele>24.6</ele></trkpt><trkpt lat="37.772773" lon="-122.422127"><ele>24.4</ele></trkpt><trkpt lat="37.772899" lon="-122.421966"><ele>24.4</ele></trkpt><trkpt lat="37.772963" lon="-122.421919"><ele>24.4</ele></trkpt><trkpt lat="37.773012" lon="-122.421886"><ele>24.4</ele></trkpt><trkpt lat="37.773034" lon="-122.421872"><ele>24.4</ele></trkpt><trkpt lat="37.773090" lon="-122.421802"><ele>24.2</ele></trkpt><trkpt lat="37.773533" lon="-122.421243"><ele>22.8</ele></trkpt><trkpt lat="37.773936" lon="-122.420723"><ele>21.4</ele></trkpt><trkpt lat="37.773999" lon="-122.420644"><ele>21.1</ele></trkpt><trkpt lat="37.774109" lon="-122.420505"><ele>20.7</ele></trkpt><trkpt lat="37.774339" lon="-122.420238"><ele>20.0</ele></trkpt><trkpt lat="37.774408" lon="-122.420143"><ele>19.9</ele></trkpt><trkpt lat="37.774614" lon="-122.419869"><ele>19.3</ele></trkpt><trkpt lat="37.774861" lon="-122.419546"><ele>18.5</ele></trkpt><trkpt lat="37.774896" lon="-122.419502"><ele>18.4</ele></trkpt><trkpt lat="37.774925" lon="-122.419466"><ele>18.3</ele></trkpt><trkpt lat="37.775035" lon="-122.419327"><ele>18.5</ele></trkpt><trkpt lat="37.774954" lon="-122.419312"><ele>18.5</ele></trkpt><trkpt lat="37.774909" lon="-122.419371"><ele>18.6</ele></trkpt><trkpt lat="37.774892" lon="-122.419387"><ele>18.6</ele></trkpt><trkpt lat="37.774909" lon="-122.419371"><ele>18.7</ele></trkpt><trkpt lat="37.774954" lon="-122.419312"><ele>18.7</ele></trkpt><trkpt lat="37.775022" lon="-122.419223"><ele>18.8</ele></trkpt><trkpt lat="37.775053" lon="-122.419184"><ele>18.9</ele></trkpt><trkpt lat="37.775072" lon="-122.419161"><ele>18.9</ele></trkpt><trkpt lat="37.775089" lon="-122.419141"><ele>18.9</ele></trkpt><trkpt lat="37.775176" lon="-122.419158"><ele>19.0</ele></trkpt><trkpt lat="37.775212" lon="-122.419164"><ele>19.1</ele></trkpt><trkpt lat="37.775240" lon="-122.419169"><ele>19.1</ele></trkpt><trkpt lat="37.775261" lon="-122.419172"><ele>19.1</ele></trkpt><trkpt lat="37.775321" lon="-122.419183"><ele>19.2</ele></trkpt><trkpt lat="37.775418" lon="-122.419202"><ele>19.3</ele></trkpt><trkpt lat="37.775591" lon="-122.419243"><ele>19.5</ele></trkpt><trkpt lat="37.776309" lon="-122.419400"><ele>21.3</ele></trkpt><trkpt lat="37.776393" lon="-122.419417"><ele>21.5</ele></trkpt><trkpt lat="37.776475" lon="-122.419433"><ele>21.8</ele></trkpt><trkpt lat="37.777245" lon="-122.419587"><ele>23.5</ele></trkpt><trkpt lat="37.777318" lon="-122.419602"><ele>23.6</ele></trkpt><trkpt lat="37.777311" lon="-122.419656"><ele>23.7</ele></trkpt><trkpt lat="37.777301" lon="-122.419735"><ele>23.7</ele></trkpt><trkpt lat="37.777294" lon="-122.419790"><ele>23.8</ele></trkpt><trkpt lat="37.777280" lon="-122.419903"><ele>23.9</ele></trkpt><trkpt lat="37.777243" lon="-122.420186"><ele>24.2</ele></trkpt><trkpt lat="37.777230" lon="-122.420290"><ele>24.4</ele></trkpt><trkpt lat="37.777106" lon="-122.421256"><ele>25.3</ele></trkpt><trkpt lat="37.777093" lon="-122.421351"><ele>25.3</ele></trkpt><trkpt lat="37.777079" lon="-122.421464"><ele>25.3</ele></trkpt><trkpt lat="37.776950" lon="-122.422521"><ele>24.8</ele></trkpt><trkpt lat="37.776901" lon="-122.422902"><ele>24.8</ele></trkpt><trkpt lat="37.776889" lon="-122.422997"><ele>25.0</ele></trkpt><trkpt lat="37.776876" lon="-122.423101"><ele>25.1</ele></trkpt><trkpt lat="37.776844" lon="-122.423350"><ele>25.4</ele></trkpt><trkpt lat="37.776712" lon="-122.424380"><ele>26.1</ele></trkpt><trkpt lat="37.776696" lon="-122.424506"><ele>26.4</ele></trkpt><trkpt lat="37.776691" lon="-122.424545"><ele>26.5</ele></trkpt><trkpt lat="37.776679" lon="-122.424645"><ele>26.7</ele></trkpt><trkpt lat="37.776666" lon="-122.424744"><ele>27.0</ele></trkpt><trkpt lat="37.776662" lon="-122.424778"><ele>27.0</ele></trkpt><trkpt lat="37.776489" lon="-122.426142"><ele>31.0</ele></trkpt><trkpt lat="37.776485" lon="-122.426173"><ele>31.1</ele></trkpt><trkpt lat="37.776471" lon="-122.426286"><ele>31.4</ele></trkpt><trkpt lat="37.776463" lon="-122.426345"><ele>31.6</ele></trkpt><trkpt lat="37.776295" lon="-122.427670"><ele>36.2</ele></trkpt><trkpt lat="37.776274" lon="-122.427829"><ele>36.8</ele></trkpt><trkpt lat="37.776262" lon="-122.427928"><ele>37.1</ele></trkpt><trkpt lat="37.776252" lon="-122.428030"><ele>37.5</ele></trkpt><trkpt lat="37.776227" lon="-122.428199"><ele>38.1</ele></trkpt><trkpt lat="37.776099" lon="-122.429208"><ele>43.5</ele></trkpt><trkpt lat="37.776065" lon="-122.429474"><ele>45.1</ele></trkpt><trkpt lat="37.776052" lon="-122.429572"><ele>45.6</ele></trkpt><trkpt lat="37.776039" lon="-122.429678"><ele>46.2</ele></trkpt><trkpt lat="37.776008" lon="-122.429925"><ele>47.6</ele></trkpt><trkpt lat="37.775906" lon="-122.430726"><ele>51.4</ele></trkpt><trkpt lat="37.775880" lon="-122.430925"><ele>52.2</ele></trkpt><trkpt lat="37.775855" lon="-122.431120"><ele>52.3</ele></trkpt><trkpt lat="37.775843" lon="-122.431216"><ele>52.4</ele></trkpt><trkpt lat="37.775930" lon="-122.431234"><ele>52.5</ele></trkpt><trkpt lat="37.776096" lon="-122.431267"><ele>52.7</ele></trkpt><trkpt lat="37.776705" lon="-122.431389"><ele>49.8</ele></trkpt><trkpt lat="37.776776" lon="-122.431404"><ele>49.5</ele></trkpt><trkpt lat="37.776858" lon="-122.431421"><ele>49.2</ele></trkpt><trkpt lat="37.776887" lon="-122.431426"><ele>49.0</ele></trkpt><trkpt lat="37.777067" lon="-122.431463"><ele>48.3</ele></trkpt><trkpt lat="37.777632" lon="-122.431577"><ele>45.6</ele></trkpt><trkpt lat="37.777707" lon="-122.431592"><ele>45.2</ele></trkpt><trkpt lat="37.777794" lon="-122.431609"><ele>44.6</ele></trkpt><trkpt lat="37.777898" lon="-122.431631"><ele>43.9</ele></trkpt><trkpt lat="37.778093" lon="-122.431670"><ele>42.6</ele></trkpt><trkpt lat="37.778251" lon="-122.431703"><ele>41.5</ele></trkpt><trkpt lat="37.778419" lon="-122.431737"><ele>41.1</ele></trkpt><trkpt lat="37.778535" lon="-122.431761"><ele>40.8</ele></trkpt><trkpt lat="37.778571" lon="-122.431768"><ele>40.7</ele></trkpt><trkpt lat="37.778635" lon="-122.431781"><ele>40.6</ele></trkpt><trkpt lat="37.778722" lon="-122.431799"><ele>40.4</ele></trkpt><trkpt lat="37.779215" lon="-122.431898"><ele>40.0</ele></trkpt><trkpt lat="37.779495" lon="-122.431955"><ele>39.5</ele></trkpt><trkpt lat="37.779569" lon="-122.431969"><ele>39.3</ele></trkpt><trkpt lat="37.779665" lon="-122.431989"><ele>39.0</ele></trkpt><trkpt lat="37.779827" lon="-122.432022"><ele>38.5</ele></trkpt><trkpt lat="37.779962" lon="-122.432049"><ele>38.3</ele></trkpt><trkpt lat="37.779981" lon="-122.432052"><ele>38.3</ele></trkpt><trkpt lat="37.780258" lon="-122.432108"><ele>38.0</ele></trkpt><trkpt lat="37.780289" lon="-122.432115"><ele>37.9</ele></trkpt><trkpt lat="37.780433" lon="-122.432144"><ele>37.9</ele></trkpt><trkpt lat="37.780502" lon="-122.432157"><ele>38.0</ele></trkpt><trkpt lat="37.780579" lon="-122.432173"><ele>38.2</ele></trkpt><trkpt lat="37.781365" lon="-122.432331"><ele>39.7</ele></trkpt><trkpt lat="37.781435" lon="-122.432346"><ele>39.9</ele></trkpt><trkpt lat="37.781512" lon="-122.432361"><ele>40.0</ele></trkpt><trkpt lat="37.781583" lon="-122.432375"><ele>40.2</ele></trkpt><trkpt lat="37.781720" lon="-122.432403"><ele>40.5</ele></trkpt><trkpt lat="37.782351" lon="-122.432529"><ele>41.7</ele></trkpt><trkpt lat="37.783046" lon="-122.432670"><ele>42.6</ele></trkpt><trkpt lat="37.783203" lon="-122.432702"><ele>42.7</ele></trkpt><trkpt lat="37.783233" lon="-122.432708"><ele>42.7</ele></trkpt><trkpt lat="37.783291" lon="-122.432720"><ele>42.7</ele></trkpt><trkpt lat="37.783376" lon="-122.432736"><ele>42.7</ele></trkpt><trkpt lat="37.784152" lon="-122.432893"><ele>42.7</ele></trkpt><trkpt lat="37.784218" lon="-122.432906"><ele>42.7</ele></trkpt><trkpt lat="37.784249" lon="-122.432912"><ele>42.7</ele></trkpt><trkpt lat="37.784276" lon="-122.432918"><ele>42.7</ele></trkpt><trkpt lat="37.784468" lon="-122.432956"><ele>42.9</ele></trkpt><trkpt lat="37.784484" lon="-122.432959"><ele>42.9</ele></trkpt><trkpt lat="37.784523" lon="-122.432967"><ele>42.9</ele></trkpt><trkpt lat="37.784583" lon="-122.432980"><ele>42.9</ele></trkpt><trkpt lat="37.784913" lon="-122.433047"><ele>43.9</ele></trkpt><trkpt lat="37.784958" lon="-122.433056"><ele>44.1</ele></trkpt><trkpt lat="37.785013" lon="-122.433067"><ele>44.3</ele></trkpt><trkpt lat="37.785088" lon="-122.433082"><ele>44.6</ele></trkpt><trkpt lat="37.785162" lon="-122.433097"><ele>44.9</ele></trkpt><trkpt lat="37.785249" lon="-122.433115"><ele>45.2</ele></trkpt><trkpt lat="37.785737" lon="-122.433215"><ele>47.5</ele></trkpt><trkpt lat="37.785822" lon="-122.433233"><ele>47.8</ele></trkpt><trkpt lat="37.785941" lon="-122.433257"><ele>48.4</ele></trkpt><trkpt lat="37.786023" lon="-122.433273"><ele>48.8</ele></trkpt><trkpt lat="37.786095" lon="-122.433289"><ele>49.1</ele></trkpt><trkpt lat="37.786180" lon="-122.433307"><ele>49.5</ele></trkpt><trkpt lat="37.786474" lon="-122.433375"><ele>50.8</ele></trkpt><trkpt lat="37.786949" lon="-122.433469"><ele>53.1</ele></trkpt><trkpt lat="37.787024" lon="-122.433483"><ele>53.6</ele></trkpt><trkpt lat="37.787115" lon="-122.433501"><ele>54.2</ele></trkpt><trkpt lat="37.787488" lon="-122.433572"><ele>56.2</ele></trkpt><trkpt lat="37.787717" lon="-122.433617"><ele>57.0</ele></trkpt><trkpt lat="37.787744" lon="-122.433622"><ele>57.1</ele></trkpt><trkpt lat="37.787876" lon="-122.433648"><ele>57.5</ele></trkpt><trkpt lat="37.787958" lon="-122.433664"><ele>57.8</ele></trkpt><trkpt lat="37.788052" lon="-122.433684"><ele>58.0</ele></trkpt><trkpt lat="37.788163" lon="-122.433706"><ele>58.4</ele></trkpt><trkpt lat="37.788282" lon="-122.433730"><ele>58.7</ele></trkpt><trkpt lat="37.788814" lon="-122.433837"><ele>61.1</ele></trkpt><trkpt lat="37.788909" lon="-122.433857"><ele>61.5</ele></trkpt><trkpt lat="37.789012" lon="-122.433877"><ele>62.0</ele></trkpt><trkpt lat="37.789558" lon="-122.433987"><ele>64.6</ele></trkpt><trkpt lat="37.789749" lon="-122.434025"><ele>65.7</ele></trkpt><trkpt lat="37.789768" lon="-122.434029"><ele>65.8</ele></trkpt><trkpt lat="37.789838" lon="-122.434043"><ele>66.2</ele></trkpt><trkpt lat="37.789915" lon="-122.434059"><ele>66.6</ele></trkpt><trkpt lat="37.789939" lon="-122.434064"><ele>66.8</ele></trkpt><trkpt lat="37.790137" lon="-122.434105"><ele>67.9</ele></trkpt><trkpt lat="37.790631" lon="-122.434203"><ele>70.7</ele></trkpt><trkpt lat="37.790643" lon="-122.434205"><ele>70.8</ele></trkpt><trkpt lat="37.790720" lon="-122.434220"><ele>71.3</ele></trkpt><trkpt lat="37.790800" lon="-122.434236"><ele>71.9</ele></trkpt><trkpt lat="37.790822" lon="-122.434241"><ele>72.0</ele></trkpt><trkpt lat="37.791511" lon="-122.434379"><ele>76.3</ele></trkpt><trkpt lat="37.791533" lon="-122.434383"><ele>76.4</ele></trkpt><trkpt lat="37.791599" lon="-122.434397"><ele>76.8</ele></trkpt><trkpt lat="37.791675" lon="-122.434412"><ele>77.2</ele></trkpt><trkpt lat="37.791699" lon="-122.434417"><ele>77.4</ele></trkpt><trkpt lat="37.792140" lon="-122.434508"><ele>79.6</ele></trkpt><trkpt lat="37.792236" lon="-122.434527"><ele>79.9</ele></trkpt><trkpt lat="37.792391" lon="-122.434559"><ele>80.2</ele></trkpt><trkpt lat="37.792404" lon="-122.434562"><ele>80.2</ele></trkpt><trkpt lat="37.792477" lon="-122.434577"><ele>80.3</ele></trkpt><trkpt lat="37.792555" lon="-122.434592"><ele>80.5</ele></trkpt><trkpt lat="37.792577" lon="-122.434597"><ele>80.5</ele></trkpt><trkpt lat="37.792652" lon="-122.434612"><ele>80.6</ele></trkpt><trkpt lat="37.792777" lon="-122.434637"><ele>80.6</ele></trkpt><trkpt lat="37.793269" lon="-122.434736"><ele>78.6</ele></trkpt><trkpt lat="37.793292" lon="-122.434740"><ele>78.3</ele></trkpt><trkpt lat="37.793355" lon="-122.434753"><ele>77.7</ele></trkpt><trkpt lat="37.793435" lon="-122.434770"><ele>76.9</ele></trkpt><trkpt lat="37.793459" lon="-122.434774"><ele>76.7</ele></trkpt><trkpt lat="37.793823" lon="-122.434849"><ele>73.0</ele></trkpt><trkpt lat="37.793968" lon="-122.434881"><ele>70.9</ele></trkpt><trkpt lat="37.793993" lon="-122.434885"><ele>70.6</ele></trkpt><trkpt lat="37.794169" lon="-122.434917"><ele>68.0</ele></trkpt><trkpt lat="37.794191" lon="-122.434921"><ele>67.7</ele></trkpt><trkpt lat="37.794281" lon="-122.434939"><ele>66.4</ele></trkpt><trkpt lat="37.794378" lon="-122.434958"><ele>64.8</ele></trkpt><trkpt lat="37.794393" lon="-122.434961"><ele>64.5</ele></trkpt><trkpt lat="37.795136" lon="-122.435112"><ele>50.6</ele></trkpt><trkpt lat="37.795151" lon="-122.435115"><ele>50.3</ele></trkpt><trkpt lat="37.795229" lon="-122.435131"><ele>48.9</ele></trkpt><trkpt lat="37.795306" lon="-122.435147"><ele>47.5</ele></trkpt><trkpt lat="37.795325" lon="-122.435150"><ele>47.2</ele></trkpt><trkpt lat="37.796073" lon="-122.435302"><ele>35.8</ele></trkpt><trkpt lat="37.796085" lon="-122.435305"><ele>35.6</ele></trkpt><trkpt lat="37.796162" lon="-122.435320"><ele>34.5</ele></trkpt><trkpt lat="37.796242" lon="-122.435336"><ele>33.3</ele></trkpt><trkpt lat="37.796256" lon="-122.435339"><ele>33.1</ele></trkpt><trkpt lat="37.797018" lon="-122.435493"><ele>24.7</ele></trkpt><trkpt lat="37.797096" lon="-122.435509"><ele>24.2</ele></trkpt><trkpt lat="37.797174" lon="-122.435525"><ele>23.7</ele></trkpt><trkpt lat="37.797316" lon="-122.435553"><ele>22.8</ele></trkpt><trkpt lat="37.797427" lon="-122.435575"><ele>22.1</ele></trkpt><trkpt lat="37.797935" lon="-122.435678"><ele>18.5</ele></trkpt><trkpt lat="37.797959" lon="-122.435684"><ele>18.3</ele></trkpt><trkpt lat="37.798027" lon="-122.435697"><ele>17.8</ele></trkpt><trkpt lat="37.798107" lon="-122.435713"><ele>17.3</ele></trkpt><trkpt lat="37.798118" lon="-122.435715"><ele>17.3</ele></trkpt><trkpt lat="37.798494" lon="-122.435792"><ele>15.5</ele></trkpt><trkpt lat="37.798866" lon="-122.435867"><ele>14.7</ele></trkpt><trkpt lat="37.798882" lon="-122.435870"><ele>14.6</ele></trkpt><trkpt lat="37.798961" lon="-122.435886"><ele>14.5</ele></trkpt><trkpt lat="37.799041" lon="-122.435902"><ele>14.5</ele></trkpt><trkpt lat="37.799051" lon="-122.435904"><ele>14.4</ele></trkpt><trkpt lat="37.799426" lon="-122.435980"><ele>13.9</ele></trkpt><trkpt lat="37.799575" lon="-122.436010"><ele>13.6</ele></trkpt><trkpt lat="37.799706" lon="-122.436037"><ele>13.4</ele></trkpt><trkpt lat="37.799726" lon="-122.436041"><ele>13.4</ele></trkpt><trkpt lat="37.799802" lon="-122.436056"><ele>13.3</ele></trkpt><trkpt lat="37.799896" lon="-122.436075"><ele>13.2</ele></trkpt><trkpt lat="37.799972" lon="-122.436091"><ele>13.1</ele></trkpt><trkpt lat="37.800748" lon="-122.436248"><ele>12.5</ele></trkpt><trkpt lat="37.800820" lon="-122.436263"><ele>12.5</ele></trkpt><trkpt lat="37.800804" lon="-122.436388"><ele>12.5</ele></trkpt><trkpt lat="37.800798" lon="-122.436439"><ele>12.5</ele></trkpt><trkpt lat="37.800795" lon="-122.436460"><ele>12.5</ele></trkpt><trkpt lat="37.800743" lon="-122.436877"><ele>12.5</ele></trkpt><trkpt lat="37.800703" lon="-122.437184"><ele>12.2</ele></trkpt><trkpt lat="37.800686" lon="-122.437317"><ele>12.1</ele></trkpt><trkpt lat="37.800675" lon="-122.437402"><ele>12.0</ele></trkpt><trkpt lat="37.800624" lon="-122.437798"><ele>11.4</ele></trkpt><trkpt lat="37.800622" lon="-122.437819"><ele>11.4</ele></trkpt><trkpt lat="37.800611" lon="-122.437908"><ele>11.2</ele></trkpt><trkpt lat="37.800600" lon="-122.437996"><ele>11.1</ele></trkpt><trkpt lat="37.800595" lon="-122.438031"><ele>11.0</ele></trkpt><trkpt lat="37.800426" lon="-122.439363"><ele>9.6</ele></trkpt><trkpt lat="37.800423" lon="-122.439386"><ele>9.6</ele></trkpt><trkpt lat="37.800417" lon="-122.439436"><ele>9.6</ele></trkpt><trkpt lat="37.800406" lon="-122.439522"><ele>9.5</ele></trkpt><trkpt lat="37.800393" lon="-122.439623"><ele>9.4</ele></trkpt><trkpt lat="37.800389" lon="-122.439658"><ele>9.4</ele></trkpt><trkpt lat="37.800386" lon="-122.439676"><ele>9.4</ele></trkpt><trkpt lat="37.800336" lon="-122.440069"><ele>9.2</ele></trkpt><trkpt lat="37.800303" lon="-122.440328"><ele>9.1</ele></trkpt><trkpt lat="37.800292" lon="-122.440413"><ele>9.1</ele></trkpt><trkpt lat="37.800211" lon="-122.441058"><ele>9.2</ele></trkpt><trkpt lat="37.800204" lon="-122.441108"><ele>9.2</ele></trkpt><trkpt lat="37.800193" lon="-122.441196"><ele>9.3</ele></trkpt><trkpt lat="37.800180" lon="-122.441297"><ele>9.3</ele></trkpt><trkpt lat="37.800176" lon="-122.441331"><ele>9.3</ele></trkpt><trkpt lat="37.800001" lon="-122.442704"><ele>9.2</ele></trkpt><trkpt lat="37.799999" lon="-122.442720"><ele>9.2</ele></trkpt><trkpt lat="37.799994" lon="-122.442760"><ele>9.2</ele></trkpt><trkpt lat="37.799981" lon="-122.442864"><ele>9.2</ele></trkpt><trkpt lat="37.800070" lon="-122.442883"><ele>9.1</ele></trkpt><trkpt lat="37.800085" lon="-122.442885"><ele>9.1</ele></trkpt><trkpt lat="37.800099" lon="-122.442888"><ele>9.1</ele></trkpt><trkpt lat="37.800796" lon="-122.443030"><ele>8.6</ele></trkpt><trkpt lat="37.800828" lon="-122.443036"><ele>8.5</ele></trkpt><trkpt lat="37.800839" lon="-122.443038"><ele>8.5</ele></trkpt><trkpt lat="37.800917" lon="-122.443054"><ele>8.4</ele></trkpt><trkpt lat="37.801002" lon="-122.443071"><ele>8.3</ele></trkpt><trkpt lat="37.801010" lon="-122.443073"><ele>8.3</ele></trkpt><trkpt lat="37.801016" lon="-122.443074"><ele>8.3</ele></trkpt><trkpt lat="37.801061" lon="-122.443083"><ele>8.3</ele></trkpt><trkpt lat="37.801760" lon="-122.443224"><ele>8.2</ele></trkpt><trkpt lat="37.801777" lon="-122.443228"><ele>8.2</ele></trkpt><trkpt lat="37.801847" lon="-122.443242"><ele>8.2</ele></trkpt><trkpt lat="37.801922" lon="-122.443258"><ele>8.2</ele></trkpt><trkpt lat="37.801942" lon="-122.443262"><ele>8.2</ele></trkpt><trkpt lat="37.801951" lon="-122.443264"><ele>8.2</ele></trkpt><trkpt lat="37.802690" lon="-122.443414"><ele>8.5</ele></trkpt><trkpt lat="37.802706" lon="-122.443418"><ele>8.5</ele></trkpt><trkpt lat="37.802777" lon="-122.443432"><ele>8.6</ele></trkpt><trkpt lat="37.802860" lon="-122.443449"><ele>8.6</ele></trkpt><trkpt lat="37.802876" lon="-122.443452"><ele>8.6</ele></trkpt><trkpt lat="37.802892" lon="-122.443455"><ele>8.6</ele></trkpt><trkpt lat="37.803623" lon="-122.443603"><ele>9.1</ele></trkpt><trkpt lat="37.803639" lon="-122.443606"><ele>9.1</ele></trkpt><trkpt lat="37.803711" lon="-122.443621"><ele>9.1</ele></trkpt><trkpt lat="37.803795" lon="-122.443638"><ele>9.1</ele></trkpt><trkpt lat="37.803806" lon="-122.443640"><ele>9.1</ele></trkpt><trkpt lat="37.803921" lon="-122.443664"><ele>8.8</ele></trkpt><trkpt lat="37.804554" lon="-122.443792"><ele>6.9</ele></trkpt><trkpt lat="37.804569" lon="-122.443796"><ele>6.9</ele></trkpt><trkpt lat="37.804645" lon="-122.443811"><ele>6.7</ele></trkpt><trkpt lat="37.804731" lon="-122.443828"><ele>6.4</ele></trkpt><trkpt lat="37.804736" lon="-122.443829"><ele>6.4</ele></trkpt><trkpt lat="37.805471" lon="-122.443978"><ele>3.7</ele></trkpt><trkpt lat="37.805587" lon="-122.444002"><ele>3.3</ele></trkpt><trkpt lat="37.805393" lon="-122.445521"><ele>0.5</ele></trkpt><trkpt lat="37.805386" lon="-122.445578"><ele>0.5</ele></trkpt><trkpt lat="37.805375" lon="-122.445665"><ele>0.6</ele></trkpt><trkpt lat="37.805359" lon="-122.445787"><ele>0.6</ele></trkpt><trkpt lat="37.805181" lon="-122.447184"><ele>2.5</ele></trkpt><trkpt lat="37.805177" lon="-122.447218"><ele>2.6</ele></trkpt><trkpt lat="37.805165" lon="-122.447310"><ele>2.7</ele></trkpt><trkpt lat="37.805149" lon="-122.447434"><ele>2.9</ele></trkpt><trkpt lat="37.805133" lon="-122.447560"><ele>3.0</ele></trkpt><trkpt lat="37.805120" lon="-122.447648"><ele>3.2</ele></trkpt><trkpt lat="37.805124" lon="-122.447747"><ele>3.3</ele></trkpt><trkpt lat="37.805123" lon="-122.447836"><ele>3.4</ele></trkpt><trkpt lat="37.805117" lon="-122.447929"><ele>3.5</ele></trkpt><trkpt lat="37.805106" lon="-122.448020"><ele>3.7</ele></trkpt><trkpt lat="37.805092" lon="-122.448103"><ele>3.8</ele></trkpt><trkpt lat="37.805062" lon="-122.448223"><ele>3.9</ele></trkpt><trkpt lat="37.805055" lon="-122.448250"><ele>4.0</ele></trkpt><trkpt lat="37.805028" lon="-122.448325"><ele>4.1</ele></trkpt><trkpt lat="37.804996" lon="-122.448383"><ele>4.2</ele></trkpt><trkpt lat="37.804981" lon="-122.448503"><ele>4.3</ele></trkpt><trkpt lat="37.804969" lon="-122.448601"><ele>4.3</ele></trkpt><trkpt lat="37.804956" lon="-122.448694"><ele>4.3</ele></trkpt><trkpt lat="37.804928" lon="-122.448870"><ele>4.3</ele></trkpt><trkpt lat="37.804884" lon="-122.449118"><ele>4.3</ele></trkpt><trkpt lat="37.804848" lon="-122.449349"><ele>4.2</ele></trkpt><trkpt lat="37.804815" lon="-122.449570"><ele>4.1</ele></trkpt><trkpt lat="37.804787" lon="-122.449782"><ele>4.0</ele></trkpt><trkpt lat="37.804739" lon="-122.450143"><ele>3.5</ele></trkpt><trkpt lat="37.804736" lon="-122.450168"><ele>3.4</ele></trkpt><trkpt lat="37.804797" lon="-122.450180"><ele>3.3</ele></trkpt><trkpt lat="37.805627" lon="-122.450355"><ele>1.9</ele></trkpt><trkpt lat="37.805853" lon="-122.450393"><ele>1.5</ele></trkpt><trkpt lat="37.806045" lon="-122.450433"><ele>1.2</ele></trkpt><trkpt lat="37.806011" lon="-122.450704"><ele>1.1</ele></trkpt><trkpt lat="37.805980" lon="-122.450939"><ele>1.0</ele></trkpt><trkpt lat="37.805944" lon="-122.451207"><ele>0.9</ele></trkpt><trkpt lat="37.805910" lon="-122.451468"><ele>0.9</ele></trkpt><trkpt lat="37.805879" lon="-122.451718"><ele>0.9</ele></trkpt><trkpt lat="37.805850" lon="-122.451947"><ele>0.9</ele></trkpt><trkpt lat="37.805846" lon="-122.451976"><ele>0.9</ele></trkpt><trkpt lat="37.805812" lon="-122.452243"><ele>0.9</ele></trkpt><trkpt lat="37.805784" lon="-122.452453"><ele>0.9</ele></trkpt><trkpt lat="37.805748" lon="-122.452453"><ele>1.0</ele></trkpt><trkpt lat="37.805675" lon="-122.453013"><ele>1.5</ele></trkpt><trkpt lat="37.805640" lon="-122.453345"><ele>1.6</ele></trkpt><trkpt lat="37.805613" lon="-122.453613"><ele>1.8</ele></trkpt><trkpt lat="37.805573" lon="-122.453947"><ele>1.8</ele></trkpt><trkpt lat="37.805558" lon="-122.454061"><ele>1.8</ele></trkpt><trkpt lat="37.805520" lon="-122.454353"><ele>1.8</ele></trkpt><trkpt lat="37.805488" lon="-122.454586"><ele>1.8</ele></trkpt><trkpt lat="37.805355" lon="-122.455621"><ele>1.6</ele></trkpt><trkpt lat="37.805247" lon="-122.456451"><ele>1.2</ele></trkpt><trkpt lat="37.805179" lon="-122.456972"><ele>1.2</ele></trkpt><trkpt lat="37.805132" lon="-122.457338"><ele>1.2</ele></trkpt><trkpt lat="37.805090" lon="-122.457671"><ele>1.2</ele></trkpt><trkpt lat="37.805008" lon="-122.458320"><ele>1.2</ele></trkpt><trkpt lat="37.804928" lon="-122.458952"><ele>1.4</ele></trkpt><trkpt lat="37.804812" lon="-122.459842"><ele>1.8</ele></trkpt><trkpt lat="37.804725" lon="-122.460505"><ele>1.8</ele></trkpt><trkpt lat="37.804652" lon="-122.460971"><ele>1.8</ele></trkpt><trkpt lat="37.804610" lon="-122.461202"><ele>1.8</ele></trkpt><trkpt lat="37.804128" lon="-122.463630"><ele>2.4</ele></trkpt><trkpt lat="37.803569" lon="-122.466433"><ele>3.0</ele></trkpt><trkpt lat="37.803572" lon="-122.466482"><ele>3.1</ele></trkpt><trkpt lat="37.803573" lon="-122.466527"><ele>3.1</ele></trkpt><trkpt lat="37.803579" lon="-122.466578"><ele>3.2</ele></trkpt><trkpt lat="37.803658" lon="-122.467064"><ele>3.6</ele></trkpt><trkpt lat="37.803687" lon="-122.467243"><ele>4.2</ele></trkpt><trkpt lat="37.803694" lon="-122.467280"><ele>4.4</ele></trkpt><trkpt lat="37.803704" lon="-122.467314"><ele>4.6</ele></trkpt><trkpt lat="37.803717" lon="-122.467348"><ele>4.7</ele></trkpt><trkpt lat="37.803740" lon="-122.467385"><ele>4.9</ele></trkpt><trkpt lat="37.803779" lon="-122.467447"><ele>5.3</ele></trkpt><trkpt lat="37.803772" lon="-122.467459"><ele>5.4</ele></trkpt><trkpt lat="37.803746" lon="-122.467498"><ele>5.6</ele></trkpt><trkpt lat="37.803707" lon="-122.467557"><ele>5.9</ele></trkpt><trkpt lat="37.803694" lon="-122.467577"><ele>6.0</ele></trkpt><trkpt lat="37.803565" lon="-122.467777"><ele>7.7</ele></trkpt><trkpt lat="37.803548" lon="-122.467814"><ele>8.1</ele></trkpt><trkpt lat="37.803541" lon="-122.467836"><ele>8.3</ele></trkpt><trkpt lat="37.803532" lon="-122.467861"><ele>8.6</ele></trkpt><trkpt lat="37.803527" lon="-122.467905"><ele>9.0</ele></trkpt><trkpt lat="37.803524" lon="-122.467954"><ele>9.5</ele></trkpt><trkpt lat="37.803530" lon="-122.468022"><ele>10.1</ele></trkpt><trkpt lat="37.803547" lon="-122.468087"><ele>10.7</ele></trkpt><trkpt lat="37.803622" lon="-122.468306"><ele>12.9</ele></trkpt><trkpt lat="37.803654" lon="-122.468401"><ele>13.8</ele></trkpt><trkpt lat="37.803706" lon="-122.468568"><ele>15.3</ele></trkpt><trkpt lat="37.803728" lon="-122.468632"><ele>15.9</ele></trkpt><trkpt lat="37.803754" lon="-122.468682"><ele>16.5</ele></trkpt><trkpt lat="37.803785" lon="-122.468726"><ele>17.0</ele></trkpt><trkpt lat="37.803819" lon="-122.468765"><ele>17.5</ele></trkpt><trkpt lat="37.803860" lon="-122.468802"><ele>18.0</ele></trkpt><trkpt lat="37.804190" lon="-122.469106"><ele>22.0</ele></trkpt><trkpt lat="37.804236" lon="-122.469153"><ele>22.6</ele></trkpt><trkpt lat="37.804274" lon="-122.469198"><ele>23.1</ele></trkpt><trkpt lat="37.804311" lon="-122.469254"><ele>23.7</ele></trkpt><trkpt lat="37.804344" lon="-122.469317"><ele>24.2</ele></trkpt><trkpt lat="37.804413" lon="-122.469458"><ele>25.5</ele></trkpt><trkpt lat="37.804446" lon="-122.469522"><ele>26.1</ele></trkpt><trkpt lat="37.804481" lon="-122.469588"><ele>26.7</ele></trkpt><trkpt lat="37.804519" lon="-122.469645"><ele>27.3</ele></trkpt><trkpt lat="37.804558" lon="-122.469695"><ele>27.8</ele></trkpt><trkpt lat="37.804602" lon="-122.469736"><ele>28.3</ele></trkpt><trkpt lat="37.804647" lon="-122.469770"><ele>28.8</ele></trkpt><trkpt lat="37.804699" lon="-122.469799"><ele>29.3</ele></trkpt><trkpt lat="37.804750" lon="-122.469820"><ele>29.5</ele></trkpt><trkpt lat="37.804795" lon="-122.469835"><ele>29.6</ele></trkpt><trkpt lat="37.804830" lon="-122.469846"><ele>29.7</ele></trkpt><trkpt lat="37.804848" lon="-122.469858"><ele>29.8</ele></trkpt><trkpt lat="37.804860" lon="-122.469869"><ele>29.9</ele></trkpt><trkpt lat="37.804872" lon="-122.469881"><ele>29.9</ele></trkpt><trkpt lat="37.804882" lon="-122.469900"><ele>30.0</ele></trkpt><trkpt lat="37.804894" lon="-122.469927"><ele>30.1</ele></trkpt><trkpt lat="37.804903" lon="-122.469955"><ele>30.1</ele></trkpt><trkpt lat="37.804994" lon="-122.469919"><ele>30.5</ele></trkpt><trkpt lat="37.805084" lon="-122.469895"><ele>30.8</ele></trkpt><trkpt lat="37.805173" lon="-122.469885"><ele>31.1</ele></trkpt><trkpt lat="37.805261" lon="-122.469885"><ele>31.2</ele></trkpt><trkpt lat="37.805347" lon="-122.469890"><ele>31.4</ele></trkpt><trkpt lat="37.805438" lon="-122.469902"><ele>31.5</ele></trkpt><trkpt lat="37.805515" lon="-122.469917"><ele>31.7</ele></trkpt><trkpt lat="37.805593" lon="-122.469941"><ele>31.8</ele></trkpt><trkpt lat="37.805661" lon="-122.469969"><ele>31.9</ele></trkpt><trkpt lat="37.805726" lon="-122.470002"><ele>32.1</ele></trkpt><trkpt lat="37.805794" lon="-122.470045"><ele>32.4</ele></trkpt><trkpt lat="37.805867" lon="-122.470106"><ele>32.7</ele></trkpt><trkpt lat="37.805913" lon="-122.470157"><ele>33.0</ele></trkpt><trkpt lat="37.805947" lon="-122.470204"><ele>33.2</ele></trkpt><trkpt lat="37.805989" lon="-122.470282"><ele>33.5</ele></trkpt><trkpt lat="37.806037" lon="-122.470387"><ele>33.8</ele></trkpt><trkpt lat="37.806064" lon="-122.470460"><ele>34.1</ele></trkpt><trkpt lat="37.806100" lon="-122.470565"><ele>34.3</ele></trkpt><trkpt lat="37.806134" lon="-122.470674"><ele>34.5</ele></trkpt><trkpt lat="37.806270" lon="-122.471112"><ele>35.3</ele></trkpt><trkpt lat="37.806298" lon="-122.471196"><ele>35.5</ele></trkpt><trkpt lat="37.806329" lon="-122.471285"><ele>35.8</ele></trkpt><trkpt lat="37.806362" lon="-122.471365"><ele>36.0</ele></trkpt><trkpt lat="37.806396" lon="-122.471440"><ele>36.2</ele></trkpt><trkpt lat="37.806444" lon="-122.471530"><ele>36.4</ele></trkpt><trkpt lat="37.806498" lon="-122.471623"><ele>36.7</ele></trkpt><trkpt lat="37.806548" lon="-122.471704"><ele>36.9</ele></trkpt><trkpt lat="37.806597" lon="-122.471783"><ele>37.5</ele></trkpt><trkpt lat="37.806607" lon="-122.471798"><ele>37.7</ele></trkpt><trkpt lat="37.806642" lon="-122.471854"><ele>38.1</ele></trkpt><trkpt lat="37.806666" lon="-122.471893"><ele>38.4</ele></trkpt><trkpt lat="37.806770" lon="-122.472062"><ele>39.8</ele></trkpt><trkpt lat="37.806815" lon="-122.472139"><ele>40.4</ele></trkpt><trkpt lat="37.806856" lon="-122.472226"><ele>41.0</ele></trkpt><trkpt lat="37.806889" lon="-122.472317"><ele>41.3</ele></trkpt><trkpt lat="37.806912" lon="-122.472399"><ele>41.5</ele></trkpt><trkpt lat="37.806922" lon="-122.472487"><ele>41.7</ele></trkpt><trkpt lat="37.806920" lon="-122.472573"><ele>41.9</ele></trkpt><trkpt lat="37.806910" lon="-122.472669"><ele>42.1</ele></trkpt><trkpt lat="37.806892" lon="-122.472784"><ele>42.4</ele></trkpt><trkpt lat="37.806853" lon="-122.472936"><ele>42.7</ele></trkpt><trkpt lat="37.806787" lon="-122.473161"><ele>42.7</ele></trkpt><trkpt lat="37.806790" lon="-122.473264"><ele>42.7</ele></trkpt><trkpt lat="37.806798" lon="-122.473335"><ele>42.7</ele></trkpt><trkpt lat="37.806807" lon="-122.473390"><ele>42.7</ele></trkpt><trkpt lat="37.806825" lon="-122.473440"><ele>42.7</ele></trkpt><trkpt lat="37.806851" lon="-122.473489"><ele>42.7</ele></trkpt><trkpt lat="37.806885" lon="-122.473534"><ele>42.7</ele></trkpt><trkpt lat="37.807163" lon="-122.473831"><ele>43.5</ele></trkpt><trkpt lat="37.807213" lon="-122.473886"><ele>43.6</ele></trkpt><trkpt lat="37.807254" lon="-122.473934"><ele>43.8</ele></trkpt><trkpt lat="37.807279" lon="-122.473964"><ele>43.8</ele></trkpt><trkpt lat="37.807365" lon="-122.474060"><ele>44.2</ele></trkpt><trkpt lat="37.807513" lon="-122.474223"><ele>45.0</ele></trkpt><trkpt lat="37.807571" lon="-122.474292"><ele>45.3</ele></trkpt><trkpt lat="37.807617" lon="-122.474354"><ele>45.6</ele></trkpt><trkpt lat="37.807646" lon="-122.474410"><ele>45.8</ele></trkpt><trkpt lat="37.807672" lon="-122.474463"><ele>46.0</ele></trkpt><trkpt lat="37.807691" lon="-122.474529"><ele>45.4</ele></trkpt><trkpt lat="37.807704" lon="-122.474602"><ele>44.7</ele></trkpt><trkpt lat="37.807699" lon="-122.474689"><ele>43.8</ele></trkpt><trkpt lat="37.807677" lon="-122.474750"><ele>43.2</ele></trkpt><trkpt lat="37.807645" lon="-122.474801"><ele>42.6</ele></trkpt><trkpt lat="37.807628" lon="-122.474832"><ele>42.2</ele></trkpt><trkpt lat="37.807599" lon="-122.474877"><ele>41.6</ele></trkpt><trkpt lat="37.807563" lon="-122.474936"><ele>40.9</ele></trkpt><trkpt lat="37.807580" lon="-122.474953"><ele>40.6</ele></trkpt><trkpt lat="37.807584" lon="-122.474958"><ele>40.6</ele></trkpt><trkpt lat="37.807593" lon="-122.474966"><ele>40.4</ele></trkpt><trkpt lat="37.807601" lon="-122.474975"><ele>40.3</ele></trkpt><trkpt lat="37.807633" lon="-122.474928"><ele>39.7</ele></trkpt><trkpt lat="37.807728" lon="-122.475028"><ele>38.6</ele></trkpt><trkpt lat="37.807763" lon="-122.475037"><ele>38.3</ele></trkpt><trkpt lat="37.807801" lon="-122.475002"><ele>37.9</ele></trkpt><trkpt lat="37.807763" lon="-122.475037"><ele>37.6</ele></trkpt><trkpt lat="37.807787" lon="-122.475063"><ele>37.3</ele></trkpt><trkpt lat="37.807982" lon="-122.475271"><ele>35.3</ele></trkpt><trkpt lat="37.808013" lon="-122.475297"><ele>35.1</ele></trkpt><trkpt lat="37.808046" lon="-122.475312"><ele>35.2</ele></trkpt><trkpt lat="37.808077" lon="-122.475314"><ele>35.3</ele></trkpt><trkpt lat="37.808109" lon="-122.475306"><ele>35.4</ele></trkpt><trkpt lat="37.808137" lon="-122.475291"><ele>35.4</ele></trkpt><trkpt lat="37.808160" lon="-122.475270"><ele>35.5</ele></trkpt><trkpt lat="37.808226" lon="-122.475191"><ele>35.8</ele></trkpt><trkpt lat="37.808256" lon="-122.475231"><ele>35.9</ele></trkpt><trkpt lat="37.808290" lon="-122.475261"><ele>36.0</ele></trkpt><trkpt lat="37.808320" lon="-122.475282"><ele>36.1</ele></trkpt><trkpt lat="37.808364" lon="-122.475305"><ele>36.2</ele></trkpt><trkpt lat="37.808392" lon="-122.475315"><ele>36.3</ele></trkpt><trkpt lat="37.808431" lon="-122.475326"><ele>36.4</ele></trkpt><trkpt lat="37.808463" lon="-122.475344"><ele>36.5</ele></trkpt><trkpt lat="37.808488" lon="-122.475359"><ele>36.5</ele></trkpt><trkpt lat="37.808515" lon="-122.475381"><ele>36.3</ele></trkpt><trkpt lat="37.808540" lon="-122.475408"><ele>36.1</ele></trkpt><trkpt lat="37.808564" lon="-122.475439"><ele>35.9</ele></trkpt><trkpt lat="37.808585" lon="-122.475473"><ele>35.7</ele></trkpt><trkpt lat="37.808603" lon="-122.475510"><ele>35.5</ele></trkpt><trkpt lat="37.808609" lon="-122.475527"><ele>35.4</ele></trkpt><trkpt lat="37.808617" lon="-122.475546"><ele>35.4</ele></trkpt><trkpt lat="37.808628" lon="-122.475586"><ele>35.2</ele></trkpt><trkpt lat="37.808637" lon="-122.475626"><ele>35.0</ele></trkpt><trkpt lat="37.808637" lon="-122.475632"><ele>34.9</ele></trkpt><trkpt lat="37.808641" lon="-122.475668"><ele>34.8</ele></trkpt><trkpt lat="37.808642" lon="-122.475711"><ele>34.6</ele></trkpt><trkpt lat="37.808641" lon="-122.475753"><ele>34.4</ele></trkpt><trkpt lat="37.808637" lon="-122.475794"><ele>34.2</ele></trkpt><trkpt lat="37.808629" lon="-122.475833"><ele>34.0</ele></trkpt><trkpt lat="37.808618" lon="-122.475872"><ele>33.8</ele></trkpt><trkpt lat="37.808602" lon="-122.475922"><ele>33.6</ele></trkpt><trkpt lat="37.808583" lon="-122.475968"><ele>33.3</ele></trkpt><trkpt lat="37.808557" lon="-122.476018"><ele>32.9</ele></trkpt><trkpt lat="37.808526" lon="-122.476070"><ele>32.4</ele></trkpt><trkpt lat="37.808411" lon="-122.476245"><ele>30.8</ele></trkpt><trkpt lat="37.808379" lon="-122.476295"><ele>30.4</ele></trkpt><trkpt lat="37.808352" lon="-122.476346"><ele>29.9</ele></trkpt><trkpt lat="37.808266" lon="-122.476494"><ele>28.7</ele></trkpt><trkpt lat="37.808201" lon="-122.476591"><ele>28.6</ele></trkpt><trkpt lat="37.808169" lon="-122.476646"><ele>28.6</ele></trkpt><trkpt lat="37.808138" lon="-122.476702"><ele>28.5</ele></trkpt><trkpt lat="37.808112" lon="-122.476755"><ele>28.5</ele></trkpt><trkpt lat="37.808088" lon="-122.476814"><ele>28.5</ele></trkpt><trkpt lat="37.808067" lon="-122.476863"><ele>28.4</ele></trkpt><trkpt lat="37.808041" lon="-122.476905"><ele>28.4</ele></trkpt><trkpt lat="37.808009" lon="-122.476942"><ele>28.4</ele></trkpt><trkpt lat="37.807979" lon="-122.476965"><ele>28.4</ele></trkpt><trkpt lat="37.807948" lon="-122.476981"><ele>28.4</ele></trkpt><trkpt lat="37.807915" lon="-122.476986"><ele>28.3</ele></trkpt><trkpt lat="37.807883" lon="-122.476981"><ele>28.2</ele></trkpt><trkpt lat="37.807854" lon="-122.476970"><ele>28.0</ele></trkpt><trkpt lat="37.807830" lon="-122.476954"><ele>27.9</ele></trkpt><trkpt lat="37.807809" lon="-122.476931"><ele>27.8</ele></trkpt><trkpt lat="37.807796" lon="-122.476902"><ele>27.7</ele></trkpt><trkpt lat="37.807793" lon="-122.476880"><ele>27.6</ele></trkpt><trkpt lat="37.807797" lon="-122.476858"><ele>27.5</ele></trkpt><trkpt lat="37.807809" lon="-122.476839"><ele>27.4</ele></trkpt><trkpt lat="37.807874" lon="-122.476784"><ele>27.1</ele></trkpt><trkpt lat="37.807896" lon="-122.476762"><ele>26.9</ele></trkpt><trkpt lat="37.807915" lon="-122.476730"><ele>26.8</ele></trkpt><trkpt lat="37.807929" lon="-122.476699"><ele>26.7</ele></trkpt><trkpt lat="37.807967" lon="-122.476622"><ele>26.3</ele></trkpt><trkpt lat="37.808009" lon="-122.476654"><ele>26.1</ele></trkpt><trkpt lat="37.808374" lon="-122.476944"><ele>19.1</ele></trkpt><trkpt lat="37.808484" lon="-122.477031"><ele>16.8</ele></trkpt><trkpt lat="37.808595" lon="-122.477111"><ele>15.2</ele></trkpt><trkpt lat="37.808715" lon="-122.477188"><ele>13.9</ele></trkpt><trkpt lat="37.808834" lon="-122.477254"><ele>12.5</ele></trkpt><trkpt lat="37.808963" lon="-122.477319"><ele>11.1</ele></trkpt><trkpt lat="37.809082" lon="-122.477373"><ele>9.9</ele></trkpt><trkpt lat="37.809191" lon="-122.477412"><ele>8.8</ele></trkpt><trkpt lat="37.809296" lon="-122.477446"><ele>7.8</ele></trkpt><trkpt lat="37.809410" lon="-122.477474"><ele>6.6</ele></trkpt><trkpt lat="37.809522" lon="-122.477497"><ele>5.5</ele></trkpt><trkpt lat="37.809632" lon="-122.477514"><ele>5.0</ele></trkpt><trkpt lat="37.813922" lon="-122.478018"><ele>0.0</ele></trkpt><trkpt lat="37.813918" lon="-122.478058"><ele>0.0</ele></trkpt><trkpt lat="37.813949" lon="-122.478090"><ele>0.0</ele></trkpt><trkpt lat="37.813984" lon="-122.478108"><ele>0.0</ele></trkpt><trkpt lat="37.814010" lon="-122.478113"><ele>0.0</ele></trkpt><trkpt lat="37.814041" lon="-122.478109"><ele>0.0</ele></trkpt><trkpt lat="37.814067" lon="-122.478085"><ele>0.0</ele></trkpt><trkpt lat="37.814076" lon="-122.478060"><ele>0.0</ele></trkpt><trkpt lat="37.814079" lon="-122.478034"><ele>0.0</ele></trkpt><trkpt lat="37.825406" lon="-122.479354"><ele>15.6</ele></trkpt><trkpt lat="37.825405" lon="-122.479401"><ele>16.5</ele></trkpt><trkpt lat="37.825434" lon="-122.479433"><ele>17.5</ele></trkpt><trkpt lat="37.825463" lon="-122.479447"><ele>18.2</ele></trkpt><trkpt lat="37.825489" lon="-122.479452"><ele>18.9</ele></trkpt><trkpt lat="37.825516" lon="-122.479448"><ele>19.5</ele></trkpt><trkpt lat="37.825558" lon="-122.479430"><ele>20.6</ele></trkpt><trkpt lat="37.825572" lon="-122.479413"><ele>21.1</ele></trkpt><trkpt lat="37.825577" lon="-122.479375"><ele>21.8</ele></trkpt><trkpt lat="37.828906" lon="-122.479769"><ele>43.6</ele></trkpt><trkpt lat="37.830275" lon="-122.479929"><ele>29.9</ele></trkpt><trkpt lat="37.830423" lon="-122.479947"><ele>29.3</ele></trkpt><trkpt lat="37.830581" lon="-122.479968"><ele>31.9</ele></trkpt><trkpt lat="37.830706" lon="-122.479988"><ele>34.3</ele></trkpt><trkpt lat="37.830832" lon="-122.480017"><ele>36.7</ele></trkpt><trkpt lat="37.830965" lon="-122.480051"><ele>39.2</ele></trkpt><trkpt lat="37.831086" lon="-122.480092"><ele>41.4</ele></trkpt><trkpt lat="37.831210" lon="-122.480146"><ele>43.6</ele></trkpt><trkpt lat="37.831329" lon="-122.480202"><ele>45.8</ele></trkpt><trkpt lat="37.831445" lon="-122.480265"><ele>47.9</ele></trkpt><trkpt lat="37.831559" lon="-122.480334"><ele>50.4</ele></trkpt><trkpt lat="37.831691" lon="-122.480424"><ele>53.4</ele></trkpt><trkpt lat="37.831796" lon="-122.480505"><ele>55.9</ele></trkpt><trkpt lat="37.831910" lon="-122.480601"><ele>58.7</ele></trkpt><trkpt lat="37.832013" lon="-122.480696"><ele>60.8</ele></trkpt><trkpt lat="37.832135" lon="-122.480819"><ele>62.9</ele></trkpt><trkpt lat="37.832255" lon="-122.480952"><ele>65.1</ele></trkpt><trkpt lat="37.832380" lon="-122.481119"><ele>67.7</ele></trkpt><trkpt lat="37.832401" lon="-122.481155"><ele>68.3</ele></trkpt><trkpt lat="37.832421" lon="-122.481194"><ele>68.9</ele></trkpt><trkpt lat="37.832437" lon="-122.481229"><ele>69.4</ele></trkpt><trkpt lat="37.832450" lon="-122.481263"><ele>69.9</ele></trkpt><trkpt lat="37.832462" lon="-122.481304"><ele>70.5</ele></trkpt><trkpt lat="37.832472" lon="-122.481344"><ele>71.0</ele></trkpt><trkpt lat="37.832480" lon="-122.481389"><ele>71.6</ele></trkpt><trkpt lat="37.832486" lon="-122.481436"><ele>72.3</ele></trkpt><trkpt lat="37.832487" lon="-122.481482"><ele>72.9</ele></trkpt><trkpt lat="37.832483" lon="-122.481526"><ele>73.5</ele></trkpt><trkpt lat="37.832473" lon="-122.481568"><ele>74.0</ele></trkpt><trkpt lat="37.832706" lon="-122.481994"><ele>80.0</ele></trkpt><trkpt lat="37.832796" lon="-122.482158"><ele>82.2</ele></trkpt><trkpt lat="37.832836" lon="-122.482317"><ele>84.0</ele></trkpt><trkpt lat="37.832852" lon="-122.482344"><ele>84.3</ele></trkpt><trkpt lat="37.832867" lon="-122.482372"><ele>84.7</ele></trkpt><trkpt lat="37.832882" lon="-122.482403"><ele>85.1</ele></trkpt><trkpt lat="37.832895" lon="-122.482437"><ele>85.5</ele></trkpt><trkpt lat="37.832907" lon="-122.482470"><ele>85.9</ele></trkpt><trkpt lat="37.832918" lon="-122.482509"><ele>86.3</ele></trkpt><trkpt lat="37.832929" lon="-122.482554"><ele>86.8</ele></trkpt><trkpt lat="37.832980" lon="-122.482779"><ele>89.4</ele></trkpt><trkpt lat="37.832992" lon="-122.482835"><ele>90.0</ele></trkpt><trkpt lat="37.833008" lon="-122.482883"><ele>90.5</ele></trkpt><trkpt lat="37.833025" lon="-122.482926"><ele>91.1</ele></trkpt><trkpt lat="37.833045" lon="-122.482970"><ele>91.8</ele></trkpt><trkpt lat="37.833066" lon="-122.483009"><ele>92.5</ele></trkpt><trkpt lat="37.833086" lon="-122.483044"><ele>93.1</ele></trkpt><trkpt lat="37.833146" lon="-122.483137"><ele>94.8</ele></trkpt><trkpt lat="37.833164" lon="-122.483167"><ele>95.3</ele></trkpt><trkpt lat="37.833182" lon="-122.483202"><ele>95.9</ele></trkpt><trkpt lat="37.833197" lon="-122.483241"><ele>96.5</ele></trkpt><trkpt lat="37.833205" lon="-122.483274"><ele>97.0</ele></trkpt><trkpt lat="37.833214" lon="-122.483315"><ele>97.6</ele></trkpt><trkpt lat="37.833232" lon="-122.483427"><ele>99.1</ele></trkpt><trkpt lat="37.833237" lon="-122.483488"><ele>100.0</ele></trkpt><trkpt lat="37.833196" lon="-122.483470"><ele>100.8</ele></trkpt><trkpt lat="37.833159" lon="-122.483456"><ele>101.4</ele></trkpt><trkpt lat="37.833121" lon="-122.483444"><ele>102.1</ele></trkpt><trkpt lat="37.833083" lon="-122.483433"><ele>102.7</ele></trkpt><trkpt lat="37.833002" lon="-122.483412"><ele>104.2</ele></trkpt><trkpt lat="37.832926" lon="-122.483394"><ele>105.5</ele></trkpt><trkpt lat="37.832848" lon="-122.483379"><ele>106.8</ele></trkpt><trkpt lat="37.832794" lon="-122.483370"><ele>107.8</ele></trkpt><trkpt lat="37.832741" lon="-122.483365"><ele>108.7</ele></trkpt><trkpt lat="37.832709" lon="-122.483362"><ele>109.2</ele></trkpt><trkpt lat="37.832689" lon="-122.483362"><ele>109.6</ele></trkpt><trkpt lat="37.832637" lon="-122.483363"><ele>110.3</ele></trkpt><trkpt lat="37.832578" lon="-122.483369"><ele>111.0</ele></trkpt><trkpt lat="37.832512" lon="-122.483387"><ele>111.9</ele></trkpt><trkpt lat="37.832442" lon="-122.483413"><ele>112.9</ele></trkpt><trkpt lat="37.832370" lon="-122.483448"><ele>113.9</ele></trkpt><trkpt lat="37.832296" lon="-122.483492"><ele>114.9</ele></trkpt><trkpt lat="37.832147" lon="-122.483589"><ele>116.9</ele></trkpt><trkpt lat="37.831936" lon="-122.483725"><ele>118.4</ele></trkpt><trkpt lat="37.831840" lon="-122.483784"><ele>119.1</ele></trkpt><trkpt lat="37.831742" lon="-122.483837"><ele>119.7</ele></trkpt><trkpt lat="37.831637" lon="-122.483888"><ele>120.4</ele></trkpt><trkpt lat="37.831532" lon="-122.483932"><ele>121.0</ele></trkpt><trkpt lat="37.831428" lon="-122.483970"><ele>121.6</ele></trkpt><trkpt lat="37.831319" lon="-122.484006"><ele>122.2</ele></trkpt><trkpt lat="37.831213" lon="-122.484036"><ele>122.8</ele></trkpt><trkpt lat="37.831104" lon="-122.484059"><ele>123.5</ele></trkpt><trkpt lat="37.830996" lon="-122.484075"><ele>124.1</ele></trkpt><trkpt lat="37.830887" lon="-122.484085"><ele>124.8</ele></trkpt><trkpt lat="37.830778" lon="-122.484090"><ele>125.5</ele></trkpt><trkpt lat="37.830668" lon="-122.484091"><ele>126.2</ele></trkpt><trkpt lat="37.830601" lon="-122.484091"><ele>126.6</ele></trkpt><trkpt lat="37.830546" lon="-122.484086"><ele>127.0</ele></trkpt><trkpt lat="37.830493" lon="-122.484074"><ele>127.3</ele></trkpt><trkpt lat="37.830441" lon="-122.484052"><ele>127.7</ele></trkpt><trkpt lat="37.830391" lon="-122.484020"><ele>128.1</ele></trkpt><trkpt lat="37.830340" lon="-122.483978"><ele>128.5</ele></trkpt><trkpt lat="37.830296" lon="-122.483929"><ele>128.9</ele></trkpt><trkpt lat="37.830258" lon="-122.483878"><ele>129.3</ele></trkpt><trkpt lat="37.830118" lon="-122.483674"><ele>131.3</ele></trkpt><trkpt lat="37.830043" lon="-122.483574"><ele>132.8</ele></trkpt><trkpt lat="37.830000" lon="-122.483521"><ele>133.7</ele></trkpt><trkpt lat="37.829945" lon="-122.483473"><ele>134.6</ele></trkpt><trkpt lat="37.829895" lon="-122.483452"><ele>135.3</ele></trkpt><trkpt lat="37.829866" lon="-122.483443"><ele>135.7</ele></trkpt><trkpt lat="37.829842" lon="-122.483439"><ele>136.0</ele></trkpt><trkpt lat="37.829791" lon="-122.483438"><ele>136.7</ele></trkpt><trkpt lat="37.829741" lon="-122.483449"><ele>137.4</ele></trkpt><trkpt lat="37.829696" lon="-122.483466"><ele>138.3</ele></trkpt><trkpt lat="37.829669" lon="-122.483482"><ele>138.9</ele></trkpt><trkpt lat="37.829644" lon="-122.483499"><ele>139.5</ele></trkpt><trkpt lat="37.829605" lon="-122.483540"><ele>140.5</ele></trkpt><trkpt lat="37.829567" lon="-122.483590"><ele>141.7</ele></trkpt><trkpt lat="37.829540" lon="-122.483651"><ele>142.8</ele></trkpt><trkpt lat="37.829513" lon="-122.483736"><ele>144.3</ele></trkpt><trkpt lat="37.829506" lon="-122.483820"><ele>145.6</ele></trkpt><trkpt lat="37.829504" lon="-122.483887"><ele>146.7</ele></trkpt><trkpt lat="37.829503" lon="-122.484005"><ele>148.6</ele></trkpt><trkpt lat="37.829502" lon="-122.484195"><ele>150.0</ele></trkpt><trkpt lat="37.829504" lon="-122.484397"><ele>151.3</ele></trkpt><trkpt lat="37.829512" lon="-122.484615"><ele>152.8</ele></trkpt><trkpt lat="37.829522" lon="-122.484817"><ele>153.4</ele></trkpt><trkpt lat="37.829522" lon="-122.484912"><ele>153.4</ele></trkpt><trkpt lat="37.829512" lon="-122.485000"><ele>153.5</ele></trkpt><trkpt lat="37.829493" lon="-122.485087"><ele>153.5</ele></trkpt><trkpt lat="37.829462" lon="-122.485170"><ele>153.5</ele></trkpt><trkpt lat="37.829407" lon="-122.485266"><ele>153.6</ele></trkpt><trkpt lat="37.829349" lon="-122.485347"><ele>153.3</ele></trkpt><trkpt lat="37.829184" lon="-122.485543"><ele>151.5</ele></trkpt><trkpt lat="37.829046" lon="-122.485699"><ele>150.1</ele></trkpt><trkpt lat="37.828954" lon="-122.485807"><ele>148.8</ele></trkpt><trkpt lat="37.828912" lon="-122.485872"><ele>147.8</ele></trkpt><trkpt lat="37.828886" lon="-122.485934"><ele>146.9</ele></trkpt><trkpt lat="37.828876" lon="-122.485967"><ele>146.5</ele></trkpt><trkpt lat="37.828861" lon="-122.486051"><ele>145.4</ele></trkpt><trkpt lat="37.828864" lon="-122.486150"><ele>144.2</ele></trkpt><trkpt lat="37.828869" lon="-122.486172"><ele>143.9</ele></trkpt><trkpt lat="37.828886" lon="-122.486231"><ele>143.2</ele></trkpt><trkpt lat="37.828920" lon="-122.486313"><ele>142.0</ele></trkpt><trkpt lat="37.829114" lon="-122.486620"><ele>136.3</ele></trkpt><trkpt lat="37.829201" lon="-122.486753"><ele>133.7</ele></trkpt><trkpt lat="37.829249" lon="-122.486815"><ele>132.4</ele></trkpt><trkpt lat="37.829306" lon="-122.486867"><ele>131.0</ele></trkpt><trkpt lat="37.829365" lon="-122.486900"><ele>130.6</ele></trkpt><trkpt lat="37.829412" lon="-122.486915"><ele>130.7</ele></trkpt><trkpt lat="37.829468" lon="-122.486920"><ele>130.9</ele></trkpt><trkpt lat="37.829518" lon="-122.486920"><ele>131.1</ele></trkpt><trkpt lat="37.829697" lon="-122.486915"><ele>131.7</ele></trkpt><trkpt lat="37.829841" lon="-122.486915"><ele>132.2</ele></trkpt><trkpt lat="37.830120" lon="-122.486925"><ele>133.4</ele></trkpt><trkpt lat="37.830403" lon="-122.486937"><ele>134.7</ele></trkpt><trkpt lat="37.830662" lon="-122.486937"><ele>138.4</ele></trkpt><trkpt lat="37.830740" lon="-122.486939"><ele>139.6</ele></trkpt><trkpt lat="37.830832" lon="-122.486960"><ele>141.1</ele></trkpt><trkpt lat="37.830905" lon="-122.486992"><ele>142.2</ele></trkpt><trkpt lat="37.830982" lon="-122.487039"><ele>143.5</ele></trkpt><trkpt lat="37.831052" lon="-122.487088"><ele>144.7</ele></trkpt><trkpt lat="37.831266" lon="-122.487264"><ele>148.5</ele></trkpt><trkpt lat="37.831332" lon="-122.487312"><ele>149.6</ele></trkpt><trkpt lat="37.831418" lon="-122.487358"><ele>151.0</ele></trkpt><trkpt lat="37.831543" lon="-122.487411"><ele>154.1</ele></trkpt><trkpt lat="37.831692" lon="-122.487475"><ele>157.7</ele></trkpt><trkpt lat="37.831781" lon="-122.487523"><ele>160.0</ele></trkpt><trkpt lat="37.831858" lon="-122.487572"><ele>162.0</ele></trkpt><trkpt lat="37.831955" lon="-122.487648"><ele>164.1</ele></trkpt><trkpt lat="37.832051" lon="-122.487739"><ele>165.7</ele></trkpt><trkpt lat="37.832127" lon="-122.487822"><ele>167.0</ele></trkpt><trkpt lat="37.832184" lon="-122.487906"><ele>168.2</ele></trkpt><trkpt lat="37.832252" lon="-122.488024"><ele>169.7</ele></trkpt><trkpt lat="37.832298" lon="-122.488087"><ele>170.6</ele></trkpt><trkpt lat="37.832351" lon="-122.488146"><ele>171.6</ele></trkpt><trkpt lat="37.832414" lon="-122.488201"><ele>172.8</ele></trkpt><trkpt lat="37.832523" lon="-122.488271"><ele>174.6</ele></trkpt><trkpt lat="37.832599" lon="-122.488331"><ele>175.9</ele></trkpt><trkpt lat="37.832659" lon="-122.488394"><ele>177.0</ele></trkpt><trkpt lat="37.832723" lon="-122.488480"><ele>178.4</ele></trkpt><trkpt lat="37.832881" lon="-122.488720"><ele>181.8</ele></trkpt><trkpt lat="37.832910" lon="-122.488779"><ele>182.5</ele></trkpt><trkpt lat="37.832933" lon="-122.488862"><ele>183.5</ele></trkpt><trkpt lat="37.832940" lon="-122.488958"><ele>184.5</ele></trkpt><trkpt lat="37.832929" lon="-122.489044"><ele>185.5</ele></trkpt><trkpt lat="37.832906" lon="-122.489124"><ele>186.4</ele></trkpt><trkpt lat="37.832686" lon="-122.489602"><ele>191.9</ele></trkpt><trkpt lat="37.832659" lon="-122.489680"><ele>192.8</ele></trkpt><trkpt lat="37.832642" lon="-122.489782"><ele>192.2</ele></trkpt><trkpt lat="37.832647" lon="-122.489882"><ele>191.3</ele></trkpt><trkpt lat="37.832673" lon="-122.489984"><ele>190.4</ele></trkpt><trkpt lat="37.832715" lon="-122.490066"><ele>189.6</ele></trkpt><trkpt lat="37.832839" lon="-122.490239"><ele>187.6</ele></trkpt><trkpt lat="37.832879" lon="-122.490320"><ele>186.9</ele></trkpt><trkpt lat="37.832898" lon="-122.490394"><ele>186.4</ele></trkpt><trkpt lat="37.832904" lon="-122.490466"><ele>185.9</ele></trkpt><trkpt lat="37.832896" lon="-122.490538"><ele>185.5</ele></trkpt><trkpt lat="37.832881" lon="-122.490598"><ele>185.1</ele></trkpt><trkpt lat="37.832858" lon="-122.490652"><ele>184.7</ele></trkpt><trkpt lat="37.832818" lon="-122.490710"><ele>184.2</ele></trkpt><trkpt lat="37.832768" lon="-122.490761"><ele>183.7</ele></trkpt><trkpt lat="37.832594" lon="-122.490917"><ele>181.9</ele></trkpt><trkpt lat="37.832553" lon="-122.490970"><ele>181.4</ele></trkpt><trkpt lat="37.832513" lon="-122.491033"><ele>180.9</ele></trkpt><trkpt lat="37.832481" lon="-122.491121"><ele>180.2</ele></trkpt><trkpt lat="37.832463" lon="-122.491207"><ele>179.6</ele></trkpt><trkpt lat="37.832459" lon="-122.491280"><ele>179.1</ele></trkpt><trkpt lat="37.832463" lon="-122.491379"><ele>178.5</ele></trkpt><trkpt lat="37.832482" lon="-122.491467"><ele>178.4</ele></trkpt><trkpt lat="37.832517" lon="-122.491548"><ele>178.4</ele></trkpt><trkpt lat="37.832563" lon="-122.491629"><ele>178.5</ele></trkpt><trkpt lat="37.832617" lon="-122.491703"><ele>178.6</ele></trkpt><trkpt lat="37.832663" lon="-122.491755"><ele>178.7</ele></trkpt><trkpt lat="37.832725" lon="-122.491800"><ele>178.8</ele></trkpt><trkpt lat="37.832788" lon="-122.491836"><ele>178.8</ele></trkpt><trkpt lat="37.833121" lon="-122.492013"><ele>177.4</ele></trkpt><trkpt lat="37.833231" lon="-122.492094"><ele>176.8</ele></trkpt><trkpt lat="37.833300" lon="-122.492158"><ele>176.3</ele></trkpt><trkpt lat="37.833364" lon="-122.492263"><ele>176.6</ele></trkpt><trkpt lat="37.833415" lon="-122.492392"><ele>177.4</ele></trkpt><trkpt lat="37.833545" lon="-122.493246"><ele>182.7</ele></trkpt><trkpt lat="37.833581" lon="-122.493478"><ele>184.5</ele></trkpt><trkpt lat="37.833591" lon="-122.493542"><ele>185.0</ele></trkpt><trkpt lat="37.833619" lon="-122.493631"><ele>185.7</ele></trkpt><trkpt lat="37.833638" lon="-122.493683"><ele>186.2</ele></trkpt><trkpt lat="37.833660" lon="-122.493736"><ele>186.6</ele></trkpt><trkpt lat="37.833693" lon="-122.493795"><ele>187.2</ele></trkpt><trkpt lat="37.833759" lon="-122.493894"><ele>188.2</ele></trkpt><trkpt lat="37.833774" lon="-122.493917"><ele>188.4</ele></trkpt><trkpt lat="37.833787" lon="-122.493943"><ele>188.6</ele></trkpt><trkpt lat="37.833795" lon="-122.493972"><ele>188.9</ele></trkpt><trkpt lat="37.833800" lon="-122.494002"><ele>189.1</ele></trkpt><trkpt lat="37.833800" lon="-122.494034"><ele>189.3</ele></trkpt><trkpt lat="37.833796" lon="-122.494064"><ele>189.6</ele></trkpt><trkpt lat="37.833788" lon="-122.494093"><ele>189.8</ele></trkpt><trkpt lat="37.833774" lon="-122.494121"><ele>189.9</ele></trkpt><trkpt lat="37.833758" lon="-122.494145"><ele>189.8</ele></trkpt><trkpt lat="37.833740" lon="-122.494163"><ele>189.8</ele></trkpt><trkpt lat="37.833721" lon="-122.494176"><ele>189.7</ele></trkpt><trkpt lat="37.833699" lon="-122.494186"><ele>189.7</ele></trkpt><trkpt lat="37.833677" lon="-122.494191"><ele>189.7</ele></trkpt><trkpt lat="37.833654" lon="-122.494192"><ele>189.6</ele></trkpt><trkpt lat="37.833632" lon="-122.494187"><ele>189.6</ele></trkpt><trkpt lat="37.833604" lon="-122.494185"><ele>189.5</ele></trkpt><trkpt lat="37.833571" lon="-122.494186"><ele>189.5</ele></trkpt><trkpt lat="37.833555" lon="-122.494188"><ele>189.5</ele></trkpt><trkpt lat="37.833531" lon="-122.494195"><ele>189.4</ele></trkpt><trkpt lat="37.833513" lon="-122.494201"><ele>189.4</ele></trkpt><trkpt lat="37.833493" lon="-122.494212"><ele>189.3</ele></trkpt><trkpt lat="37.833468" lon="-122.494228"><ele>189.3</ele></trkpt><trkpt lat="37.833437" lon="-122.494250"><ele>189.2</ele></trkpt><trkpt lat="37.833404" lon="-122.494275"><ele>189.2</ele></trkpt><trkpt lat="37.833368" lon="-122.494307"><ele>189.1</ele></trkpt><trkpt lat="37.833126" lon="-122.494616"><ele>194.1</ele></trkpt><trkpt lat="37.833048" lon="-122.494711"><ele>196.1</ele></trkpt><trkpt lat="37.833007" lon="-122.494749"><ele>197.1</ele></trkpt><trkpt lat="37.832960" lon="-122.494787"><ele>198.1</ele></trkpt><trkpt lat="37.832914" lon="-122.494815"><ele>199.1</ele></trkpt><trkpt lat="37.832807" lon="-122.494857"><ele>201.6</ele></trkpt><trkpt lat="37.832572" lon="-122.494942"><ele>207.1</ele></trkpt><trkpt lat="37.832427" lon="-122.494985"><ele>210.5</ele></trkpt><trkpt lat="37.832178" lon="-122.495046"><ele>214.8</ele></trkpt><trkpt lat="37.832069" lon="-122.495085"><ele>216.6</ele></trkpt><trkpt lat="37.832013" lon="-122.495111"><ele>217.6</ele></trkpt><trkpt lat="37.831950" lon="-122.495155"><ele>218.7</ele></trkpt><trkpt lat="37.831875" lon="-122.495229"><ele>220.2</ele></trkpt><trkpt lat="37.831840" lon="-122.495279"><ele>220.7</ele></trkpt><trkpt lat="37.831804" lon="-122.495340"><ele>221.4</ele></trkpt><trkpt lat="37.831769" lon="-122.495427"><ele>222.2</ele></trkpt><trkpt lat="37.831745" lon="-122.495510"><ele>223.0</ele></trkpt><trkpt lat="37.831733" lon="-122.495595"><ele>223.7</ele></trkpt><trkpt lat="37.831732" lon="-122.495670"><ele>224.4</ele></trkpt><trkpt lat="37.831736" lon="-122.495740"><ele>225.0</ele></trkpt><trkpt lat="37.831761" lon="-122.496013"><ele>226.9</ele></trkpt><trkpt lat="37.831769" lon="-122.496148"><ele>227.7</ele></trkpt><trkpt lat="37.831766" lon="-122.496276"><ele>228.5</ele></trkpt><trkpt lat="37.831759" lon="-122.496389"><ele>229.2</ele></trkpt><trkpt lat="37.831744" lon="-122.496511"><ele>230.0</ele></trkpt><trkpt lat="37.831732" lon="-122.496597"><ele>230.3</ele></trkpt><trkpt lat="37.831708" lon="-122.496701"><ele>230.5</ele></trkpt><trkpt lat="37.831586" lon="-122.497138"><ele>231.5</ele></trkpt><trkpt lat="37.831558" lon="-122.497219"><ele>231.6</ele></trkpt><trkpt lat="37.831526" lon="-122.497290"><ele>231.4</ele></trkpt><trkpt lat="37.831478" lon="-122.497363"><ele>231.2</ele></trkpt><trkpt lat="37.831432" lon="-122.497412"><ele>231.0</ele></trkpt><trkpt lat="37.831368" lon="-122.497460"><ele>230.8</ele></trkpt><trkpt lat="37.831269" lon="-122.497499"><ele>230.5</ele></trkpt><trkpt lat="37.831089" lon="-122.497542"><ele>229.9</ele></trkpt><trkpt lat="37.830915" lon="-122.497603"><ele>229.0</ele></trkpt><trkpt lat="37.830796" lon="-122.497690"><ele>228.4</ele></trkpt><trkpt lat="37.830710" lon="-122.497771"><ele>227.9</ele></trkpt><trkpt lat="37.830655" lon="-122.497839"><ele>227.7</ele></trkpt><trkpt lat="37.830612" lon="-122.497902"><ele>227.7</ele></trkpt><trkpt lat="37.830565" lon="-122.497992"><ele>227.7</ele></trkpt><trkpt lat="37.830468" lon="-122.498226"><ele>227.7</ele></trkpt><trkpt lat="37.830425" lon="-122.498297"><ele>227.7</ele></trkpt><trkpt lat="37.830378" lon="-122.498355"><ele>227.7</ele></trkpt><trkpt lat="37.830308" lon="-122.498411"><ele>228.2</ele></trkpt><trkpt lat="37.830259" lon="-122.498440"><ele>228.8</ele></trkpt><trkpt lat="37.830188" lon="-122.498466"><ele>229.6</ele></trkpt><trkpt lat="37.830121" lon="-122.498472"><ele>230.3</ele></trkpt><trkpt lat="37.830033" lon="-122.498463"><ele>231.3</ele></trkpt><trkpt lat="37.829925" lon="-122.498433"><ele>232.5</ele></trkpt><trkpt lat="37.829198" lon="-122.498228"><ele>239.1</ele></trkpt><trkpt lat="37.829099" lon="-122.498192"><ele>240.4</ele></trkpt><trkpt lat="37.829008" lon="-122.498143"><ele>241.6</ele></trkpt><trkpt lat="37.828925" lon="-122.498080"><ele>242.7</ele></trkpt><trkpt lat="37.828755" lon="-122.497931"><ele>245.3</ele></trkpt><trkpt lat="37.828660" lon="-122.497871"><ele>246.7</ele></trkpt><trkpt lat="37.828555" lon="-122.497825"><ele>248.1</ele></trkpt><trkpt lat="37.828438" lon="-122.497796"><ele>249.7</ele></trkpt><trkpt lat="37.828355" lon="-122.497795"><ele>250.8</ele></trkpt><trkpt lat="37.828296" lon="-122.497805"><ele>251.5</ele></trkpt><trkpt lat="37.828239" lon="-122.497828"><ele>252.4</ele></trkpt><trkpt lat="37.828202" lon="-122.497857"><ele>253.1</ele></trkpt><trkpt lat="37.828166" lon="-122.497896"><ele>253.8</ele></trkpt><trkpt lat="37.828135" lon="-122.497943"><ele>254.5</ele></trkpt><trkpt lat="37.828109" lon="-122.498009"><ele>255.3</ele></trkpt><trkpt lat="37.828055" lon="-122.498200"><ele>257.7</ele></trkpt><trkpt lat="37.827981" lon="-122.498462"><ele>260.2</ele></trkpt><trkpt lat="37.827932" lon="-122.498580"><ele>261.1</ele></trkpt><trkpt lat="37.827879" lon="-122.498673"><ele>261.8</ele></trkpt><trkpt lat="37.827822" lon="-122.498754"><ele>262.5</ele></trkpt><trkpt lat="37.827731" lon="-122.498851"><ele>263.4</ele></trkpt><trkpt lat="37.827640" lon="-122.498931"><ele>263.2</ele></trkpt><trkpt lat="37.827451" lon="-122.499059"><ele>261.9</ele></trkpt><trkpt lat="37.827188" lon="-122.499207"><ele>259.7</ele></trkpt><trkpt lat="37.827042" lon="-122.499264"><ele>257.0</ele></trkpt><trkpt lat="37.826994" lon="-122.499269"><ele>256.1</ele></trkpt><trkpt lat="37.826908" lon="-122.499264"><ele>254.5</ele></trkpt><trkpt lat="37.826831" lon="-122.499242"><ele>253.1</ele></trkpt><trkpt lat="37.826720" lon="-122.499213"><ele>251.0</ele></trkpt><trkpt lat="37.826658" lon="-122.499215"><ele>249.6</ele></trkpt><trkpt lat="37.826607" lon="-122.499228"><ele>248.2</ele></trkpt><trkpt lat="37.826564" lon="-122.499247"><ele>247.0</ele></trkpt><trkpt lat="37.826513" lon="-122.499283"><ele>245.4</ele></trkpt><trkpt lat="37.826463" lon="-122.499327"><ele>243.7</ele></trkpt><trkpt lat="37.826404" lon="-122.499390"><ele>241.6</ele></trkpt><trkpt lat="37.826345" lon="-122.499465"><ele>239.3</ele></trkpt><trkpt lat="37.826310" lon="-122.499525"><ele>237.7</ele></trkpt><trkpt lat="37.826278" lon="-122.499595"><ele>236.0</ele></trkpt><trkpt lat="37.826260" lon="-122.499671"><ele>234.7</ele></trkpt><trkpt lat="37.826256" lon="-122.499748"><ele>233.6</ele></trkpt><trkpt lat="37.826264" lon="-122.499841"><ele>232.1</ele></trkpt><trkpt lat="37.826288" lon="-122.499984"><ele>229.9</ele></trkpt><trkpt lat="37.826330" lon="-122.500151"><ele>227.2</ele></trkpt><trkpt lat="37.826377" lon="-122.500291"><ele>224.6</ele></trkpt><trkpt lat="37.826467" lon="-122.500525"><ele>218.6</ele></trkpt><trkpt lat="37.826574" lon="-122.500798"><ele>211.7</ele></trkpt><trkpt lat="37.826612" lon="-122.500906"><ele>209.0</ele></trkpt><trkpt lat="37.826636" lon="-122.500999"><ele>206.7</ele></trkpt><trkpt lat="37.826649" lon="-122.501102"><ele>204.3</ele></trkpt><trkpt lat="37.826658" lon="-122.501235"><ele>201.1</ele></trkpt><trkpt lat="37.826669" lon="-122.501461"><ele>195.8</ele></trkpt><trkpt lat="37.826679" lon="-122.501572"><ele>193.5</ele></trkpt><trkpt lat="37.826695" lon="-122.501642"><ele>192.5</ele></trkpt><trkpt lat="37.826725" lon="-122.501704"><ele>191.5</ele></trkpt><trkpt lat="37.826767" lon="-122.501752"><ele>190.5</ele></trkpt><trkpt lat="37.826814" lon="-122.501785"><ele>189.5</ele></trkpt><trkpt lat="37.826904" lon="-122.501837"><ele>187.8</ele></trkpt><trkpt lat="37.826967" lon="-122.501878"><ele>186.5</ele></trkpt><trkpt lat="37.827033" lon="-122.501931"><ele>185.2</ele></trkpt><trkpt lat="37.827105" lon="-122.502000"><ele>183.5</ele></trkpt><trkpt lat="37.827180" lon="-122.502090"><ele>181.4</ele></trkpt><trkpt lat="37.827236" lon="-122.502168"><ele>179.7</ele></trkpt><trkpt lat="37.827295" lon="-122.502267"><ele>177.8</ele></trkpt><trkpt lat="37.827338" lon="-122.502353"><ele>176.2</ele></trkpt><trkpt lat="37.827377" lon="-122.502460"><ele>174.3</ele></trkpt><trkpt lat="37.827417" lon="-122.502584"><ele>172.4</ele></trkpt><trkpt lat="37.827457" lon="-122.502723"><ele>170.3</ele></trkpt><trkpt lat="37.827517" lon="-122.502910"><ele>167.5</ele></trkpt><trkpt lat="37.827569" lon="-122.503065"><ele>165.1</ele></trkpt><trkpt lat="37.827655" lon="-122.503304"><ele>163.0</ele></trkpt><trkpt lat="37.827674" lon="-122.503370"><ele>162.6</ele></trkpt><trkpt lat="37.827681" lon="-122.503428"><ele>162.3</ele></trkpt><trkpt lat="37.827681" lon="-122.503496"><ele>162.0</ele></trkpt><trkpt lat="37.827670" lon="-122.503545"><ele>161.7</ele></trkpt><trkpt lat="37.827653" lon="-122.503601"><ele>161.4</ele></trkpt><trkpt lat="37.827616" lon="-122.503676"><ele>160.9</ele></trkpt><trkpt lat="37.827596" lon="-122.503713"><ele>160.6</ele></trkpt><trkpt lat="37.827451" lon="-122.503890"><ele>159.4</ele></trkpt><trkpt lat="37.827378" lon="-122.503997"><ele>158.8</ele></trkpt><trkpt lat="37.827310" lon="-122.504118"><ele>158.1</ele></trkpt><trkpt lat="37.827219" lon="-122.504323"><ele>157.0</ele></trkpt><trkpt lat="37.827092" lon="-122.504600"><ele>155.2</ele></trkpt><trkpt lat="37.827057" lon="-122.504654"><ele>154.8</ele></trkpt><trkpt lat="37.827014" lon="-122.504707"><ele>154.4</ele></trkpt><trkpt lat="37.826963" lon="-122.504755"><ele>153.9</ele></trkpt><trkpt lat="37.826865" lon="-122.504810"><ele>153.3</ele></trkpt><trkpt lat="37.826691" lon="-122.504910"><ele>153.0</ele></trkpt><trkpt lat="37.826629" lon="-122.504956"><ele>152.8</ele></trkpt><trkpt lat="37.826559" lon="-122.505029"><ele>152.7</ele></trkpt><trkpt lat="37.826510" lon="-122.505092"><ele>152.6</ele></trkpt><trkpt lat="37.826477" lon="-122.505152"><ele>152.5</ele></trkpt><trkpt lat="37.826442" lon="-122.505222"><ele>152.0</ele></trkpt><trkpt lat="37.826415" lon="-122.505292"><ele>151.3</ele></trkpt><trkpt lat="37.826369" lon="-122.505443"><ele>149.8</ele></trkpt><trkpt lat="37.826255" lon="-122.505833"><ele>145.8</ele></trkpt><trkpt lat="37.826234" lon="-122.505923"><ele>144.4</ele></trkpt><trkpt lat="37.826225" lon="-122.505995"><ele>143.4</ele></trkpt><trkpt lat="37.826227" lon="-122.506130"><ele>141.5</ele></trkpt><trkpt lat="37.826249" lon="-122.506244"><ele>139.9</ele></trkpt><trkpt lat="37.826280" lon="-122.506332"><ele>138.5</ele></trkpt><trkpt lat="37.826386" lon="-122.506538"><ele>135.5</ele></trkpt><trkpt lat="37.826416" lon="-122.506604"><ele>134.8</ele></trkpt><trkpt lat="37.826439" lon="-122.506701"><ele>133.9</ele></trkpt><trkpt lat="37.826445" lon="-122.506796"><ele>133.0</ele></trkpt><trkpt lat="37.826434" lon="-122.506878"><ele>132.3</ele></trkpt><trkpt lat="37.826398" lon="-122.506990"><ele>131.2</ele></trkpt><trkpt lat="37.826231" lon="-122.507273"><ele>126.9</ele></trkpt><trkpt lat="37.826192" lon="-122.507357"><ele>125.5</ele></trkpt><trkpt lat="37.826152" lon="-122.507468"><ele>123.8</ele></trkpt><trkpt lat="37.826116" lon="-122.507612"><ele>121.7</ele></trkpt><trkpt lat="37.826091" lon="-122.507732"><ele>120.4</ele></trkpt><trkpt lat="37.826079" lon="-122.507821"><ele>119.8</ele></trkpt><trkpt lat="37.826078" lon="-122.507893"><ele>119.4</ele></trkpt><trkpt lat="37.826099" lon="-122.507963"><ele>118.9</ele></trkpt><trkpt lat="37.826139" lon="-122.508029"><ele>118.4</ele></trkpt><trkpt lat="37.826193" lon="-122.508089"><ele>117.8</ele></trkpt><trkpt lat="37.826391" lon="-122.508249"><ele>115.5</ele></trkpt><trkpt lat="37.826444" lon="-122.508300"><ele>114.6</ele></trkpt><trkpt lat="37.826506" lon="-122.508376"><ele>113.3</ele></trkpt><trkpt lat="37.826553" lon="-122.508464"><ele>112.1</ele></trkpt><trkpt lat="37.826584" lon="-122.508561"><ele>110.9</ele></trkpt><trkpt lat="37.826614" lon="-122.508721"><ele>109.0</ele></trkpt><trkpt lat="37.826727" lon="-122.509345"><ele>104.8</ele></trkpt><trkpt lat="37.826769" lon="-122.509572"><ele>103.2</ele></trkpt><trkpt lat="37.826802" lon="-122.509720"><ele>102.2</ele></trkpt><trkpt lat="37.826834" lon="-122.509838"><ele>101.4</ele></trkpt><trkpt lat="37.826896" lon="-122.509985"><ele>100.2</ele></trkpt><trkpt lat="37.827012" lon="-122.510181"><ele>99.3</ele></trkpt><trkpt lat="37.827406" lon="-122.510736"><ele>97.2</ele></trkpt><trkpt lat="37.827446" lon="-122.510789"><ele>96.9</ele></trkpt><trkpt lat="37.827483" lon="-122.510841"><ele>96.6</ele></trkpt><trkpt lat="37.827622" lon="-122.511042"><ele>95.4</ele></trkpt><trkpt lat="37.828028" lon="-122.511617"><ele>93.1</ele></trkpt><trkpt lat="37.828067" lon="-122.511685"><ele>92.7</ele></trkpt><trkpt lat="37.828100" lon="-122.511759"><ele>92.3</ele></trkpt><trkpt lat="37.828135" lon="-122.511871"><ele>91.7</ele></trkpt><trkpt lat="37.828153" lon="-122.511979"><ele>91.1</ele></trkpt><trkpt lat="37.828160" lon="-122.512085"><ele>90.6</ele></trkpt><trkpt lat="37.828155" lon="-122.512193"><ele>90.1</ele></trkpt><trkpt lat="37.828135" lon="-122.512318"><ele>90.1</ele></trkpt><trkpt lat="37.828095" lon="-122.512447"><ele>90.3</ele></trkpt><trkpt lat="37.828038" lon="-122.512583"><ele>90.6</ele></trkpt><trkpt lat="37.827401" lon="-122.514010"><ele>91.5</ele></trkpt><trkpt lat="37.827325" lon="-122.514199"><ele>92.4</ele></trkpt><trkpt lat="37.827299" lon="-122.514288"><ele>92.9</ele></trkpt><trkpt lat="37.827272" lon="-122.514395"><ele>93.5</ele></trkpt><trkpt lat="37.827254" lon="-122.514512"><ele>94.1</ele></trkpt><trkpt lat="37.827244" lon="-122.514612"><ele>94.7</ele></trkpt><trkpt lat="37.827239" lon="-122.514721"><ele>95.3</ele></trkpt><trkpt lat="37.827230" lon="-122.515275"><ele>100.1</ele></trkpt><trkpt lat="37.827224" lon="-122.515553"><ele>101.1</ele></trkpt><trkpt lat="37.827226" lon="-122.515750"><ele>101.4</ele></trkpt><trkpt lat="37.827235" lon="-122.515892"><ele>101.6</ele></trkpt><trkpt lat="37.827263" lon="-122.516089"><ele>101.6</ele></trkpt><trkpt lat="37.827301" lon="-122.516255"><ele>100.8</ele></trkpt><trkpt lat="37.827456" lon="-122.516744"><ele>98.5</ele></trkpt><trkpt lat="37.827467" lon="-122.516795"><ele>98.3</ele></trkpt><trkpt lat="37.827471" lon="-122.516877"><ele>98.0</ele></trkpt><trkpt lat="37.827457" lon="-122.516951"><ele>97.7</ele></trkpt><trkpt lat="37.827418" lon="-122.517028"><ele>97.3</ele></trkpt><trkpt lat="37.827357" lon="-122.517092"><ele>96.9</ele></trkpt><trkpt lat="37.827225" lon="-122.517211"><ele>96.1</ele></trkpt><trkpt lat="37.827151" lon="-122.517289"><ele>96.0</ele></trkpt><trkpt lat="37.827090" lon="-122.517380"><ele>96.0</ele></trkpt><trkpt lat="37.827048" lon="-122.517457"><ele>96.0</ele></trkpt><trkpt lat="37.827016" lon="-122.517537"><ele>96.0</ele></trkpt><trkpt lat="37.826983" lon="-122.517658"><ele>96.0</ele></trkpt><trkpt lat="37.826806" lon="-122.518300"><ele>92.4</ele></trkpt><trkpt lat="37.826709" lon="-122.518669"><ele>89.8</ele></trkpt><trkpt lat="37.826666" lon="-122.518868"><ele>88.5</ele></trkpt><trkpt lat="37.826634" lon="-122.519061"><ele>87.2</ele></trkpt><trkpt lat="37.826613" lon="-122.519218"><ele>87.0</ele></trkpt><trkpt lat="37.826613" lon="-122.519316"><ele>87.1</ele></trkpt><trkpt lat="37.826622" lon="-122.519412"><ele>87.3</ele></trkpt><trkpt lat="37.826641" lon="-122.519519"><ele>87.4</ele></trkpt><trkpt lat="37.826678" lon="-122.519641"><ele>87.6</ele></trkpt><trkpt lat="37.826721" lon="-122.519749"><ele>87.8</ele></trkpt><trkpt lat="37.826768" lon="-122.519835"><ele>87.9</ele></trkpt><trkpt lat="37.826931" lon="-122.520068"><ele>88.1</ele></trkpt><trkpt lat="37.826974" lon="-122.520160"><ele>88.2</ele></trkpt><trkpt lat="37.827020" lon="-122.520288"><ele>88.4</ele></trkpt><trkpt lat="37.827061" lon="-122.520442"><ele>87.2</ele></trkpt><trkpt lat="37.827083" lon="-122.520535"><ele>86.3</ele></trkpt><trkpt lat="37.827135" lon="-122.520744"><ele>84.3</ele></trkpt><trkpt lat="37.827158" lon="-122.520857"><ele>83.3</ele></trkpt><trkpt lat="37.827171" lon="-122.520993"><ele>82.3</ele></trkpt><trkpt lat="37.827163" lon="-122.521217"><ele>82.0</ele></trkpt><trkpt lat="37.827170" lon="-122.521326"><ele>81.8</ele></trkpt><trkpt lat="37.827193" lon="-122.521440"><ele>81.7</ele></trkpt><trkpt lat="37.827248" lon="-122.521624"><ele>81.4</ele></trkpt><trkpt lat="37.827310" lon="-122.521807"><ele>81.1</ele></trkpt><trkpt lat="37.827347" lon="-122.521893"><ele>81.0</ele></trkpt><trkpt lat="37.827408" lon="-122.521990"><ele>80.8</ele></trkpt><trkpt lat="37.827530" lon="-122.522157"><ele>80.5</ele></trkpt><trkpt lat="37.827619" lon="-122.522293"><ele>80.0</ele></trkpt><trkpt lat="37.827695" lon="-122.522415"><ele>79.5</ele></trkpt><trkpt lat="37.827742" lon="-122.522474"><ele>79.2</ele></trkpt><trkpt lat="37.827790" lon="-122.522522"><ele>78.9</ele></trkpt><trkpt lat="37.827848" lon="-122.522564"><ele>78.6</ele></trkpt><trkpt lat="37.827924" lon="-122.522620"><ele>78.2</ele></trkpt><trkpt lat="37.827977" lon="-122.522673"><ele>77.9</ele></trkpt><trkpt lat="37.828006" lon="-122.522728"><ele>77.7</ele></trkpt><trkpt lat="37.828035" lon="-122.522819"><ele>77.4</ele></trkpt><trkpt lat="37.828052" lon="-122.522936"><ele>77.0</ele></trkpt><trkpt lat="37.828065" lon="-122.523025"><ele>76.7</ele></trkpt><trkpt lat="37.828087" lon="-122.523119"><ele>76.4</ele></trkpt><trkpt lat="37.828126" lon="-122.523233"><ele>76.1</ele></trkpt><trkpt lat="37.828200" lon="-122.523406"><ele>75.1</ele></trkpt><trkpt lat="37.828223" lon="-122.523467"><ele>74.8</ele></trkpt><trkpt lat="37.828232" lon="-122.523523"><ele>74.5</ele></trkpt><trkpt lat="37.828232" lon="-122.523585"><ele>74.1</ele></trkpt><trkpt lat="37.828215" lon="-122.523659"><ele>73.7</ele></trkpt><trkpt lat="37.828187" lon="-122.523725"><ele>73.3</ele></trkpt><trkpt lat="37.828131" lon="-122.523823"><ele>72.7</ele></trkpt><trkpt lat="37.828090" lon="-122.523910"><ele>72.2</ele></trkpt><trkpt lat="37.828063" lon="-122.523993"><ele>71.9</ele></trkpt><trkpt lat="37.828044" lon="-122.524088"><ele>71.6</ele></trkpt><trkpt lat="37.828033" lon="-122.524182"><ele>71.3</ele></trkpt><trkpt lat="37.828031" lon="-122.524271"><ele>71.0</ele></trkpt><trkpt lat="37.828037" lon="-122.524362"><ele>70.7</ele></trkpt><trkpt lat="37.828052" lon="-122.524468"><ele>70.4</ele></trkpt><trkpt lat="37.828079" lon="-122.524559"><ele>70.1</ele></trkpt><trkpt lat="37.828124" lon="-122.524661"><ele>69.8</ele></trkpt><trkpt lat="37.828387" lon="-122.525131"><ele>68.1</ele></trkpt><trkpt lat="37.828426" lon="-122.525203"><ele>67.6</ele></trkpt><trkpt lat="37.828452" lon="-122.525274"><ele>67.1</ele></trkpt><trkpt lat="37.828455" lon="-122.525327"><ele>66.8</ele></trkpt><trkpt lat="37.828457" lon="-122.525359"><ele>66.6</ele></trkpt><trkpt lat="37.828444" lon="-122.525425"><ele>66.1</ele></trkpt><trkpt lat="37.828420" lon="-122.525483"><ele>65.7</ele></trkpt><trkpt lat="37.828382" lon="-122.525532"><ele>65.3</ele></trkpt><trkpt lat="37.828337" lon="-122.525567"><ele>64.9</ele></trkpt><trkpt lat="37.828282" lon="-122.525587"><ele>64.5</ele></trkpt><trkpt lat="37.828209" lon="-122.525591"><ele>63.9</ele></trkpt><trkpt lat="37.827910" lon="-122.525596"><ele>61.2</ele></trkpt><trkpt lat="37.827845" lon="-122.525601"><ele>60.6</ele></trkpt><trkpt lat="37.827794" lon="-122.525618"><ele>60.1</ele></trkpt><trkpt lat="37.827751" lon="-122.525647"><ele>59.7</ele></trkpt><trkpt lat="37.827646" lon="-122.525725"><ele>59.2</ele></trkpt><trkpt lat="37.827558" lon="-122.525799"><ele>59.3</ele></trkpt><trkpt lat="37.827468" lon="-122.525856"><ele>59.4</ele></trkpt><trkpt lat="37.827388" lon="-122.525887"><ele>59.5</ele></trkpt><trkpt lat="37.827305" lon="-122.525904"><ele>59.6</ele></trkpt><trkpt lat="37.827078" lon="-122.525940"><ele>59.5</ele></trkpt><trkpt lat="37.826912" lon="-122.525959"><ele>59.1</ele></trkpt><trkpt lat="37.826714" lon="-122.525975"><ele>58.6</ele></trkpt><trkpt lat="37.826497" lon="-122.525978"><ele>58.1</ele></trkpt><trkpt lat="37.826448" lon="-122.525981"><ele>57.9</ele></trkpt><trkpt lat="37.826388" lon="-122.526001"><ele>57.7</ele></trkpt><trkpt lat="37.826345" lon="-122.526023"><ele>57.6</ele></trkpt><trkpt lat="37.826284" lon="-122.526059"><ele>57.4</ele></trkpt><trkpt lat="37.826198" lon="-122.526113"><ele>57.2</ele></trkpt><trkpt lat="37.826149" lon="-122.526167"><ele>57.0</ele></trkpt><trkpt lat="37.826000" lon="-122.526412"><ele>58.5</ele></trkpt><trkpt lat="37.825955" lon="-122.526482"><ele>59.0</ele></trkpt><trkpt lat="37.825911" lon="-122.526546"><ele>59.4</ele></trkpt><trkpt lat="37.825546" lon="-122.526998"><ele>61.6</ele></trkpt><trkpt lat="37.825512" lon="-122.527048"><ele>61.8</ele></trkpt><trkpt lat="37.825418" lon="-122.527072"><ele>62.1</ele></trkpt><trkpt lat="37.825265" lon="-122.527192"><ele>62.7</ele></trkpt><trkpt lat="37.825119" lon="-122.527257"><ele>63.2</ele></trkpt><trkpt lat="37.824967" lon="-122.527249"><ele>63.7</ele></trkpt><trkpt lat="37.824837" lon="-122.527174"><ele>64.0</ele></trkpt><trkpt lat="37.824693" lon="-122.527064"><ele>64.0</ele></trkpt><trkpt lat="37.824609" lon="-122.526759"><ele>64.0</ele></trkpt></trkseg></trk>
</gpx>