<?xml version="1.0" encoding="UTF-8"?>
<gpx version="1.1" creator="north-bay-planning" xmlns="http://www.topografix.com/GPX/1/1">
<metadata><name>Chabot in one push overnight day 2</name><desc>Day 2 Chabot to San Leandro BART</desc></metadata>
<wpt lat="37.734500" lon="-122.101380"><name>Anthony Chabot hike-in sites</name><desc>ReserveAmerica, $25. Water, toilets, showers.</desc></wpt>
<trk><name>Day 2 Chabot to San Leandro BART</name><trkseg><trkpt lat="37.734510" lon="-122.101480"><ele>210.6</ele></trkpt><trkpt lat="37.733810" lon="-122.102080"><ele>210.8</ele></trkpt><trkpt lat="37.733680" lon="-122.102220"><ele>210.9</ele></trkpt><trkpt lat="37.733530" lon="-122.102310"><ele>210.9</ele></trkpt><trkpt lat="37.733610" lon="-122.101980"><ele>209.7</ele></trkpt><trkpt lat="37.733660" lon="-122.101890"><ele>209.3</ele></trkpt><trkpt lat="37.733790" lon="-122.101770"><ele>208.5</ele></trkpt><trkpt lat="37.734160" lon="-122.101530"><ele>205.6</ele></trkpt><trkpt lat="37.734690" lon="-122.101300"><ele>201.6</ele></trkpt><trkpt lat="37.734850" lon="-122.101250"><ele>200.4</ele></trkpt><trkpt lat="37.735169" lon="-122.101080"><ele>197.2</ele></trkpt><trkpt lat="37.735259" lon="-122.101010"><ele>196.2</ele></trkpt><trkpt lat="37.735330" lon="-122.101100"><ele>195.2</ele></trkpt><trkpt lat="37.735420" lon="-122.101140"><ele>194.7</ele></trkpt><trkpt lat="37.735500" lon="-122.101260"><ele>194.2</ele></trkpt><trkpt lat="37.735450" lon="-122.101480"><ele>193.3</ele></trkpt><trkpt lat="37.735310" lon="-122.101820"><ele>191.3</ele></trkpt><trkpt lat="37.735100" lon="-122.102180"><ele>188.8</ele></trkpt><trkpt lat="37.735110" lon="-122.102680"><ele>186.0</ele></trkpt><trkpt lat="37.735150" lon="-122.102900"><ele>186.2</ele></trkpt><trkpt lat="37.735120" lon="-122.103060"><ele>186.4</ele></trkpt><trkpt lat="37.734890" lon="-122.103170"><ele>186.8</ele></trkpt><trkpt lat="37.734660" lon="-122.103170"><ele>189.4</ele></trkpt><trkpt lat="37.734430" lon="-122.103130"><ele>192.4</ele></trkpt><trkpt lat="37.734330" lon="-122.103220"><ele>193.9</ele></trkpt><trkpt lat="37.734310" lon="-122.103440"><ele>194.5</ele></trkpt><trkpt lat="37.734400" lon="-122.103570"><ele>194.7</ele></trkpt><trkpt lat="37.734680" lon="-122.103780"><ele>195.3</ele></trkpt><trkpt lat="37.734920" lon="-122.104040"><ele>196.7</ele></trkpt><trkpt lat="37.735000" lon="-122.104290"><ele>197.7</ele></trkpt><trkpt lat="37.735000" lon="-122.104290"><ele>197.7</ele></trkpt><trkpt lat="37.735020" lon="-122.104370"><ele>197.6</ele></trkpt><trkpt lat="37.735010" lon="-122.104790"><ele>195.7</ele></trkpt><trkpt lat="37.734969" lon="-122.105290"><ele>193.4</ele></trkpt><trkpt lat="37.734930" lon="-122.105500"><ele>193.2</ele></trkpt><trkpt lat="37.734760" lon="-122.105640"><ele>193.0</ele></trkpt><trkpt lat="37.734640" lon="-122.105680"><ele>193.0</ele></trkpt><trkpt lat="37.734480" lon="-122.105630"><ele>194.5</ele></trkpt><trkpt lat="37.734290" lon="-122.105300"><ele>198.1</ele></trkpt><trkpt lat="37.734229" lon="-122.105240"><ele>198.9</ele></trkpt><trkpt lat="37.734160" lon="-122.105410"><ele>198.4</ele></trkpt><trkpt lat="37.734200" lon="-122.106160"><ele>193.7</ele></trkpt><trkpt lat="37.734150" lon="-122.106870"><ele>189.2</ele></trkpt><trkpt lat="37.734190" lon="-122.107360"><ele>184.3</ele></trkpt><trkpt lat="37.734139" lon="-122.108030"><ele>177.4</ele></trkpt><trkpt lat="37.734180" lon="-122.108580"><ele>171.7</ele></trkpt><trkpt lat="37.734170" lon="-122.108970"><ele>166.7</ele></trkpt><trkpt lat="37.734139" lon="-122.109180"><ele>163.9</ele></trkpt><trkpt lat="37.734030" lon="-122.109290"><ele>161.5</ele></trkpt><trkpt lat="37.733880" lon="-122.109250"><ele>160.5</ele></trkpt><trkpt lat="37.733770" lon="-122.108990"><ele>159.6</ele></trkpt><trkpt lat="37.733720" lon="-122.108540"><ele>158.3</ele></trkpt><trkpt lat="37.733640" lon="-122.108380"><ele>158.5</ele></trkpt><trkpt lat="37.733379" lon="-122.108230"><ele>159.4</ele></trkpt><trkpt lat="37.733130" lon="-122.107670"><ele>160.8</ele></trkpt><trkpt lat="37.732890" lon="-122.107370"><ele>162.0</ele></trkpt><trkpt lat="37.732570" lon="-122.107090"><ele>163.4</ele></trkpt><trkpt lat="37.732300" lon="-122.107070"><ele>164.4</ele></trkpt><trkpt lat="37.732010" lon="-122.106940"><ele>166.9</ele></trkpt><trkpt lat="37.731730" lon="-122.106660"><ele>170.1</ele></trkpt><trkpt lat="37.731660" lon="-122.106300"><ele>172.7</ele></trkpt><trkpt lat="37.731620" lon="-122.105750"><ele>174.5</ele></trkpt><trkpt lat="37.731610" lon="-122.105270"><ele>175.8</ele></trkpt><trkpt lat="37.731560" lon="-122.105110"><ele>176.3</ele></trkpt><trkpt lat="37.731460" lon="-122.104940"><ele>176.2</ele></trkpt><trkpt lat="37.731250" lon="-122.104920"><ele>175.8</ele></trkpt><trkpt lat="37.731090" lon="-122.105040"><ele>175.4</ele></trkpt><trkpt lat="37.730920" lon="-122.105290"><ele>175.2</ele></trkpt><trkpt lat="37.729990" lon="-122.106360"><ele>174.7</ele></trkpt><trkpt lat="37.729890" lon="-122.106460"><ele>174.7</ele></trkpt><trkpt lat="37.729630" lon="-122.106710"><ele>174.4</ele></trkpt><trkpt lat="37.729250" lon="-122.106970"><ele>174.1</ele></trkpt><trkpt lat="37.728890" lon="-122.107110"><ele>173.8</ele></trkpt><trkpt lat="37.728740" lon="-122.107290"><ele>172.2</ele></trkpt><trkpt lat="37.728680" lon="-122.107430"><ele>170.9</ele></trkpt><trkpt lat="37.728670" lon="-122.107600"><ele>169.6</ele></trkpt><trkpt lat="37.728700" lon="-122.107850"><ele>165.8</ele></trkpt><trkpt lat="37.728660" lon="-122.108030"><ele>162.4</ele></trkpt><trkpt lat="37.728600" lon="-122.108130"><ele>160.1</ele></trkpt><trkpt lat="37.728409" lon="-122.108340"><ele>155.9</ele></trkpt><trkpt lat="37.728110" lon="-122.108800"><ele>149.2</ele></trkpt><trkpt lat="37.728010" lon="-122.108930"><ele>147.1</ele></trkpt><trkpt lat="37.727830" lon="-122.109090"><ele>144.2</ele></trkpt><trkpt lat="37.727700" lon="-122.109170"><ele>142.4</ele></trkpt><trkpt lat="37.727590" lon="-122.109160"><ele>141.0</ele></trkpt></trkseg></trk>
</gpx>