<?xml version="1.0" encoding="UTF-8"?>
<gpx version="1.1" creator="north-bay-planning" xmlns="http://www.topografix.com/GPX/1/1">
<metadata><name>Martinez to Sibley over Briones overnight day 2</name><desc>Day 2 Sibley to San Leandro BART</desc></metadata>
<wpt lat="37.850080" lon="-122.196860"><name>Sibley Backpack Camp</name><desc>Reserve on ReserveAmerica 2+ business days ahead. No water.</desc></wpt>
<trk><name>Day 2 Sibley to San Leandro BART</name><trkseg><trkpt lat="37.850210" lon="-122.195980"><ele>449.0</ele></trkpt><trkpt lat="37.849850" lon="-122.195990"><ele>448.2</ele></trkpt><trkpt lat="37.849640" lon="-122.195950"><ele>447.7</ele></trkpt><trkpt lat="37.849550" lon="-122.195910"><ele>447.5</ele></trkpt><trkpt lat="37.849440" lon="-122.195820"><ele>447.2</ele></trkpt><trkpt lat="37.849260" lon="-122.195900"><ele>446.8</ele></trkpt><trkpt lat="37.848940" lon="-122.196150"><ele>445.1</ele></trkpt><trkpt lat="37.848909" lon="-122.196220"><ele>444.8</ele></trkpt><trkpt lat="37.848790" lon="-122.196360"><ele>444.0</ele></trkpt><trkpt lat="37.848610" lon="-122.196500"><ele>442.4</ele></trkpt><trkpt lat="37.848500" lon="-122.196650"><ele>441.1</ele></trkpt><trkpt lat="37.848439" lon="-122.196760"><ele>440.3</ele></trkpt><trkpt lat="37.848430" lon="-122.196880"><ele>439.5</ele></trkpt><trkpt lat="37.848450" lon="-122.197170"><ele>437.7</ele></trkpt><trkpt lat="37.848400" lon="-122.197330"><ele>436.6</ele></trkpt><trkpt lat="37.848330" lon="-122.197510"><ele>435.3</ele></trkpt><trkpt lat="37.848170" lon="-122.197750"><ele>433.0</ele></trkpt><trkpt lat="37.848000" lon="-122.198310"><ele>428.6</ele></trkpt><trkpt lat="37.847930" lon="-122.198430"><ele>427.5</ele></trkpt><trkpt lat="37.847830" lon="-122.198500"><ele>426.5</ele></trkpt><trkpt lat="37.847570" lon="-122.198690"><ele>423.7</ele></trkpt><trkpt lat="37.847370" lon="-122.198690"><ele>421.8</ele></trkpt><trkpt lat="37.847240" lon="-122.198510"><ele>419.9</ele></trkpt><trkpt lat="37.846850" lon="-122.198210"><ele>417.2</ele></trkpt><trkpt lat="37.846530" lon="-122.197770"><ele>413.8</ele></trkpt><trkpt lat="37.846200" lon="-122.197440"><ele>411.3</ele></trkpt><trkpt lat="37.845810" lon="-122.196850"><ele>408.4</ele></trkpt><trkpt lat="37.845590" lon="-122.196710"><ele>407.3</ele></trkpt><trkpt lat="37.845330" lon="-122.196600"><ele>406.3</ele></trkpt><trkpt lat="37.844850" lon="-122.196560"><ele>404.4</ele></trkpt><trkpt lat="37.844589" lon="-122.196600"><ele>403.3</ele></trkpt><trkpt lat="37.844150" lon="-122.196630"><ele>402.5</ele></trkpt><trkpt lat="37.844060" lon="-122.196600"><ele>402.4</ele></trkpt><trkpt lat="37.843980" lon="-122.196530"><ele>401.9</ele></trkpt><trkpt lat="37.843890" lon="-122.196420"><ele>401.2</ele></trkpt><trkpt lat="37.843700" lon="-122.196080"><ele>399.2</ele></trkpt><trkpt lat="37.843620" lon="-122.195860"><ele>398.0</ele></trkpt><trkpt lat="37.843510" lon="-122.195630"><ele>396.6</ele></trkpt><trkpt lat="37.843359" lon="-122.195420"><ele>395.3</ele></trkpt><trkpt lat="37.843210" lon="-122.195290"><ele>394.4</ele></trkpt><trkpt lat="37.842980" lon="-122.195230"><ele>393.2</ele></trkpt><trkpt lat="37.842870" lon="-122.195230"><ele>392.6</ele></trkpt><trkpt lat="37.842790" lon="-122.195280"><ele>392.0</ele></trkpt><trkpt lat="37.842740" lon="-122.195360"><ele>391.5</ele></trkpt><trkpt lat="37.842720" lon="-122.195520"><ele>390.7</ele></trkpt><trkpt lat="37.842750" lon="-122.196040"><ele>387.9</ele></trkpt><trkpt lat="37.842630" lon="-122.197190"><ele>384.9</ele></trkpt><trkpt lat="37.842640" lon="-122.197660"><ele>384.2</ele></trkpt><trkpt lat="37.842630" lon="-122.197760"><ele>384.1</ele></trkpt><trkpt lat="37.842590" lon="-122.197860"><ele>383.9</ele></trkpt><trkpt lat="37.842550" lon="-122.197920"><ele>383.8</ele></trkpt><trkpt lat="37.842490" lon="-122.197950"><ele>383.6</ele></trkpt><trkpt lat="37.842380" lon="-122.197960"><ele>383.4</ele></trkpt><trkpt lat="37.841930" lon="-122.197940"><ele>382.6</ele></trkpt><trkpt lat="37.841790" lon="-122.197970"><ele>382.4</ele></trkpt><trkpt lat="37.841679" lon="-122.198050"><ele>382.3</ele></trkpt><trkpt lat="37.841600" lon="-122.198160"><ele>382.2</ele></trkpt><trkpt lat="37.841440" lon="-122.198520"><ele>382.4</ele></trkpt><trkpt lat="37.841380" lon="-122.198580"><ele>382.5</ele></trkpt><trkpt lat="37.841270" lon="-122.198600"><ele>382.5</ele></trkpt><trkpt lat="37.841090" lon="-122.198520"><ele>382.4</ele></trkpt><trkpt lat="37.840919" lon="-122.198390"><ele>382.3</ele></trkpt><trkpt lat="37.840710" lon="-122.198110"><ele>382.5</ele></trkpt><trkpt lat="37.840649" lon="-122.198050"><ele>382.6</ele></trkpt><trkpt lat="37.840580" lon="-122.198010"><ele>382.8</ele></trkpt><trkpt lat="37.840440" lon="-122.197980"><ele>383.0</ele></trkpt><trkpt lat="37.840330" lon="-122.197900"><ele>383.3</ele></trkpt><trkpt lat="37.840250" lon="-122.197770"><ele>383.6</ele></trkpt><trkpt lat="37.840200" lon="-122.197640"><ele>384.0</ele></trkpt><trkpt lat="37.840190" lon="-122.197530"><ele>384.2</ele></trkpt><trkpt lat="37.840160" lon="-122.197270"><ele>384.8</ele></trkpt><trkpt lat="37.840110" lon="-122.197090"><ele>385.1</ele></trkpt><trkpt lat="37.839940" lon="-122.196650"><ele>385.9</ele></trkpt><trkpt lat="37.839880" lon="-122.196440"><ele>386.1</ele></trkpt><trkpt lat="37.839720" lon="-122.195790"><ele>386.5</ele></trkpt><trkpt lat="37.839640" lon="-122.195280"><ele>386.3</ele></trkpt><trkpt lat="37.839410" lon="-122.194510"><ele>385.2</ele></trkpt><trkpt lat="37.839320" lon="-122.193920"><ele>384.4</ele></trkpt><trkpt lat="37.839260" lon="-122.193830"><ele>384.3</ele></trkpt><trkpt lat="37.838930" lon="-122.193620"><ele>383.7</ele></trkpt><trkpt lat="37.838850" lon="-122.193550"><ele>383.6</ele></trkpt><trkpt lat="37.838790" lon="-122.193460"><ele>383.5</ele></trkpt><trkpt lat="37.838750" lon="-122.193360"><ele>383.4</ele></trkpt><trkpt lat="37.838790" lon="-122.192900"><ele>383.0</ele></trkpt><trkpt lat="37.838760" lon="-122.192760"><ele>383.0</ele></trkpt><trkpt lat="37.838710" lon="-122.192600"><ele>382.9</ele></trkpt><trkpt lat="37.838620" lon="-122.192430"><ele>382.8</ele></trkpt><trkpt lat="37.838220" lon="-122.191930"><ele>382.9</ele></trkpt><trkpt lat="37.838070" lon="-122.191700"><ele>383.0</ele></trkpt><trkpt lat="37.837919" lon="-122.191330"><ele>383.1</ele></trkpt><trkpt lat="37.837820" lon="-122.191210"><ele>383.1</ele></trkpt><trkpt lat="37.837700" lon="-122.191130"><ele>383.1</ele></trkpt><trkpt lat="37.837610" lon="-122.191060"><ele>383.1</ele></trkpt><trkpt lat="37.837570" lon="-122.190950"><ele>383.1</ele></trkpt><trkpt lat="37.837550" lon="-122.190840"><ele>383.1</ele></trkpt><trkpt lat="37.837550" lon="-122.190650"><ele>383.0</ele></trkpt><trkpt lat="37.837530" lon="-122.190500"><ele>382.9</ele></trkpt><trkpt lat="37.837359" lon="-122.190090"><ele>382.9</ele></trkpt><trkpt lat="37.837310" lon="-122.189890"><ele>383.0</ele></trkpt><trkpt lat="37.837269" lon="-122.189770"><ele>383.1</ele></trkpt><trkpt lat="37.837000" lon="-122.189450"><ele>383.1</ele></trkpt><trkpt lat="37.836960" lon="-122.189400"><ele>383.1</ele></trkpt><trkpt lat="37.836940" lon="-122.189330"><ele>383.1</ele></trkpt><trkpt lat="37.836930" lon="-122.189190"><ele>383.1</ele></trkpt><trkpt lat="37.836950" lon="-122.189000"><ele>383.1</ele></trkpt><trkpt lat="37.837110" lon="-122.188430"><ele>382.9</ele></trkpt><trkpt lat="37.837100" lon="-122.188260"><ele>382.6</ele></trkpt><trkpt lat="37.837060" lon="-122.188120"><ele>382.4</ele></trkpt><trkpt lat="37.836970" lon="-122.187940"><ele>382.0</ele></trkpt><trkpt lat="37.836950" lon="-122.187830"><ele>381.8</ele></trkpt><trkpt lat="37.836960" lon="-122.187700"><ele>381.6</ele></trkpt><trkpt lat="37.836990" lon="-122.187540"><ele>381.4</ele></trkpt><trkpt lat="37.836990" lon="-122.187420"><ele>381.3</ele></trkpt><trkpt lat="37.836979" lon="-122.187320"><ele>381.1</ele></trkpt><trkpt lat="37.836780" lon="-122.186900"><ele>380.0</ele></trkpt><trkpt lat="37.836590" lon="-122.186640"><ele>379.1</ele></trkpt><trkpt lat="37.836540" lon="-122.186460"><ele>378.8</ele></trkpt><trkpt lat="37.836540" lon="-122.186300"><ele>378.6</ele></trkpt><trkpt lat="37.836570" lon="-122.186150"><ele>378.4</ele></trkpt><trkpt lat="37.836580" lon="-122.185950"><ele>378.1</ele></trkpt><trkpt lat="37.836540" lon="-122.185810"><ele>377.7</ele></trkpt><trkpt lat="37.836470" lon="-122.185680"><ele>377.4</ele></trkpt><trkpt lat="37.836239" lon="-122.185460"><ele>376.7</ele></trkpt><trkpt lat="37.836110" lon="-122.185250"><ele>376.7</ele></trkpt><trkpt lat="37.835960" lon="-122.184880"><ele>376.7</ele></trkpt><trkpt lat="37.835910" lon="-122.184810"><ele>376.7</ele></trkpt><trkpt lat="37.835960" lon="-122.184880"><ele>376.6</ele></trkpt><trkpt lat="37.836110" lon="-122.185250"><ele>376.4</ele></trkpt><trkpt lat="37.836239" lon="-122.185460"><ele>376.7</ele></trkpt><trkpt lat="37.836470" lon="-122.185680"><ele>377.0</ele></trkpt><trkpt lat="37.836540" lon="-122.185810"><ele>377.3</ele></trkpt><trkpt lat="37.836580" lon="-122.185950"><ele>377.6</ele></trkpt><trkpt lat="37.836570" lon="-122.186150"><ele>378.0</ele></trkpt><trkpt lat="37.836540" lon="-122.186300"><ele>378.4</ele></trkpt><trkpt lat="37.836540" lon="-122.186460"><ele>378.7</ele></trkpt><trkpt lat="37.836590" lon="-122.186640"><ele>379.1</ele></trkpt><trkpt lat="37.836780" lon="-122.186900"><ele>379.9</ele></trkpt><trkpt lat="37.836979" lon="-122.187320"><ele>380.3</ele></trkpt><trkpt lat="37.836990" lon="-122.187420"><ele>380.3</ele></trkpt><trkpt lat="37.836990" lon="-122.187540"><ele>380.4</ele></trkpt><trkpt lat="37.836960" lon="-122.187700"><ele>380.4</ele></trkpt><trkpt lat="37.836950" lon="-122.187830"><ele>380.5</ele></trkpt><trkpt lat="37.836960" lon="-122.187890"><ele>380.5</ele></trkpt><trkpt lat="37.836960" lon="-122.187890"><ele>380.5</ele></trkpt><trkpt lat="37.836950" lon="-122.187830"><ele>380.6</ele></trkpt><trkpt lat="37.836960" lon="-122.187700"><ele>380.6</ele></trkpt><trkpt lat="37.836990" lon="-122.187540"><ele>380.7</ele></trkpt><trkpt lat="37.836990" lon="-122.187420"><ele>380.6</ele></trkpt><trkpt lat="37.836979" lon="-122.187320"><ele>380.5</ele></trkpt><trkpt lat="37.836780" lon="-122.186900"><ele>380.1</ele></trkpt><trkpt lat="37.836590" lon="-122.186640"><ele>379.3</ele></trkpt><trkpt lat="37.836540" lon="-122.186460"><ele>378.8</ele></trkpt><trkpt lat="37.836540" lon="-122.186300"><ele>378.4</ele></trkpt><trkpt lat="37.836570" lon="-122.186150"><ele>378.0</ele></trkpt><trkpt lat="37.836580" lon="-122.185950"><ele>377.5</ele></trkpt><trkpt lat="37.836540" lon="-122.185810"><ele>377.1</ele></trkpt><trkpt lat="37.836470" lon="-122.185680"><ele>376.7</ele></trkpt><trkpt lat="37.836239" lon="-122.185460"><ele>376.6</ele></trkpt><trkpt lat="37.836110" lon="-122.185250"><ele>376.4</ele></trkpt><trkpt lat="37.835960" lon="-122.184880"><ele>377.1</ele></trkpt><trkpt lat="37.835910" lon="-122.184810"><ele>377.3</ele></trkpt><trkpt lat="37.835830" lon="-122.184770"><ele>377.5</ele></trkpt><trkpt lat="37.835750" lon="-122.184790"><ele>377.6</ele></trkpt><trkpt lat="37.835570" lon="-122.184870"><ele>377.5</ele></trkpt><trkpt lat="37.835450" lon="-122.184870"><ele>377.5</ele></trkpt><trkpt lat="37.835350" lon="-122.184800"><ele>377.4</ele></trkpt><trkpt lat="37.835190" lon="-122.184590"><ele>377.2</ele></trkpt><trkpt lat="37.835070" lon="-122.184460"><ele>377.0</ele></trkpt><trkpt lat="37.835000" lon="-122.184430"><ele>377.0</ele></trkpt><trkpt lat="37.834900" lon="-122.184470"><ele>376.8</ele></trkpt><trkpt lat="37.834520" lon="-122.184930"><ele>376.5</ele></trkpt><trkpt lat="37.834420" lon="-122.185100"><ele>376.5</ele></trkpt><trkpt lat="37.834390" lon="-122.185190"><ele>376.6</ele></trkpt><trkpt lat="37.834370" lon="-122.185380"><ele>376.8</ele></trkpt><trkpt lat="37.834359" lon="-122.186160"><ele>377.2</ele></trkpt><trkpt lat="37.834340" lon="-122.186230"><ele>377.3</ele></trkpt><trkpt lat="37.834290" lon="-122.186330"><ele>377.3</ele></trkpt><trkpt lat="37.834260" lon="-122.186370"><ele>377.4</ele></trkpt><trkpt lat="37.834150" lon="-122.186400"><ele>377.7</ele></trkpt><trkpt lat="37.833979" lon="-122.186340"><ele>378.0</ele></trkpt><trkpt lat="37.833910" lon="-122.186330"><ele>378.2</ele></trkpt><trkpt lat="37.833570" lon="-122.186450"><ele>379.2</ele></trkpt><trkpt lat="37.833410" lon="-122.186380"><ele>379.8</ele></trkpt><trkpt lat="37.833190" lon="-122.186100"><ele>381.0</ele></trkpt><trkpt lat="37.833060" lon="-122.186010"><ele>381.7</ele></trkpt><trkpt lat="37.832980" lon="-122.185980"><ele>382.0</ele></trkpt><trkpt lat="37.832680" lon="-122.186020"><ele>383.1</ele></trkpt><trkpt lat="37.832569" lon="-122.186000"><ele>383.4</ele></trkpt><trkpt lat="37.832370" lon="-122.185860"><ele>383.9</ele></trkpt><trkpt lat="37.832270" lon="-122.185810"><ele>384.3</ele></trkpt><trkpt lat="37.831760" lon="-122.185690"><ele>387.7</ele></trkpt><trkpt lat="37.831840" lon="-122.185710"><ele>388.2</ele></trkpt><trkpt lat="37.831760" lon="-122.185690"><ele>388.6</ele></trkpt><trkpt lat="37.832389" lon="-122.185190"><ele>392.2</ele></trkpt><trkpt lat="37.832640" lon="-122.185020"><ele>393.3</ele></trkpt><trkpt lat="37.832630" lon="-122.184860"><ele>393.7</ele></trkpt><trkpt lat="37.832520" lon="-122.184770"><ele>394.1</ele></trkpt><trkpt lat="37.832370" lon="-122.184700"><ele>394.7</ele></trkpt><trkpt lat="37.832370" lon="-122.184700"><ele>394.7</ele></trkpt><trkpt lat="37.832280" lon="-122.184590"><ele>395.1</ele></trkpt><trkpt lat="37.832310" lon="-122.184550"><ele>395.2</ele></trkpt><trkpt lat="37.832450" lon="-122.184130"><ele>396.5</ele></trkpt><trkpt lat="37.832769" lon="-122.183660"><ele>395.5</ele></trkpt><trkpt lat="37.832859" lon="-122.183510"><ele>395.3</ele></trkpt><trkpt lat="37.832890" lon="-122.183400"><ele>395.2</ele></trkpt><trkpt lat="37.832890" lon="-122.183320"><ele>395.2</ele></trkpt><trkpt lat="37.832760" lon="-122.182640"><ele>395.9</ele></trkpt><trkpt lat="37.832640" lon="-122.182180"><ele>397.2</ele></trkpt><trkpt lat="37.832460" lon="-122.181710"><ele>398.8</ele></trkpt><trkpt lat="37.832220" lon="-122.180940"><ele>401.2</ele></trkpt><trkpt lat="37.832160" lon="-122.180680"><ele>401.6</ele></trkpt><trkpt lat="37.832120" lon="-122.180300"><ele>402.1</ele></trkpt><trkpt lat="37.832070" lon="-122.180060"><ele>402.4</ele></trkpt><trkpt lat="37.832020" lon="-122.179920"><ele>402.7</ele></trkpt><trkpt lat="37.831940" lon="-122.179720"><ele>402.9</ele></trkpt><trkpt lat="37.831840" lon="-122.179530"><ele>402.5</ele></trkpt><trkpt lat="37.831570" lon="-122.179210"><ele>401.6</ele></trkpt><trkpt lat="37.831260" lon="-122.178890"><ele>398.4</ele></trkpt><trkpt lat="37.831210" lon="-122.178780"><ele>397.6</ele></trkpt><trkpt lat="37.831190" lon="-122.178710"><ele>397.1</ele></trkpt><trkpt lat="37.831140" lon="-122.178270"><ele>394.0</ele></trkpt><trkpt lat="37.831040" lon="-122.177860"><ele>391.5</ele></trkpt><trkpt lat="37.830790" lon="-122.177160"><ele>387.4</ele></trkpt><trkpt lat="37.830670" lon="-122.176900"><ele>385.3</ele></trkpt><trkpt lat="37.830590" lon="-122.176770"><ele>384.4</ele></trkpt><trkpt lat="37.830120" lon="-122.176330"><ele>381.0</ele></trkpt><trkpt lat="37.829210" lon="-122.175510"><ele>378.7</ele></trkpt><trkpt lat="37.828860" lon="-122.175250"><ele>377.7</ele></trkpt><trkpt lat="37.828740" lon="-122.175130"><ele>377.7</ele></trkpt><trkpt lat="37.828680" lon="-122.175040"><ele>377.8</ele></trkpt><trkpt lat="37.828560" lon="-122.174630"><ele>378.0</ele></trkpt><trkpt lat="37.828400" lon="-122.173830"><ele>377.8</ele></trkpt><trkpt lat="37.828200" lon="-122.173310"><ele>377.3</ele></trkpt><trkpt lat="37.828080" lon="-122.173090"><ele>376.6</ele></trkpt><trkpt lat="37.828000" lon="-122.172990"><ele>376.2</ele></trkpt><trkpt lat="37.827590" lon="-122.172700"><ele>373.8</ele></trkpt><trkpt lat="37.827480" lon="-122.172590"><ele>373.0</ele></trkpt><trkpt lat="37.827390" lon="-122.172450"><ele>371.9</ele></trkpt><trkpt lat="37.827330" lon="-122.172320"><ele>370.7</ele></trkpt><trkpt lat="37.827350" lon="-122.172020"><ele>368.4</ele></trkpt><trkpt lat="37.827440" lon="-122.171610"><ele>365.3</ele></trkpt><trkpt lat="37.827460" lon="-122.171340"><ele>363.3</ele></trkpt><trkpt lat="37.827440" lon="-122.171150"><ele>361.7</ele></trkpt><trkpt lat="37.827400" lon="-122.171000"><ele>360.2</ele></trkpt><trkpt lat="37.827320" lon="-122.170810"><ele>358.1</ele></trkpt><trkpt lat="37.827180" lon="-122.170540"><ele>355.0</ele></trkpt><trkpt lat="37.827070" lon="-122.170350"><ele>352.6</ele></trkpt><trkpt lat="37.826450" lon="-122.169130"><ele>340.5</ele></trkpt><trkpt lat="37.826220" lon="-122.168720"><ele>337.5</ele></trkpt><trkpt lat="37.825850" lon="-122.168190"><ele>333.7</ele></trkpt><trkpt lat="37.825280" lon="-122.167580"><ele>330.2</ele></trkpt><trkpt lat="37.824800" lon="-122.166980"><ele>328.9</ele></trkpt><trkpt lat="37.824170" lon="-122.165950"><ele>328.9</ele></trkpt><trkpt lat="37.824070" lon="-122.165820"><ele>329.4</ele></trkpt><trkpt lat="37.823930" lon="-122.165680"><ele>330.2</ele></trkpt><trkpt lat="37.823720" lon="-122.165570"><ele>331.2</ele></trkpt><trkpt lat="37.823340" lon="-122.165440"><ele>333.4</ele></trkpt><trkpt lat="37.822530" lon="-122.165180"><ele>337.0</ele></trkpt><trkpt lat="37.822440" lon="-122.165140"><ele>337.2</ele></trkpt><trkpt lat="37.822330" lon="-122.165010"><ele>337.4</ele></trkpt><trkpt lat="37.822110" lon="-122.164710"><ele>337.8</ele></trkpt><trkpt lat="37.821540" lon="-122.163810"><ele>337.7</ele></trkpt><trkpt lat="37.821470" lon="-122.163660"><ele>337.4</ele></trkpt><trkpt lat="37.821270" lon="-122.163080"><ele>335.8</ele></trkpt><trkpt lat="37.821110" lon="-122.162740"><ele>335.5</ele></trkpt><trkpt lat="37.820090" lon="-122.161220"><ele>335.3</ele></trkpt><trkpt lat="37.819970" lon="-122.161030"><ele>335.3</ele></trkpt><trkpt lat="37.819560" lon="-122.160220"><ele>335.5</ele></trkpt><trkpt lat="37.818960" lon="-122.159320"><ele>334.9</ele></trkpt><trkpt lat="37.818680" lon="-122.158930"><ele>334.4</ele></trkpt><trkpt lat="37.818320" lon="-122.158240"><ele>333.7</ele></trkpt><trkpt lat="37.818040" lon="-122.157560"><ele>333.3</ele></trkpt><trkpt lat="37.817650" lon="-122.156860"><ele>332.5</ele></trkpt><trkpt lat="37.817550" lon="-122.156710"><ele>332.5</ele></trkpt><trkpt lat="37.817390" lon="-122.156530"><ele>332.5</ele></trkpt><trkpt lat="37.816840" lon="-122.156070"><ele>332.1</ele></trkpt><trkpt lat="37.816670" lon="-122.155890"><ele>332.0</ele></trkpt><trkpt lat="37.816460" lon="-122.155600"><ele>331.5</ele></trkpt><trkpt lat="37.816339" lon="-122.155330"><ele>330.9</ele></trkpt><trkpt lat="37.816190" lon="-122.154650"><ele>329.7</ele></trkpt><trkpt lat="37.816190" lon="-122.154650"><ele>329.7</ele></trkpt><trkpt lat="37.816130" lon="-122.154480"><ele>329.4</ele></trkpt><trkpt lat="37.816020" lon="-122.154250"><ele>328.9</ele></trkpt><trkpt lat="37.815880" lon="-122.154020"><ele>328.4</ele></trkpt><trkpt lat="37.815689" lon="-122.153760"><ele>327.3</ele></trkpt><trkpt lat="37.815410" lon="-122.153470"><ele>325.8</ele></trkpt><trkpt lat="37.815250" lon="-122.153280"><ele>324.4</ele></trkpt><trkpt lat="37.815019" lon="-122.152920"><ele>322.1</ele></trkpt><trkpt lat="37.814980" lon="-122.152800"><ele>321.4</ele></trkpt><trkpt lat="37.814970" lon="-122.152700"><ele>320.9</ele></trkpt><trkpt lat="37.815010" lon="-122.152400"><ele>319.2</ele></trkpt><trkpt lat="37.815100" lon="-122.152120"><ele>317.0</ele></trkpt><trkpt lat="37.815290" lon="-122.151670"><ele>313.2</ele></trkpt><trkpt lat="37.815320" lon="-122.151530"><ele>312.2</ele></trkpt><trkpt lat="37.815340" lon="-122.151300"><ele>310.6</ele></trkpt><trkpt lat="37.815340" lon="-122.151200"><ele>310.0</ele></trkpt><trkpt lat="37.815309" lon="-122.151070"><ele>309.2</ele></trkpt><trkpt lat="37.815060" lon="-122.150450"><ele>306.5</ele></trkpt><trkpt lat="37.814810" lon="-122.149530"><ele>305.4</ele></trkpt><trkpt lat="37.814670" lon="-122.149220"><ele>305.4</ele></trkpt><trkpt lat="37.814530" lon="-122.148990"><ele>306.0</ele></trkpt><trkpt lat="37.814080" lon="-122.148390"><ele>305.8</ele></trkpt><trkpt lat="37.813720" lon="-122.147820"><ele>303.2</ele></trkpt><trkpt lat="37.813160" lon="-122.147170"><ele>298.7</ele></trkpt><trkpt lat="37.812800" lon="-122.146640"><ele>296.3</ele></trkpt><trkpt lat="37.812680" lon="-122.146520"><ele>295.7</ele></trkpt><trkpt lat="37.812320" lon="-122.146350"><ele>294.4</ele></trkpt><trkpt lat="37.812040" lon="-122.146180"><ele>294.0</ele></trkpt><trkpt lat="37.811850" lon="-122.146010"><ele>293.8</ele></trkpt><trkpt lat="37.811580" lon="-122.145730"><ele>293.6</ele></trkpt><trkpt lat="37.811140" lon="-122.145360"><ele>293.5</ele></trkpt><trkpt lat="37.810980" lon="-122.145190"><ele>293.1</ele></trkpt><trkpt lat="37.810020" lon="-122.143870"><ele>285.9</ele></trkpt><trkpt lat="37.809850" lon="-122.143700"><ele>285.3</ele></trkpt><trkpt lat="37.809640" lon="-122.143570"><ele>285.5</ele></trkpt><trkpt lat="37.809250" lon="-122.143350"><ele>286.2</ele></trkpt><trkpt lat="37.809040" lon="-122.143200"><ele>286.9</ele></trkpt><trkpt lat="37.808850" lon="-122.143130"><ele>287.7</ele></trkpt><trkpt lat="37.808770" lon="-122.143120"><ele>288.1</ele></trkpt><trkpt lat="37.808650" lon="-122.143130"><ele>288.7</ele></trkpt><trkpt lat="37.808290" lon="-122.143290"><ele>290.0</ele></trkpt><trkpt lat="37.808079" lon="-122.143310"><ele>290.3</ele></trkpt><trkpt lat="37.807860" lon="-122.143260"><ele>290.4</ele></trkpt><trkpt lat="37.807660" lon="-122.143190"><ele>290.2</ele></trkpt><trkpt lat="37.807580" lon="-122.143140"><ele>290.1</ele></trkpt><trkpt lat="37.807519" lon="-122.143080"><ele>290.0</ele></trkpt><trkpt lat="37.807429" lon="-122.142920"><ele>289.7</ele></trkpt><trkpt lat="37.807370" lon="-122.142790"><ele>289.1</ele></trkpt><trkpt lat="37.807300" lon="-122.142580"><ele>288.2</ele></trkpt><trkpt lat="37.807190" lon="-122.142140"><ele>286.3</ele></trkpt><trkpt lat="37.807090" lon="-122.141860"><ele>285.1</ele></trkpt><trkpt lat="37.806920" lon="-122.141510"><ele>284.1</ele></trkpt><trkpt lat="37.806730" lon="-122.141230"><ele>283.6</ele></trkpt><trkpt lat="37.806640" lon="-122.141140"><ele>283.7</ele></trkpt><trkpt lat="37.806470" lon="-122.141050"><ele>284.6</ele></trkpt><trkpt lat="37.806090" lon="-122.140940"><ele>286.7</ele></trkpt><trkpt lat="37.805650" lon="-122.140760"><ele>289.3</ele></trkpt><trkpt lat="37.805459" lon="-122.140700"><ele>290.0</ele></trkpt><trkpt lat="37.804820" lon="-122.140600"><ele>291.7</ele></trkpt><trkpt lat="37.804609" lon="-122.140510"><ele>292.0</ele></trkpt><trkpt lat="37.804420" lon="-122.140360"><ele>291.8</ele></trkpt><trkpt lat="37.804139" lon="-122.140070"><ele>291.3</ele></trkpt><trkpt lat="37.803660" lon="-122.139640"><ele>289.0</ele></trkpt><trkpt lat="37.803489" lon="-122.139470"><ele>288.0</ele></trkpt><trkpt lat="37.803050" lon="-122.138960"><ele>284.7</ele></trkpt><trkpt lat="37.802910" lon="-122.138830"><ele>283.6</ele></trkpt><trkpt lat="37.802600" lon="-122.138580"><ele>281.7</ele></trkpt><trkpt lat="37.802410" lon="-122.138360"><ele>280.3</ele></trkpt><trkpt lat="37.802040" lon="-122.137570"><ele>273.7</ele></trkpt><trkpt lat="37.801139" lon="-122.135920"><ele>257.5</ele></trkpt><trkpt lat="37.801390" lon="-122.135930"><ele>255.5</ele></trkpt><trkpt lat="37.801540" lon="-122.135970"><ele>254.6</ele></trkpt><trkpt lat="37.801720" lon="-122.136120"><ele>253.7</ele></trkpt><trkpt lat="37.801900" lon="-122.136380"><ele>252.7</ele></trkpt><trkpt lat="37.801720" lon="-122.136120"><ele>252.7</ele></trkpt><trkpt lat="37.801540" lon="-122.135970"><ele>252.7</ele></trkpt><trkpt lat="37.801390" lon="-122.135930"><ele>252.5</ele></trkpt><trkpt lat="37.800950" lon="-122.135910"><ele>251.7</ele></trkpt><trkpt lat="37.800680" lon="-122.135860"><ele>250.8</ele></trkpt><trkpt lat="37.800060" lon="-122.135660"><ele>248.0</ele></trkpt><trkpt lat="37.799400" lon="-122.135560"><ele>243.6</ele></trkpt><trkpt lat="37.799000" lon="-122.135380"><ele>240.0</ele></trkpt><trkpt lat="37.798870" lon="-122.135380"><ele>238.9</ele></trkpt><trkpt lat="37.798789" lon="-122.135420"><ele>238.2</ele></trkpt><trkpt lat="37.798690" lon="-122.135490"><ele>237.2</ele></trkpt><trkpt lat="37.798580" lon="-122.135520"><ele>236.3</ele></trkpt><trkpt lat="37.798470" lon="-122.135510"><ele>235.3</ele></trkpt><trkpt lat="37.798400" lon="-122.135470"><ele>234.7</ele></trkpt><trkpt lat="37.798319" lon="-122.135380"><ele>233.8</ele></trkpt><trkpt lat="37.798270" lon="-122.135250"><ele>233.1</ele></trkpt><trkpt lat="37.798090" lon="-122.134230"><ele>228.0</ele></trkpt><trkpt lat="37.797960" lon="-122.133850"><ele>226.4</ele></trkpt><trkpt lat="37.797880" lon="-122.133670"><ele>225.6</ele></trkpt><trkpt lat="37.797530" lon="-122.133100"><ele>222.6</ele></trkpt><trkpt lat="37.797360" lon="-122.132790"><ele>221.3</ele></trkpt><trkpt lat="37.797150" lon="-122.132520"><ele>220.3</ele></trkpt><trkpt lat="37.796990" lon="-122.132250"><ele>219.3</ele></trkpt><trkpt lat="37.796790" lon="-122.132030"><ele>218.2</ele></trkpt><trkpt lat="37.796480" lon="-122.131820"><ele>216.8</ele></trkpt><trkpt lat="37.796340" lon="-122.131670"><ele>216.1</ele></trkpt><trkpt lat="37.796210" lon="-122.131500"><ele>215.4</ele></trkpt><trkpt lat="37.796070" lon="-122.131400"><ele>214.7</ele></trkpt><trkpt lat="37.795460" lon="-122.131180"><ele>212.5</ele></trkpt><trkpt lat="37.795350" lon="-122.131210"><ele>212.1</ele></trkpt><trkpt lat="37.795310" lon="-122.131270"><ele>211.9</ele></trkpt><trkpt lat="37.795290" lon="-122.131360"><ele>211.5</ele></trkpt><trkpt lat="37.795310" lon="-122.131450"><ele>211.1</ele></trkpt><trkpt lat="37.795740" lon="-122.132000"><ele>207.7</ele></trkpt><trkpt lat="37.795789" lon="-122.132090"><ele>207.3</ele></trkpt><trkpt lat="37.795830" lon="-122.132250"><ele>206.6</ele></trkpt><trkpt lat="37.795830" lon="-122.132560"><ele>205.4</ele></trkpt><trkpt lat="37.795840" lon="-122.132630"><ele>205.2</ele></trkpt><trkpt lat="37.795890" lon="-122.132720"><ele>204.8</ele></trkpt><trkpt lat="37.795950" lon="-122.132780"><ele>204.4</ele></trkpt><trkpt lat="37.796169" lon="-122.132890"><ele>203.4</ele></trkpt><trkpt lat="37.796280" lon="-122.132980"><ele>202.9</ele></trkpt><trkpt lat="37.796580" lon="-122.133370"><ele>201.2</ele></trkpt><trkpt lat="37.797000" lon="-122.133790"><ele>198.8</ele></trkpt><trkpt lat="37.797140" lon="-122.133940"><ele>198.3</ele></trkpt><trkpt lat="37.797199" lon="-122.134030"><ele>198.1</ele></trkpt><trkpt lat="37.797240" lon="-122.134130"><ele>197.8</ele></trkpt><trkpt lat="37.797260" lon="-122.134250"><ele>197.5</ele></trkpt><trkpt lat="37.797260" lon="-122.134360"><ele>197.3</ele></trkpt><trkpt lat="37.797210" lon="-122.134660"><ele>196.6</ele></trkpt><trkpt lat="37.797220" lon="-122.134770"><ele>196.4</ele></trkpt><trkpt lat="37.797250" lon="-122.134870"><ele>196.1</ele></trkpt><trkpt lat="37.797320" lon="-122.134990"><ele>195.6</ele></trkpt><trkpt lat="37.797650" lon="-122.135360"><ele>193.1</ele></trkpt><trkpt lat="37.797730" lon="-122.135500"><ele>192.3</ele></trkpt><trkpt lat="37.797780" lon="-122.135670"><ele>191.4</ele></trkpt><trkpt lat="37.797800" lon="-122.135930"><ele>190.1</ele></trkpt><trkpt lat="37.797710" lon="-122.136610"><ele>187.0</ele></trkpt><trkpt lat="37.797730" lon="-122.136730"><ele>186.4</ele></trkpt><trkpt lat="37.797759" lon="-122.136810"><ele>185.9</ele></trkpt><trkpt lat="37.797830" lon="-122.136900"><ele>185.2</ele></trkpt><trkpt lat="37.797950" lon="-122.136960"><ele>184.2</ele></trkpt><trkpt lat="37.798300" lon="-122.136910"><ele>181.5</ele></trkpt><trkpt lat="37.798409" lon="-122.136910"><ele>180.6</ele></trkpt><trkpt lat="37.798490" lon="-122.136960"><ele>179.9</ele></trkpt><trkpt lat="37.798560" lon="-122.137070"><ele>178.9</ele></trkpt><trkpt lat="37.798570" lon="-122.137190"><ele>178.1</ele></trkpt><trkpt lat="37.798550" lon="-122.137270"><ele>177.6</ele></trkpt><trkpt lat="37.798450" lon="-122.137440"><ele>176.4</ele></trkpt><trkpt lat="37.798380" lon="-122.137520"><ele>175.7</ele></trkpt><trkpt lat="37.797510" lon="-122.138180"><ele>170.2</ele></trkpt><trkpt lat="37.797450" lon="-122.138260"><ele>169.7</ele></trkpt><trkpt lat="37.797440" lon="-122.138340"><ele>169.4</ele></trkpt><trkpt lat="37.797450" lon="-122.138450"><ele>168.9</ele></trkpt><trkpt lat="37.797500" lon="-122.138530"><ele>168.4</ele></trkpt><trkpt lat="37.797970" lon="-122.138790"><ele>165.8</ele></trkpt><trkpt lat="37.798160" lon="-122.138990"><ele>164.7</ele></trkpt><trkpt lat="37.798250" lon="-122.139150"><ele>164.0</ele></trkpt><trkpt lat="37.798290" lon="-122.139280"><ele>163.5</ele></trkpt><trkpt lat="37.798319" lon="-122.139550"><ele>162.7</ele></trkpt><trkpt lat="37.798280" lon="-122.139950"><ele>161.7</ele></trkpt><trkpt lat="37.798280" lon="-122.140260"><ele>160.5</ele></trkpt><trkpt lat="37.798330" lon="-122.140820"><ele>158.5</ele></trkpt><trkpt lat="37.798370" lon="-122.140850"><ele>158.3</ele></trkpt><trkpt lat="37.798460" lon="-122.140970"><ele>158.0</ele></trkpt><trkpt lat="37.798530" lon="-122.141230"><ele>157.3</ele></trkpt><trkpt lat="37.798550" lon="-122.141500"><ele>157.0</ele></trkpt><trkpt lat="37.798580" lon="-122.141680"><ele>156.7</ele></trkpt><trkpt lat="37.798660" lon="-122.141880"><ele>156.4</ele></trkpt><trkpt lat="37.798850" lon="-122.142160"><ele>159.1</ele></trkpt><trkpt lat="37.798980" lon="-122.142310"><ele>161.0</ele></trkpt><trkpt lat="37.799240" lon="-122.142560"><ele>162.4</ele></trkpt><trkpt lat="37.799370" lon="-122.142710"><ele>162.6</ele></trkpt><trkpt lat="37.800109" lon="-122.143730"><ele>165.4</ele></trkpt><trkpt lat="37.800220" lon="-122.143920"><ele>166.0</ele></trkpt><trkpt lat="37.800280" lon="-122.144090"><ele>166.5</ele></trkpt><trkpt lat="37.800310" lon="-122.144460"><ele>167.5</ele></trkpt><trkpt lat="37.800300" lon="-122.145250"><ele>164.8</ele></trkpt><trkpt lat="37.800260" lon="-122.145770"><ele>166.4</ele></trkpt><trkpt lat="37.800210" lon="-122.145990"><ele>167.0</ele></trkpt><trkpt lat="37.799980" lon="-122.146450"><ele>168.2</ele></trkpt><trkpt lat="37.799909" lon="-122.146710"><ele>168.7</ele></trkpt><trkpt lat="37.799890" lon="-122.147030"><ele>169.3</ele></trkpt><trkpt lat="37.799900" lon="-122.147710"><ele>171.0</ele></trkpt><trkpt lat="37.799850" lon="-122.148020"><ele>171.7</ele></trkpt><trkpt lat="37.799760" lon="-122.148220"><ele>172.1</ele></trkpt><trkpt lat="37.799540" lon="-122.148520"><ele>172.8</ele></trkpt><trkpt lat="37.799450" lon="-122.148670"><ele>173.1</ele></trkpt><trkpt lat="37.799270" lon="-122.149110"><ele>174.2</ele></trkpt><trkpt lat="37.799190" lon="-122.149260"><ele>174.7</ele></trkpt><trkpt lat="37.799070" lon="-122.149370"><ele>175.2</ele></trkpt><trkpt lat="37.798670" lon="-122.149660"><ele>176.5</ele></trkpt><trkpt lat="37.798520" lon="-122.149860"><ele>177.2</ele></trkpt><trkpt lat="37.798340" lon="-122.150200"><ele>178.6</ele></trkpt><trkpt lat="37.798280" lon="-122.150370"><ele>179.3</ele></trkpt><trkpt lat="37.798240" lon="-122.150540"><ele>180.1</ele></trkpt><trkpt lat="37.798229" lon="-122.150730"><ele>181.0</ele></trkpt><trkpt lat="37.798020" lon="-122.150810"><ele>182.4</ele></trkpt><trkpt lat="37.797925" lon="-122.150708"><ele>183.3</ele></trkpt><trkpt lat="37.797869" lon="-122.150595"><ele>184.2</ele></trkpt><trkpt lat="37.797830" lon="-122.150550"><ele>184.6</ele></trkpt><trkpt lat="37.797740" lon="-122.150410"><ele>185.8</ele></trkpt><trkpt lat="37.797480" lon="-122.150170"><ele>188.8</ele></trkpt><trkpt lat="37.797350" lon="-122.149900"><ele>191.2</ele></trkpt><trkpt lat="37.797199" lon="-122.149760"><ele>193.1</ele></trkpt><trkpt lat="37.796950" lon="-122.149590"><ele>196.5</ele></trkpt><trkpt lat="37.796740" lon="-122.149340"><ele>200.0</ele></trkpt><trkpt lat="37.796230" lon="-122.148840"><ele>208.5</ele></trkpt><trkpt lat="37.796180" lon="-122.148780"><ele>209.3</ele></trkpt><trkpt lat="37.796000" lon="-122.148430"><ele>213.1</ele></trkpt><trkpt lat="37.795850" lon="-122.148230"><ele>215.7</ele></trkpt><trkpt lat="37.795530" lon="-122.147740"><ele>221.8</ele></trkpt><trkpt lat="37.795470" lon="-122.147690"><ele>222.7</ele></trkpt><trkpt lat="37.795220" lon="-122.147700"><ele>225.8</ele></trkpt><trkpt lat="37.795120" lon="-122.147650"><ele>227.3</ele></trkpt><trkpt lat="37.795020" lon="-122.147520"><ele>229.4</ele></trkpt><trkpt lat="37.795000" lon="-122.147390"><ele>230.8</ele></trkpt><trkpt lat="37.795029" lon="-122.147360"><ele>231.4</ele></trkpt><trkpt lat="37.795240" lon="-122.147390"><ele>234.3</ele></trkpt><trkpt lat="37.795350" lon="-122.147370"><ele>235.8</ele></trkpt><trkpt lat="37.795440" lon="-122.147300"><ele>237.2</ele></trkpt><trkpt lat="37.795630" lon="-122.147090"><ele>240.6</ele></trkpt><trkpt lat="37.795670" lon="-122.147090"><ele>241.1</ele></trkpt><trkpt lat="37.795850" lon="-122.147220"><ele>244.1</ele></trkpt><trkpt lat="37.796030" lon="-122.147280"><ele>246.9</ele></trkpt><trkpt lat="37.796190" lon="-122.147520"><ele>250.5</ele></trkpt><trkpt lat="37.796290" lon="-122.147580"><ele>252.2</ele></trkpt><trkpt lat="37.796430" lon="-122.147570"><ele>254.2</ele></trkpt><trkpt lat="37.796639" lon="-122.147500"><ele>257.4</ele></trkpt><trkpt lat="37.796780" lon="-122.147490"><ele>259.2</ele></trkpt><trkpt lat="37.796880" lon="-122.147540"><ele>260.6</ele></trkpt><trkpt lat="37.796970" lon="-122.147670"><ele>262.4</ele></trkpt><trkpt lat="37.797040" lon="-122.147720"><ele>263.4</ele></trkpt><trkpt lat="37.797180" lon="-122.147720"><ele>265.2</ele></trkpt><trkpt lat="37.797600" lon="-122.147590"><ele>270.7</ele></trkpt><trkpt lat="37.797660" lon="-122.147560"><ele>271.6</ele></trkpt><trkpt lat="37.797680" lon="-122.147470"><ele>272.7</ele></trkpt><trkpt lat="37.797320" lon="-122.147260"><ele>278.5</ele></trkpt><trkpt lat="37.796920" lon="-122.146880"><ele>285.7</ele></trkpt><trkpt lat="37.796760" lon="-122.146580"><ele>290.1</ele></trkpt><trkpt lat="37.796530" lon="-122.146050"><ele>298.1</ele></trkpt><trkpt lat="37.796430" lon="-122.145920"><ele>300.7</ele></trkpt><trkpt lat="37.796340" lon="-122.145860"><ele>302.6</ele></trkpt><trkpt lat="37.796200" lon="-122.145820"><ele>305.2</ele></trkpt><trkpt lat="37.796140" lon="-122.145770"><ele>306.4</ele></trkpt><trkpt lat="37.796040" lon="-122.145630"><ele>308.8</ele></trkpt><trkpt lat="37.795850" lon="-122.145250"><ele>314.5</ele></trkpt><trkpt lat="37.795680" lon="-122.145010"><ele>317.5</ele></trkpt><trkpt lat="37.795530" lon="-122.144750"><ele>320.5</ele></trkpt><trkpt lat="37.795130" lon="-122.144290"><ele>325.9</ele></trkpt><trkpt lat="37.794939" lon="-122.144010"><ele>328.5</ele></trkpt><trkpt lat="37.794860" lon="-122.143860"><ele>329.8</ele></trkpt><trkpt lat="37.794800" lon="-122.143600"><ele>331.4</ele></trkpt><trkpt lat="37.794750" lon="-122.143480"><ele>332.0</ele></trkpt><trkpt lat="37.794610" lon="-122.143270"><ele>333.2</ele></trkpt><trkpt lat="37.794530" lon="-122.143110"><ele>334.0</ele></trkpt><trkpt lat="37.794160" lon="-122.142850"><ele>335.6</ele></trkpt><trkpt lat="37.794060" lon="-122.142810"><ele>335.9</ele></trkpt><trkpt lat="37.793810" lon="-122.142800"><ele>336.2</ele></trkpt><trkpt lat="37.793710" lon="-122.142760"><ele>336.3</ele></trkpt><trkpt lat="37.793410" lon="-122.142560"><ele>336.7</ele></trkpt><trkpt lat="37.793230" lon="-122.142440"><ele>336.9</ele></trkpt><trkpt lat="37.793050" lon="-122.142290"><ele>337.0</ele></trkpt><trkpt lat="37.792910" lon="-122.142230"><ele>336.9</ele></trkpt><trkpt lat="37.792760" lon="-122.142230"><ele>336.7</ele></trkpt><trkpt lat="37.792499" lon="-122.142390"><ele>336.2</ele></trkpt><trkpt lat="37.792400" lon="-122.142420"><ele>335.9</ele></trkpt><trkpt lat="37.792330" lon="-122.142420"><ele>335.7</ele></trkpt><trkpt lat="37.792080" lon="-122.142340"><ele>335.0</ele></trkpt><trkpt lat="37.791890" lon="-122.142140"><ele>334.4</ele></trkpt><trkpt lat="37.791820" lon="-122.142100"><ele>334.2</ele></trkpt><trkpt lat="37.791710" lon="-122.142100"><ele>334.0</ele></trkpt><trkpt lat="37.791640" lon="-122.142120"><ele>333.8</ele></trkpt><trkpt lat="37.791410" lon="-122.142340"><ele>333.9</ele></trkpt><trkpt lat="37.791280" lon="-122.142370"><ele>334.0</ele></trkpt><trkpt lat="37.791050" lon="-122.142830"><ele>335.0</ele></trkpt><trkpt lat="37.790940" lon="-122.142980"><ele>335.5</ele></trkpt><trkpt lat="37.790750" lon="-122.143500"><ele>338.2</ele></trkpt><trkpt lat="37.790590" lon="-122.143760"><ele>340.4</ele></trkpt><trkpt lat="37.790430" lon="-122.143950"><ele>343.3</ele></trkpt><trkpt lat="37.790360" lon="-122.144090"><ele>345.0</ele></trkpt><trkpt lat="37.790260" lon="-122.144230"><ele>346.9</ele></trkpt><trkpt lat="37.789910" lon="-122.144550"><ele>351.5</ele></trkpt><trkpt lat="37.789490" lon="-122.145120"><ele>356.8</ele></trkpt><trkpt lat="37.789340" lon="-122.145360"><ele>358.4</ele></trkpt><trkpt lat="37.789270" lon="-122.145510"><ele>359.2</ele></trkpt><trkpt lat="37.789220" lon="-122.145680"><ele>360.1</ele></trkpt><trkpt lat="37.789200" lon="-122.145900"><ele>360.7</ele></trkpt><trkpt lat="37.789210" lon="-122.146110"><ele>361.2</ele></trkpt><trkpt lat="37.789660" lon="-122.147500"><ele>361.7</ele></trkpt><trkpt lat="37.789740" lon="-122.147800"><ele>361.7</ele></trkpt><trkpt lat="37.789760" lon="-122.148030"><ele>361.6</ele></trkpt><trkpt lat="37.789760" lon="-122.148260"><ele>361.5</ele></trkpt><trkpt lat="37.789730" lon="-122.148460"><ele>361.0</ele></trkpt><trkpt lat="37.789630" lon="-122.148800"><ele>359.9</ele></trkpt><trkpt lat="37.789570" lon="-122.148940"><ele>359.4</ele></trkpt><trkpt lat="37.789280" lon="-122.149360"><ele>358.1</ele></trkpt><trkpt lat="37.789060" lon="-122.149880"><ele>355.6</ele></trkpt><trkpt lat="37.788730" lon="-122.149820"><ele>353.4</ele></trkpt><trkpt lat="37.787850" lon="-122.149780"><ele>347.5</ele></trkpt><trkpt lat="37.787710" lon="-122.149760"><ele>346.8</ele></trkpt><trkpt lat="37.787360" lon="-122.149630"><ele>345.4</ele></trkpt><trkpt lat="37.787190" lon="-122.149520"><ele>344.5</ele></trkpt><trkpt lat="37.786860" lon="-122.149220"><ele>342.4</ele></trkpt><trkpt lat="37.786660" lon="-122.148940"><ele>342.3</ele></trkpt><trkpt lat="37.786440" lon="-122.148440"><ele>342.0</ele></trkpt><trkpt lat="37.786440" lon="-122.148440"><ele>342.0</ele></trkpt><trkpt lat="37.786370" lon="-122.148210"><ele>341.7</ele></trkpt><trkpt lat="37.786060" lon="-122.146600"><ele>341.1</ele></trkpt><trkpt lat="37.785990" lon="-122.146350"><ele>341.1</ele></trkpt><trkpt lat="37.785860" lon="-122.146110"><ele>341.1</ele></trkpt><trkpt lat="37.785280" lon="-122.145580"><ele>340.0</ele></trkpt><trkpt lat="37.785160" lon="-122.145460"><ele>340.2</ele></trkpt><trkpt lat="37.785070" lon="-122.145310"><ele>340.3</ele></trkpt><trkpt lat="37.785020" lon="-122.145210"><ele>340.5</ele></trkpt><trkpt lat="37.784970" lon="-122.145040"><ele>340.7</ele></trkpt><trkpt lat="37.784940" lon="-122.144850"><ele>341.0</ele></trkpt><trkpt lat="37.784940" lon="-122.144540"><ele>341.4</ele></trkpt><trkpt lat="37.784960" lon="-122.144350"><ele>341.5</ele></trkpt><trkpt lat="37.785230" lon="-122.143660"><ele>342.0</ele></trkpt><trkpt lat="37.785280" lon="-122.143410"><ele>342.0</ele></trkpt><trkpt lat="37.785290" lon="-122.143140"><ele>342.0</ele></trkpt><trkpt lat="37.785250" lon="-122.142880"><ele>342.0</ele></trkpt><trkpt lat="37.785140" lon="-122.142630"><ele>342.0</ele></trkpt><trkpt lat="37.785089" lon="-122.142560"><ele>341.6</ele></trkpt><trkpt lat="37.785030" lon="-122.142460"><ele>341.0</ele></trkpt><trkpt lat="37.784870" lon="-122.142330"><ele>340.0</ele></trkpt><trkpt lat="37.784619" lon="-122.142210"><ele>338.4</ele></trkpt><trkpt lat="37.783190" lon="-122.142090"><ele>326.0</ele></trkpt><trkpt lat="37.782350" lon="-122.142060"><ele>318.4</ele></trkpt><trkpt lat="37.781880" lon="-122.142000"><ele>316.0</ele></trkpt><trkpt lat="37.781610" lon="-122.141890"><ele>315.0</ele></trkpt><trkpt lat="37.781650" lon="-122.141660"><ele>314.7</ele></trkpt><trkpt lat="37.781930" lon="-122.141770"><ele>315.5</ele></trkpt><trkpt lat="37.782360" lon="-122.141840"><ele>317.5</ele></trkpt><trkpt lat="37.783650" lon="-122.141900"><ele>329.5</ele></trkpt><trkpt lat="37.784390" lon="-122.141940"><ele>336.5</ele></trkpt><trkpt lat="37.784640" lon="-122.141980"><ele>338.3</ele></trkpt><trkpt lat="37.784790" lon="-122.142040"><ele>339.5</ele></trkpt><trkpt lat="37.784960" lon="-122.142150"><ele>341.4</ele></trkpt><trkpt lat="37.785120" lon="-122.142330"><ele>343.7</ele></trkpt><trkpt lat="37.785280" lon="-122.142550"><ele>346.0</ele></trkpt><trkpt lat="37.785390" lon="-122.142810"><ele>347.8</ele></trkpt><trkpt lat="37.786200" lon="-122.142620"><ele>350.5</ele></trkpt><trkpt lat="37.786310" lon="-122.142620"><ele>350.7</ele></trkpt><trkpt lat="37.786240" lon="-122.142430"><ele>350.9</ele></trkpt><trkpt lat="37.785800" lon="-122.142020"><ele>351.0</ele></trkpt><trkpt lat="37.785469" lon="-122.141590"><ele>348.7</ele></trkpt><trkpt lat="37.785400" lon="-122.141480"><ele>347.7</ele></trkpt><trkpt lat="37.785360" lon="-122.141300"><ele>346.4</ele></trkpt><trkpt lat="37.785370" lon="-122.140980"><ele>343.4</ele></trkpt><trkpt lat="37.785360" lon="-122.140890"><ele>342.5</ele></trkpt><trkpt lat="37.785300" lon="-122.140770"><ele>341.1</ele></trkpt><trkpt lat="37.785150" lon="-122.140650"><ele>339.0</ele></trkpt><trkpt lat="37.785110" lon="-122.140600"><ele>338.6</ele></trkpt><trkpt lat="37.785080" lon="-122.140540"><ele>338.1</ele></trkpt><trkpt lat="37.785050" lon="-122.140410"><ele>337.3</ele></trkpt><trkpt lat="37.785030" lon="-122.139950"><ele>334.3</ele></trkpt><trkpt lat="37.785010" lon="-122.139860"><ele>333.7</ele></trkpt><trkpt lat="37.784950" lon="-122.139750"><ele>332.8</ele></trkpt><trkpt lat="37.784890" lon="-122.139700"><ele>332.2</ele></trkpt><trkpt lat="37.784780" lon="-122.139670"><ele>331.2</ele></trkpt><trkpt lat="37.784670" lon="-122.139680"><ele>330.3</ele></trkpt><trkpt lat="37.784570" lon="-122.139720"><ele>329.7</ele></trkpt><trkpt lat="37.784490" lon="-122.139810"><ele>329.0</ele></trkpt><trkpt lat="37.784320" lon="-122.140060"><ele>327.4</ele></trkpt><trkpt lat="37.784239" lon="-122.140150"><ele>326.9</ele></trkpt><trkpt lat="37.784140" lon="-122.140190"><ele>326.6</ele></trkpt><trkpt lat="37.784070" lon="-122.140160"><ele>326.4</ele></trkpt><trkpt lat="37.784020" lon="-122.140040"><ele>326.1</ele></trkpt><trkpt lat="37.783990" lon="-122.139770"><ele>325.5</ele></trkpt><trkpt lat="37.783950" lon="-122.139600"><ele>325.2</ele></trkpt><trkpt lat="37.783880" lon="-122.139490"><ele>324.9</ele></trkpt><trkpt lat="37.783720" lon="-122.139300"><ele>324.4</ele></trkpt><trkpt lat="37.783679" lon="-122.139220"><ele>324.2</ele></trkpt><trkpt lat="37.783670" lon="-122.139090"><ele>323.9</ele></trkpt><trkpt lat="37.783720" lon="-122.138870"><ele>323.3</ele></trkpt><trkpt lat="37.783720" lon="-122.138780"><ele>323.1</ele></trkpt><trkpt lat="37.783710" lon="-122.138690"><ele>322.8</ele></trkpt><trkpt lat="37.783660" lon="-122.138620"><ele>322.6</ele></trkpt><trkpt lat="37.783600" lon="-122.138570"><ele>322.3</ele></trkpt><trkpt lat="37.783530" lon="-122.138540"><ele>322.0</ele></trkpt><trkpt lat="37.783420" lon="-122.138540"><ele>321.6</ele></trkpt><trkpt lat="37.783280" lon="-122.138590"><ele>321.0</ele></trkpt><trkpt lat="37.783180" lon="-122.138580"><ele>320.6</ele></trkpt><trkpt lat="37.782830" lon="-122.138460"><ele>318.7</ele></trkpt><trkpt lat="37.782580" lon="-122.138540"><ele>317.2</ele></trkpt><trkpt lat="37.782480" lon="-122.138510"><ele>316.5</ele></trkpt><trkpt lat="37.782269" lon="-122.138340"><ele>314.8</ele></trkpt><trkpt lat="37.782100" lon="-122.138250"><ele>313.6</ele></trkpt><trkpt lat="37.782050" lon="-122.138130"><ele>313.0</ele></trkpt><trkpt lat="37.782010" lon="-122.137810"><ele>311.6</ele></trkpt><trkpt lat="37.781960" lon="-122.137640"><ele>310.8</ele></trkpt><trkpt lat="37.781880" lon="-122.137550"><ele>310.2</ele></trkpt><trkpt lat="37.781690" lon="-122.137430"><ele>309.1</ele></trkpt><trkpt lat="37.781480" lon="-122.137170"><ele>307.6</ele></trkpt><trkpt lat="37.781350" lon="-122.136840"><ele>305.7</ele></trkpt><trkpt lat="37.781110" lon="-122.136720"><ele>304.0</ele></trkpt><trkpt lat="37.781020" lon="-122.136650"><ele>303.2</ele></trkpt><trkpt lat="37.780850" lon="-122.136480"><ele>301.6</ele></trkpt><trkpt lat="37.780780" lon="-122.136370"><ele>300.7</ele></trkpt><trkpt lat="37.780700" lon="-122.136060"><ele>298.6</ele></trkpt><trkpt lat="37.780580" lon="-122.135830"><ele>296.9</ele></trkpt><trkpt lat="37.780540" lon="-122.135700"><ele>296.0</ele></trkpt><trkpt lat="37.780530" lon="-122.135610"><ele>295.2</ele></trkpt><trkpt lat="37.780610" lon="-122.135350"><ele>292.7</ele></trkpt><trkpt lat="37.780630" lon="-122.135220"><ele>291.5</ele></trkpt><trkpt lat="37.780610" lon="-122.135080"><ele>290.3</ele></trkpt><trkpt lat="37.780520" lon="-122.134940"><ele>288.5</ele></trkpt><trkpt lat="37.780360" lon="-122.134840"><ele>286.1</ele></trkpt><trkpt lat="37.780320" lon="-122.134760"><ele>285.1</ele></trkpt><trkpt lat="37.780330" lon="-122.134670"><ele>284.2</ele></trkpt><trkpt lat="37.780370" lon="-122.134590"><ele>283.2</ele></trkpt><trkpt lat="37.780530" lon="-122.134330"><ele>280.3</ele></trkpt><trkpt lat="37.780580" lon="-122.134220"><ele>279.2</ele></trkpt><trkpt lat="37.780560" lon="-122.134090"><ele>278.0</ele></trkpt><trkpt lat="37.780490" lon="-122.133990"><ele>276.8</ele></trkpt><trkpt lat="37.780430" lon="-122.133940"><ele>276.0</ele></trkpt><trkpt lat="37.780320" lon="-122.133910"><ele>274.7</ele></trkpt><trkpt lat="37.780209" lon="-122.133910"><ele>273.3</ele></trkpt><trkpt lat="37.780070" lon="-122.133950"><ele>271.7</ele></trkpt><trkpt lat="37.779910" lon="-122.134050"><ele>269.4</ele></trkpt><trkpt lat="37.779840" lon="-122.134210"><ele>267.3</ele></trkpt><trkpt lat="37.779800" lon="-122.134530"><ele>263.7</ele></trkpt><trkpt lat="37.779760" lon="-122.134700"><ele>262.1</ele></trkpt><trkpt lat="37.779700" lon="-122.134820"><ele>261.1</ele></trkpt><trkpt lat="37.779500" lon="-122.135150"><ele>258.3</ele></trkpt><trkpt lat="37.779359" lon="-122.135290"><ele>258.5</ele></trkpt><trkpt lat="37.779320" lon="-122.135250"><ele>258.6</ele></trkpt><trkpt lat="37.779260" lon="-122.135130"><ele>258.9</ele></trkpt><trkpt lat="37.779150" lon="-122.134740"><ele>259.9</ele></trkpt><trkpt lat="37.779100" lon="-122.134620"><ele>260.4</ele></trkpt><trkpt lat="37.779020" lon="-122.134520"><ele>261.0</ele></trkpt><trkpt lat="37.778970" lon="-122.134460"><ele>261.4</ele></trkpt><trkpt lat="37.778840" lon="-122.134380"><ele>262.1</ele></trkpt><trkpt lat="37.778590" lon="-122.134340"><ele>265.1</ele></trkpt><trkpt lat="37.778500" lon="-122.134270"><ele>266.3</ele></trkpt><trkpt lat="37.778500" lon="-122.134180"><ele>267.2</ele></trkpt><trkpt lat="37.778530" lon="-122.134000"><ele>269.0</ele></trkpt><trkpt lat="37.778510" lon="-122.133860"><ele>270.7</ele></trkpt><trkpt lat="37.778460" lon="-122.133750"><ele>272.2</ele></trkpt><trkpt lat="37.778300" lon="-122.133550"><ele>275.5</ele></trkpt><trkpt lat="37.778230" lon="-122.133400"><ele>277.5</ele></trkpt><trkpt lat="37.778160" lon="-122.133290"><ele>279.1</ele></trkpt><trkpt lat="37.778050" lon="-122.133270"><ele>280.6</ele></trkpt><trkpt lat="37.777880" lon="-122.133310"><ele>282.9</ele></trkpt><trkpt lat="37.777800" lon="-122.133300"><ele>284.0</ele></trkpt><trkpt lat="37.777710" lon="-122.133230"><ele>284.8</ele></trkpt><trkpt lat="37.777530" lon="-122.132740"><ele>288.0</ele></trkpt><trkpt lat="37.777530" lon="-122.132600"><ele>288.2</ele></trkpt><trkpt lat="37.777570" lon="-122.132430"><ele>288.3</ele></trkpt><trkpt lat="37.777560" lon="-122.132290"><ele>288.4</ele></trkpt><trkpt lat="37.777460" lon="-122.132100"><ele>288.6</ele></trkpt><trkpt lat="37.777430" lon="-122.132080"><ele>288.6</ele></trkpt><trkpt lat="37.777360" lon="-122.132080"><ele>288.6</ele></trkpt><trkpt lat="37.777220" lon="-122.132140"><ele>288.5</ele></trkpt><trkpt lat="37.776670" lon="-122.132570"><ele>288.3</ele></trkpt><trkpt lat="37.776600" lon="-122.132600"><ele>288.3</ele></trkpt><trkpt lat="37.776510" lon="-122.132530"><ele>288.3</ele></trkpt><trkpt lat="37.776480" lon="-122.132450"><ele>288.3</ele></trkpt><trkpt lat="37.776460" lon="-122.132360"><ele>288.3</ele></trkpt><trkpt lat="37.776480" lon="-122.132130"><ele>288.2</ele></trkpt><trkpt lat="37.776440" lon="-122.131720"><ele>287.9</ele></trkpt><trkpt lat="37.776400" lon="-122.131600"><ele>287.8</ele></trkpt><trkpt lat="37.776240" lon="-122.131410"><ele>287.6</ele></trkpt><trkpt lat="37.776230" lon="-122.131280"><ele>287.4</ele></trkpt><trkpt lat="37.776280" lon="-122.131160"><ele>287.3</ele></trkpt><trkpt lat="37.776330" lon="-122.131090"><ele>287.2</ele></trkpt><trkpt lat="37.776540" lon="-122.131000"><ele>287.0</ele></trkpt><trkpt lat="37.776600" lon="-122.130980"><ele>286.9</ele></trkpt><trkpt lat="37.776660" lon="-122.130920"><ele>286.8</ele></trkpt><trkpt lat="37.776700" lon="-122.130850"><ele>286.5</ele></trkpt><trkpt lat="37.776820" lon="-122.130370"><ele>284.5</ele></trkpt><trkpt lat="37.776860" lon="-122.129960"><ele>282.3</ele></trkpt><trkpt lat="37.776840" lon="-122.129780"><ele>281.2</ele></trkpt><trkpt lat="37.776810" lon="-122.129700"><ele>280.7</ele></trkpt><trkpt lat="37.776730" lon="-122.129620"><ele>279.9</ele></trkpt><trkpt lat="37.776460" lon="-122.129480"><ele>277.0</ele></trkpt><trkpt lat="37.776090" lon="-122.129200"><ele>272.8</ele></trkpt><trkpt lat="37.775920" lon="-122.129110"><ele>271.0</ele></trkpt><trkpt lat="37.775750" lon="-122.129060"><ele>269.3</ele></trkpt><trkpt lat="37.775440" lon="-122.128940"><ele>266.8</ele></trkpt><trkpt lat="37.775400" lon="-122.128940"><ele>266.5</ele></trkpt><trkpt lat="37.775300" lon="-122.128950"><ele>265.7</ele></trkpt><trkpt lat="37.775250" lon="-122.129010"><ele>265.1</ele></trkpt><trkpt lat="37.775190" lon="-122.129130"><ele>264.2</ele></trkpt><trkpt lat="37.775190" lon="-122.129270"><ele>263.4</ele></trkpt><trkpt lat="37.775220" lon="-122.129350"><ele>262.8</ele></trkpt><trkpt lat="37.775419" lon="-122.129700"><ele>260.5</ele></trkpt><trkpt lat="37.775430" lon="-122.129790"><ele>260.2</ele></trkpt><trkpt lat="37.775360" lon="-122.129830"><ele>259.8</ele></trkpt><trkpt lat="37.775220" lon="-122.129790"><ele>259.2</ele></trkpt><trkpt lat="37.775149" lon="-122.129870"><ele>258.7</ele></trkpt><trkpt lat="37.775050" lon="-122.130070"><ele>258.5</ele></trkpt><trkpt lat="37.775020" lon="-122.130200"><ele>258.6</ele></trkpt><trkpt lat="37.774990" lon="-122.130220"><ele>258.6</ele></trkpt><trkpt lat="37.774920" lon="-122.130190"><ele>258.7</ele></trkpt><trkpt lat="37.774769" lon="-122.130060"><ele>258.8</ele></trkpt><trkpt lat="37.774670" lon="-122.130010"><ele>258.7</ele></trkpt><trkpt lat="37.774520" lon="-122.130030"><ele>258.6</ele></trkpt><trkpt lat="37.774450" lon="-122.130120"><ele>258.6</ele></trkpt><trkpt lat="37.774320" lon="-122.130600"><ele>258.5</ele></trkpt><trkpt lat="37.774230" lon="-122.130750"><ele>258.5</ele></trkpt><trkpt lat="37.774150" lon="-122.130840"><ele>258.5</ele></trkpt><trkpt lat="37.774120" lon="-122.130840"><ele>258.5</ele></trkpt><trkpt lat="37.774060" lon="-122.130790"><ele>258.5</ele></trkpt><trkpt lat="37.774030" lon="-122.130700"><ele>258.6</ele></trkpt><trkpt lat="37.774030" lon="-122.130470"><ele>258.8</ele></trkpt><trkpt lat="37.774000" lon="-122.130290"><ele>259.0</ele></trkpt><trkpt lat="37.773950" lon="-122.130180"><ele>259.1</ele></trkpt><trkpt lat="37.773890" lon="-122.130120"><ele>259.1</ele></trkpt><trkpt lat="37.773820" lon="-122.130110"><ele>259.1</ele></trkpt><trkpt lat="37.773710" lon="-122.130140"><ele>259.1</ele></trkpt><trkpt lat="37.773380" lon="-122.130320"><ele>258.9</ele></trkpt><trkpt lat="37.773269" lon="-122.130330"><ele>258.5</ele></trkpt><trkpt lat="37.773200" lon="-122.130300"><ele>258.2</ele></trkpt><trkpt lat="37.773180" lon="-122.130260"><ele>258.1</ele></trkpt><trkpt lat="37.773170" lon="-122.130180"><ele>257.9</ele></trkpt><trkpt lat="37.773200" lon="-122.130000"><ele>257.4</ele></trkpt><trkpt lat="37.773230" lon="-122.129860"><ele>256.8</ele></trkpt><trkpt lat="37.773260" lon="-122.129540"><ele>254.9</ele></trkpt><trkpt lat="37.773240" lon="-122.129410"><ele>254.1</ele></trkpt><trkpt lat="37.773220" lon="-122.129380"><ele>253.9</ele></trkpt><trkpt lat="37.773120" lon="-122.129320"><ele>252.9</ele></trkpt><trkpt lat="37.773010" lon="-122.129320"><ele>251.5</ele></trkpt><trkpt lat="37.772900" lon="-122.129350"><ele>250.0</ele></trkpt><trkpt lat="37.772760" lon="-122.129360"><ele>248.2</ele></trkpt><trkpt lat="37.772840" lon="-122.128970"><ele>243.7</ele></trkpt><trkpt lat="37.772960" lon="-122.128820"><ele>241.3</ele></trkpt><trkpt lat="37.773260" lon="-122.128300"><ele>233.0</ele></trkpt><trkpt lat="37.773380" lon="-122.127960"><ele>227.7</ele></trkpt><trkpt lat="37.773600" lon="-122.127530"><ele>219.5</ele></trkpt><trkpt lat="37.773670" lon="-122.127320"><ele>216.1</ele></trkpt><trkpt lat="37.773690" lon="-122.127230"><ele>214.9</ele></trkpt><trkpt lat="37.773680" lon="-122.127050"><ele>212.4</ele></trkpt><trkpt lat="37.773630" lon="-122.126880"><ele>210.0</ele></trkpt><trkpt lat="37.773430" lon="-122.126490"><ele>204.8</ele></trkpt><trkpt lat="37.773130" lon="-122.126090"><ele>199.1</ele></trkpt><trkpt lat="37.773110" lon="-122.126010"><ele>198.2</ele></trkpt><trkpt lat="37.773130" lon="-122.125920"><ele>197.2</ele></trkpt><trkpt lat="37.773180" lon="-122.125850"><ele>196.3</ele></trkpt><trkpt lat="37.773280" lon="-122.125800"><ele>194.9</ele></trkpt><trkpt lat="37.773420" lon="-122.125810"><ele>193.5</ele></trkpt><trkpt lat="37.773680" lon="-122.125980"><ele>190.8</ele></trkpt><trkpt lat="37.774090" lon="-122.126170"><ele>188.4</ele></trkpt><trkpt lat="37.774230" lon="-122.126200"><ele>187.8</ele></trkpt><trkpt lat="37.774360" lon="-122.126120"><ele>187.2</ele></trkpt><trkpt lat="37.774479" lon="-122.125970"><ele>186.5</ele></trkpt><trkpt lat="37.774970" lon="-122.125960"><ele>184.6</ele></trkpt><trkpt lat="37.775320" lon="-122.126080"><ele>183.5</ele></trkpt><trkpt lat="37.775570" lon="-122.126100"><ele>183.7</ele></trkpt><trkpt lat="37.775690" lon="-122.126110"><ele>183.9</ele></trkpt><trkpt lat="37.776250" lon="-122.126430"><ele>184.1</ele></trkpt><trkpt lat="37.776980" lon="-122.127040"><ele>185.3</ele></trkpt><trkpt lat="37.777280" lon="-122.127080"><ele>186.2</ele></trkpt><trkpt lat="37.777420" lon="-122.127060"><ele>186.6</ele></trkpt><trkpt lat="37.777520" lon="-122.126970"><ele>186.9</ele></trkpt><trkpt lat="37.777640" lon="-122.126670"><ele>187.7</ele></trkpt><trkpt lat="37.777589" lon="-122.126480"><ele>187.8</ele></trkpt><trkpt lat="37.777250" lon="-122.126300"><ele>188.0</ele></trkpt><trkpt lat="37.777020" lon="-122.126040"><ele>187.9</ele></trkpt><trkpt lat="37.776940" lon="-122.125930"><ele>187.9</ele></trkpt><trkpt lat="37.776760" lon="-122.125510"><ele>187.3</ele></trkpt><trkpt lat="37.776680" lon="-122.125390"><ele>187.0</ele></trkpt><trkpt lat="37.775889" lon="-122.125000"><ele>184.7</ele></trkpt><trkpt lat="37.774740" lon="-122.124330"><ele>183.6</ele></trkpt><trkpt lat="37.774630" lon="-122.124240"><ele>183.7</ele></trkpt><trkpt lat="37.774370" lon="-122.123830"><ele>184.3</ele></trkpt><trkpt lat="37.774170" lon="-122.123440"><ele>185.0</ele></trkpt><trkpt lat="37.774120" lon="-122.123370"><ele>185.1</ele></trkpt><trkpt lat="37.774050" lon="-122.123330"><ele>185.3</ele></trkpt><trkpt lat="37.773760" lon="-122.123350"><ele>186.0</ele></trkpt><trkpt lat="37.773620" lon="-122.123310"><ele>186.5</ele></trkpt><trkpt lat="37.773520" lon="-122.123250"><ele>187.0</ele></trkpt><trkpt lat="37.773250" lon="-122.123020"><ele>188.1</ele></trkpt><trkpt lat="37.772979" lon="-122.122880"><ele>188.3</ele></trkpt><trkpt lat="37.772860" lon="-122.122790"><ele>188.3</ele></trkpt><trkpt lat="37.772810" lon="-122.122720"><ele>188.4</ele></trkpt><trkpt lat="37.772770" lon="-122.122550"><ele>188.3</ele></trkpt><trkpt lat="37.772770" lon="-122.122000"><ele>187.9</ele></trkpt><trkpt lat="37.772730" lon="-122.121870"><ele>187.5</ele></trkpt><trkpt lat="37.772640" lon="-122.121800"><ele>187.2</ele></trkpt><trkpt lat="37.772530" lon="-122.121800"><ele>186.8</ele></trkpt><trkpt lat="37.772200" lon="-122.122000"><ele>185.3</ele></trkpt><trkpt lat="37.772030" lon="-122.122070"><ele>184.5</ele></trkpt><trkpt lat="37.771850" lon="-122.122090"><ele>183.6</ele></trkpt><trkpt lat="37.771740" lon="-122.122130"><ele>182.7</ele></trkpt><trkpt lat="37.771479" lon="-122.122370"><ele>180.0</ele></trkpt><trkpt lat="37.771380" lon="-122.122430"><ele>179.1</ele></trkpt><trkpt lat="37.771270" lon="-122.122450"><ele>178.1</ele></trkpt><trkpt lat="37.771120" lon="-122.122450"><ele>176.7</ele></trkpt><trkpt lat="37.770880" lon="-122.122370"><ele>174.5</ele></trkpt><trkpt lat="37.770570" lon="-122.122230"><ele>172.4</ele></trkpt><trkpt lat="37.770340" lon="-122.122090"><ele>170.8</ele></trkpt><trkpt lat="37.770069" lon="-122.121970"><ele>169.4</ele></trkpt><trkpt lat="37.769889" lon="-122.121820"><ele>168.3</ele></trkpt><trkpt lat="37.769680" lon="-122.121560"><ele>167.1</ele></trkpt><trkpt lat="37.769560" lon="-122.121460"><ele>166.6</ele></trkpt><trkpt lat="37.769460" lon="-122.121400"><ele>166.1</ele></trkpt><trkpt lat="37.769220" lon="-122.121330"><ele>165.7</ele></trkpt><trkpt lat="37.769080" lon="-122.121270"><ele>165.5</ele></trkpt><trkpt lat="37.768949" lon="-122.121180"><ele>165.2</ele></trkpt><trkpt lat="37.768740" lon="-122.121000"><ele>165.2</ele></trkpt><trkpt lat="37.768420" lon="-122.120690"><ele>165.1</ele></trkpt><trkpt lat="37.768290" lon="-122.120610"><ele>165.1</ele></trkpt><trkpt lat="37.768120" lon="-122.120450"><ele>164.9</ele></trkpt><trkpt lat="37.767930" lon="-122.120240"><ele>165.0</ele></trkpt><trkpt lat="37.767800" lon="-122.120010"><ele>165.1</ele></trkpt><trkpt lat="37.767770" lon="-122.119920"><ele>165.2</ele></trkpt><trkpt lat="37.767640" lon="-122.119550"><ele>165.2</ele></trkpt><trkpt lat="37.767520" lon="-122.119370"><ele>165.2</ele></trkpt><trkpt lat="37.767350" lon="-122.119230"><ele>165.1</ele></trkpt><trkpt lat="37.767220" lon="-122.119160"><ele>165.1</ele></trkpt><trkpt lat="37.767080" lon="-122.119130"><ele>165.0</ele></trkpt><trkpt lat="37.766870" lon="-122.119210"><ele>164.8</ele></trkpt><trkpt lat="37.766560" lon="-122.119210"><ele>164.5</ele></trkpt><trkpt lat="37.766260" lon="-122.119190"><ele>164.1</ele></trkpt><trkpt lat="37.765980" lon="-122.119090"><ele>163.6</ele></trkpt><trkpt lat="37.765830" lon="-122.119070"><ele>163.2</ele></trkpt><trkpt lat="37.765730" lon="-122.119090"><ele>162.8</ele></trkpt><trkpt lat="37.765490" lon="-122.119220"><ele>161.8</ele></trkpt><trkpt lat="37.765380" lon="-122.119250"><ele>161.3</ele></trkpt><trkpt lat="37.765120" lon="-122.119250"><ele>160.3</ele></trkpt><trkpt lat="37.764830" lon="-122.119210"><ele>159.2</ele></trkpt><trkpt lat="37.764340" lon="-122.119040"><ele>156.9</ele></trkpt><trkpt lat="37.764200" lon="-122.118980"><ele>156.2</ele></trkpt><trkpt lat="37.764000" lon="-122.118850"><ele>155.1</ele></trkpt><trkpt lat="37.763700" lon="-122.118590"><ele>153.4</ele></trkpt><trkpt lat="37.763530" lon="-122.118510"><ele>152.6</ele></trkpt><trkpt lat="37.763090" lon="-122.118280"><ele>151.5</ele></trkpt><trkpt lat="37.762749" lon="-122.118140"><ele>151.1</ele></trkpt><trkpt lat="37.762580" lon="-122.118050"><ele>150.9</ele></trkpt><trkpt lat="37.762400" lon="-122.117900"><ele>150.7</ele></trkpt><trkpt lat="37.762160" lon="-122.117610"><ele>149.7</ele></trkpt><trkpt lat="37.761960" lon="-122.117420"><ele>148.8</ele></trkpt><trkpt lat="37.761680" lon="-122.117210"><ele>148.1</ele></trkpt><trkpt lat="37.761240" lon="-122.116980"><ele>146.6</ele></trkpt><trkpt lat="37.761130" lon="-122.116940"><ele>146.2</ele></trkpt><trkpt lat="37.760920" lon="-122.116920"><ele>145.3</ele></trkpt><trkpt lat="37.760740" lon="-122.116860"><ele>144.1</ele></trkpt><trkpt lat="37.760460" lon="-122.116800"><ele>142.1</ele></trkpt><trkpt lat="37.759950" lon="-122.116740"><ele>140.5</ele></trkpt><trkpt lat="37.759590" lon="-122.116730"><ele>140.5</ele></trkpt><trkpt lat="37.759500" lon="-122.116590"><ele>140.7</ele></trkpt><trkpt lat="37.759420" lon="-122.116490"><ele>140.8</ele></trkpt><trkpt lat="37.759360" lon="-122.116450"><ele>141.0</ele></trkpt><trkpt lat="37.759180" lon="-122.116390"><ele>141.7</ele></trkpt><trkpt lat="37.758890" lon="-122.116210"><ele>143.1</ele></trkpt><trkpt lat="37.758790" lon="-122.116080"><ele>144.1</ele></trkpt><trkpt lat="37.758710" lon="-122.115920"><ele>145.2</ele></trkpt><trkpt lat="37.758650" lon="-122.115660"><ele>146.8</ele></trkpt><trkpt lat="37.758690" lon="-122.115110"><ele>150.8</ele></trkpt><trkpt lat="37.758650" lon="-122.114750"><ele>153.4</ele></trkpt><trkpt lat="37.758650" lon="-122.114640"><ele>154.3</ele></trkpt><trkpt lat="37.758710" lon="-122.114290"><ele>156.9</ele></trkpt><trkpt lat="37.758710" lon="-122.114160"><ele>157.6</ele></trkpt><trkpt lat="37.758680" lon="-122.113980"><ele>158.5</ele></trkpt><trkpt lat="37.758610" lon="-122.113820"><ele>159.4</ele></trkpt><trkpt lat="37.758460" lon="-122.113680"><ele>160.5</ele></trkpt><trkpt lat="37.758270" lon="-122.113550"><ele>161.8</ele></trkpt><trkpt lat="37.758140" lon="-122.113490"><ele>162.6</ele></trkpt><trkpt lat="37.758030" lon="-122.113500"><ele>163.2</ele></trkpt><trkpt lat="37.757830" lon="-122.113620"><ele>163.6</ele></trkpt><trkpt lat="37.757720" lon="-122.113630"><ele>163.7</ele></trkpt><trkpt lat="37.757660" lon="-122.113600"><ele>163.8</ele></trkpt><trkpt lat="37.757599" lon="-122.113550"><ele>163.9</ele></trkpt><trkpt lat="37.757530" lon="-122.113440"><ele>164.0</ele></trkpt><trkpt lat="37.757410" lon="-122.113060"><ele>164.7</ele></trkpt><trkpt lat="37.757340" lon="-122.112890"><ele>165.0</ele></trkpt><trkpt lat="37.757290" lon="-122.112820"><ele>165.2</ele></trkpt><trkpt lat="37.757190" lon="-122.112770"><ele>165.1</ele></trkpt><trkpt lat="37.757160" lon="-122.112780"><ele>165.0</ele></trkpt><trkpt lat="37.757090" lon="-122.112820"><ele>164.9</ele></trkpt><trkpt lat="37.756910" lon="-122.113050"><ele>164.7</ele></trkpt><trkpt lat="37.756790" lon="-122.113160"><ele>164.3</ele></trkpt><trkpt lat="37.756620" lon="-122.113240"><ele>163.7</ele></trkpt><trkpt lat="37.756520" lon="-122.113260"><ele>163.3</ele></trkpt><trkpt lat="37.756340" lon="-122.113270"><ele>162.7</ele></trkpt><trkpt lat="37.756279" lon="-122.113420"><ele>162.1</ele></trkpt><trkpt lat="37.756150" lon="-122.113640"><ele>161.2</ele></trkpt><trkpt lat="37.756060" lon="-122.113780"><ele>160.5</ele></trkpt><trkpt lat="37.755960" lon="-122.113840"><ele>159.8</ele></trkpt><trkpt lat="37.755890" lon="-122.113820"><ele>159.2</ele></trkpt><trkpt lat="37.755840" lon="-122.113760"><ele>158.6</ele></trkpt><trkpt lat="37.755690" lon="-122.113340"><ele>155.4</ele></trkpt><trkpt lat="37.755660" lon="-122.113170"><ele>154.2</ele></trkpt><trkpt lat="37.755700" lon="-122.113040"><ele>153.2</ele></trkpt><trkpt lat="37.755830" lon="-122.112820"><ele>151.2</ele></trkpt><trkpt lat="37.755850" lon="-122.112730"><ele>150.6</ele></trkpt><trkpt lat="37.755840" lon="-122.112640"><ele>150.1</ele></trkpt><trkpt lat="37.755809" lon="-122.112560"><ele>149.7</ele></trkpt><trkpt lat="37.755670" lon="-122.112290"><ele>148.0</ele></trkpt><trkpt lat="37.755629" lon="-122.112160"><ele>147.2</ele></trkpt><trkpt lat="37.755610" lon="-122.112030"><ele>147.0</ele></trkpt><trkpt lat="37.755620" lon="-122.111660"><ele>146.5</ele></trkpt><trkpt lat="37.755600" lon="-122.111530"><ele>146.4</ele></trkpt><trkpt lat="37.755490" lon="-122.111410"><ele>146.3</ele></trkpt><trkpt lat="37.755420" lon="-122.111400"><ele>146.3</ele></trkpt><trkpt lat="37.755350" lon="-122.111430"><ele>146.3</ele></trkpt><trkpt lat="37.755300" lon="-122.111490"><ele>146.3</ele></trkpt><trkpt lat="37.755180" lon="-122.111670"><ele>146.3</ele></trkpt><trkpt lat="37.755090" lon="-122.111870"><ele>148.0</ele></trkpt><trkpt lat="37.755000" lon="-122.112310"><ele>152.1</ele></trkpt><trkpt lat="37.754950" lon="-122.112440"><ele>153.5</ele></trkpt><trkpt lat="37.754790" lon="-122.112740"><ele>157.0</ele></trkpt><trkpt lat="37.754740" lon="-122.112800"><ele>157.8</ele></trkpt><trkpt lat="37.754630" lon="-122.112830"><ele>159.2</ele></trkpt><trkpt lat="37.754489" lon="-122.112800"><ele>161.0</ele></trkpt><trkpt lat="37.754330" lon="-122.112690"><ele>163.2</ele></trkpt><trkpt lat="37.754150" lon="-122.112480"><ele>166.3</ele></trkpt><trkpt lat="37.754070" lon="-122.112320"><ele>168.2</ele></trkpt><trkpt lat="37.754030" lon="-122.112200"><ele>169.4</ele></trkpt><trkpt lat="37.754030" lon="-122.111780"><ele>173.7</ele></trkpt><trkpt lat="37.754010" lon="-122.111420"><ele>177.7</ele></trkpt><trkpt lat="37.753970" lon="-122.111050"><ele>180.9</ele></trkpt><trkpt lat="37.753880" lon="-122.110470"><ele>184.2</ele></trkpt><trkpt lat="37.753880" lon="-122.110150"><ele>186.2</ele></trkpt><trkpt lat="37.753910" lon="-122.109970"><ele>187.4</ele></trkpt><trkpt lat="37.753980" lon="-122.109710"><ele>189.3</ele></trkpt><trkpt lat="37.753970" lon="-122.109610"><ele>190.0</ele></trkpt><trkpt lat="37.753940" lon="-122.109530"><ele>190.6</ele></trkpt><trkpt lat="37.753910" lon="-122.109500"><ele>191.0</ele></trkpt><trkpt lat="37.753839" lon="-122.109480"><ele>191.6</ele></trkpt><trkpt lat="37.753660" lon="-122.109510"><ele>193.2</ele></trkpt><trkpt lat="37.753450" lon="-122.109430"><ele>194.6</ele></trkpt><trkpt lat="37.753330" lon="-122.109320"><ele>195.6</ele></trkpt><trkpt lat="37.753240" lon="-122.109120"><ele>196.9</ele></trkpt><trkpt lat="37.753210" lon="-122.108980"><ele>197.8</ele></trkpt><trkpt lat="37.753210" lon="-122.108750"><ele>199.2</ele></trkpt><trkpt lat="37.753270" lon="-122.108290"><ele>202.2</ele></trkpt><trkpt lat="37.753260" lon="-122.108160"><ele>203.0</ele></trkpt><trkpt lat="37.753240" lon="-122.108120"><ele>203.3</ele></trkpt><trkpt lat="37.753180" lon="-122.108070"><ele>203.9</ele></trkpt><trkpt lat="37.753070" lon="-122.108050"><ele>204.7</ele></trkpt><trkpt lat="37.752970" lon="-122.107990"><ele>205.6</ele></trkpt><trkpt lat="37.752930" lon="-122.107920"><ele>206.1</ele></trkpt><trkpt lat="37.752890" lon="-122.107790"><ele>206.9</ele></trkpt><trkpt lat="37.752910" lon="-122.107610"><ele>207.9</ele></trkpt><trkpt lat="37.752989" lon="-122.107400"><ele>209.3</ele></trkpt><trkpt lat="37.753010" lon="-122.107310"><ele>209.9</ele></trkpt><trkpt lat="37.753000" lon="-122.107220"><ele>210.6</ele></trkpt><trkpt lat="37.752920" lon="-122.107070"><ele>211.9</ele></trkpt><trkpt lat="37.752890" lon="-122.106990"><ele>212.5</ele></trkpt><trkpt lat="37.752890" lon="-122.106900"><ele>213.2</ele></trkpt><trkpt lat="37.752970" lon="-122.106590"><ele>215.3</ele></trkpt><trkpt lat="37.752980" lon="-122.106450"><ele>216.2</ele></trkpt><trkpt lat="37.752880" lon="-122.105580"><ele>222.3</ele></trkpt><trkpt lat="37.752710" lon="-122.105070"><ele>226.4</ele></trkpt><trkpt lat="37.752640" lon="-122.104800"><ele>228.4</ele></trkpt><trkpt lat="37.752630" lon="-122.104610"><ele>229.6</ele></trkpt><trkpt lat="37.752630" lon="-122.104250"><ele>231.9</ele></trkpt><trkpt lat="37.752620" lon="-122.104160"><ele>232.5</ele></trkpt><trkpt lat="37.752580" lon="-122.104080"><ele>232.8</ele></trkpt><trkpt lat="37.752540" lon="-122.104080"><ele>232.9</ele></trkpt><trkpt lat="37.752510" lon="-122.104110"><ele>233.1</ele></trkpt><trkpt lat="37.752170" lon="-122.104770"><ele>235.7</ele></trkpt><trkpt lat="37.752130" lon="-122.105050"><ele>236.9</ele></trkpt><trkpt lat="37.752150" lon="-122.105410"><ele>237.8</ele></trkpt><trkpt lat="37.752110" lon="-122.105590"><ele>238.0</ele></trkpt><trkpt lat="37.752070" lon="-122.105670"><ele>238.1</ele></trkpt><trkpt lat="37.751990" lon="-122.105770"><ele>238.3</ele></trkpt><trkpt lat="37.751770" lon="-122.105940"><ele>238.2</ele></trkpt><trkpt lat="37.751710" lon="-122.105970"><ele>238.2</ele></trkpt><trkpt lat="37.751630" lon="-122.105970"><ele>238.1</ele></trkpt><trkpt lat="37.751500" lon="-122.105890"><ele>238.0</ele></trkpt><trkpt lat="37.751420" lon="-122.105800"><ele>238.1</ele></trkpt><trkpt lat="37.751270" lon="-122.105600"><ele>238.2</ele></trkpt><trkpt lat="37.751210" lon="-122.105560"><ele>238.3</ele></trkpt><trkpt lat="37.751170" lon="-122.105550"><ele>238.3</ele></trkpt><trkpt lat="37.750900" lon="-122.105670"><ele>238.8</ele></trkpt><trkpt lat="37.750749" lon="-122.105650"><ele>239.1</ele></trkpt><trkpt lat="37.750660" lon="-122.105580"><ele>239.3</ele></trkpt><trkpt lat="37.750490" lon="-122.105340"><ele>239.7</ele></trkpt><trkpt lat="37.750430" lon="-122.105290"><ele>239.7</ele></trkpt><trkpt lat="37.750360" lon="-122.105260"><ele>239.7</ele></trkpt><trkpt lat="37.750250" lon="-122.105260"><ele>239.8</ele></trkpt><trkpt lat="37.750070" lon="-122.105300"><ele>239.8</ele></trkpt><trkpt lat="37.749480" lon="-122.105300"><ele>238.0</ele></trkpt><trkpt lat="37.749260" lon="-122.105340"><ele>237.3</ele></trkpt><trkpt lat="37.749070" lon="-122.105340"><ele>236.6</ele></trkpt><trkpt lat="37.748740" lon="-122.105260"><ele>234.7</ele></trkpt><trkpt lat="37.748390" lon="-122.105120"><ele>232.5</ele></trkpt><trkpt lat="37.748250" lon="-122.105080"><ele>231.7</ele></trkpt><trkpt lat="37.748109" lon="-122.105010"><ele>230.8</ele></trkpt><trkpt lat="37.748060" lon="-122.104840"><ele>230.0</ele></trkpt><trkpt lat="37.748070" lon="-122.104750"><ele>229.6</ele></trkpt><trkpt lat="37.748220" lon="-122.104430"><ele>227.9</ele></trkpt><trkpt lat="37.748290" lon="-122.104330"><ele>227.3</ele></trkpt><trkpt lat="37.748380" lon="-122.104250"><ele>226.9</ele></trkpt><trkpt lat="37.748650" lon="-122.104100"><ele>226.1</ele></trkpt><trkpt lat="37.748740" lon="-122.104010"><ele>225.8</ele></trkpt><trkpt lat="37.748770" lon="-122.103930"><ele>225.6</ele></trkpt><trkpt lat="37.748820" lon="-122.103660"><ele>225.7</ele></trkpt><trkpt lat="37.748850" lon="-122.103580"><ele>225.7</ele></trkpt><trkpt lat="37.748970" lon="-122.103350"><ele>225.8</ele></trkpt><trkpt lat="37.749180" lon="-122.103090"><ele>227.0</ele></trkpt><trkpt lat="37.749200" lon="-122.103000"><ele>227.4</ele></trkpt><trkpt lat="37.749190" lon="-122.102960"><ele>227.5</ele></trkpt><trkpt lat="37.749160" lon="-122.102940"><ele>227.7</ele></trkpt><trkpt lat="37.749049" lon="-122.102940"><ele>228.2</ele></trkpt><trkpt lat="37.748820" lon="-122.103070"><ele>229.6</ele></trkpt><trkpt lat="37.748440" lon="-122.103240"><ele>231.6</ele></trkpt><trkpt lat="37.748050" lon="-122.103390"><ele>233.0</ele></trkpt><trkpt lat="37.747950" lon="-122.103400"><ele>233.3</ele></trkpt><trkpt lat="37.747910" lon="-122.103390"><ele>233.5</ele></trkpt><trkpt lat="37.747810" lon="-122.103330"><ele>233.8</ele></trkpt><trkpt lat="37.747700" lon="-122.103150"><ele>234.4</ele></trkpt><trkpt lat="37.747610" lon="-122.103060"><ele>234.8</ele></trkpt><trkpt lat="37.747420" lon="-122.102930"><ele>235.7</ele></trkpt><trkpt lat="37.747169" lon="-122.102840"><ele>236.7</ele></trkpt><trkpt lat="37.746989" lon="-122.102840"><ele>237.1</ele></trkpt><trkpt lat="37.746880" lon="-122.102870"><ele>236.9</ele></trkpt><trkpt lat="37.746750" lon="-122.102950"><ele>236.8</ele></trkpt><trkpt lat="37.746700" lon="-122.103010"><ele>236.7</ele></trkpt><trkpt lat="37.746670" lon="-122.103090"><ele>236.6</ele></trkpt><trkpt lat="37.746660" lon="-122.103230"><ele>236.4</ele></trkpt><trkpt lat="37.746720" lon="-122.103550"><ele>234.6</ele></trkpt><trkpt lat="37.746700" lon="-122.103640"><ele>234.1</ele></trkpt><trkpt lat="37.746660" lon="-122.103710"><ele>233.6</ele></trkpt><trkpt lat="37.746560" lon="-122.103760"><ele>232.9</ele></trkpt><trkpt lat="37.746410" lon="-122.103760"><ele>231.9</ele></trkpt><trkpt lat="37.746339" lon="-122.103740"><ele>231.4</ele></trkpt><trkpt lat="37.746210" lon="-122.103660"><ele>230.4</ele></trkpt><trkpt lat="37.746070" lon="-122.103510"><ele>229.2</ele></trkpt><trkpt lat="37.745950" lon="-122.103410"><ele>228.5</ele></trkpt><trkpt lat="37.745850" lon="-122.103360"><ele>228.0</ele></trkpt><trkpt lat="37.745740" lon="-122.103360"><ele>227.5</ele></trkpt><trkpt lat="37.745640" lon="-122.103420"><ele>227.0</ele></trkpt><trkpt lat="37.745600" lon="-122.103490"><ele>226.7</ele></trkpt><trkpt lat="37.745460" lon="-122.104060"><ele>223.6</ele></trkpt><trkpt lat="37.745260" lon="-122.104430"><ele>221.0</ele></trkpt><trkpt lat="37.745260" lon="-122.104440"><ele>220.9</ele></trkpt><trkpt lat="37.745160" lon="-122.104590"><ele>219.8</ele></trkpt><trkpt lat="37.745000" lon="-122.104770"><ele>218.6</ele></trkpt><trkpt lat="37.744780" lon="-122.104930"><ele>217.6</ele></trkpt><trkpt lat="37.744510" lon="-122.105180"><ele>216.8</ele></trkpt><trkpt lat="37.744340" lon="-122.105260"><ele>216.6</ele></trkpt><trkpt lat="37.744200" lon="-122.105240"><ele>216.5</ele></trkpt><trkpt lat="37.744140" lon="-122.105200"><ele>216.4</ele></trkpt><trkpt lat="37.744090" lon="-122.105130"><ele>216.2</ele></trkpt><trkpt lat="37.744040" lon="-122.104960"><ele>215.9</ele></trkpt><trkpt lat="37.744020" lon="-122.104640"><ele>215.3</ele></trkpt><trkpt lat="37.743980" lon="-122.104460"><ele>215.0</ele></trkpt><trkpt lat="37.743890" lon="-122.104320"><ele>214.8</ele></trkpt><trkpt lat="37.743740" lon="-122.104190"><ele>214.5</ele></trkpt><trkpt lat="37.743660" lon="-122.104100"><ele>214.3</ele></trkpt><trkpt lat="37.743609" lon="-122.103980"><ele>214.5</ele></trkpt><trkpt lat="37.743540" lon="-122.103710"><ele>214.8</ele></trkpt><trkpt lat="37.743500" lon="-122.103630"><ele>215.0</ele></trkpt><trkpt lat="37.743470" lon="-122.103610"><ele>215.0</ele></trkpt><trkpt lat="37.743410" lon="-122.103570"><ele>215.1</ele></trkpt><trkpt lat="37.743330" lon="-122.103570"><ele>215.3</ele></trkpt><trkpt lat="37.743130" lon="-122.103650"><ele>215.8</ele></trkpt><trkpt lat="37.743030" lon="-122.103700"><ele>216.0</ele></trkpt><trkpt lat="37.742860" lon="-122.103880"><ele>216.4</ele></trkpt><trkpt lat="37.742690" lon="-122.103940"><ele>216.5</ele></trkpt><trkpt lat="37.742510" lon="-122.103920"><ele>216.6</ele></trkpt><trkpt lat="37.742450" lon="-122.103880"><ele>216.7</ele></trkpt><trkpt lat="37.742400" lon="-122.103810"><ele>216.7</ele></trkpt><trkpt lat="37.742380" lon="-122.103670"><ele>216.8</ele></trkpt><trkpt lat="37.742380" lon="-122.103310"><ele>216.9</ele></trkpt><trkpt lat="37.742340" lon="-122.103080"><ele>217.0</ele></trkpt><trkpt lat="37.742260" lon="-122.102930"><ele>216.9</ele></trkpt><trkpt lat="37.742080" lon="-122.102700"><ele>216.8</ele></trkpt><trkpt lat="37.742019" lon="-122.102530"><ele>216.6</ele></trkpt><trkpt lat="37.742010" lon="-122.102400"><ele>216.4</ele></trkpt><trkpt lat="37.742030" lon="-122.102080"><ele>215.8</ele></trkpt><trkpt lat="37.742000" lon="-122.101850"><ele>215.2</ele></trkpt><trkpt lat="37.741880" lon="-122.101680"><ele>214.3</ele></trkpt><trkpt lat="37.741740" lon="-122.101660"><ele>213.6</ele></trkpt><trkpt lat="37.741450" lon="-122.101650"><ele>211.7</ele></trkpt><trkpt lat="37.741410" lon="-122.101630"><ele>211.4</ele></trkpt><trkpt lat="37.741220" lon="-122.102040"><ele>208.1</ele></trkpt><trkpt lat="37.741110" lon="-122.102160"><ele>206.6</ele></trkpt><trkpt lat="37.740910" lon="-122.102480"><ele>203.2</ele></trkpt><trkpt lat="37.740850" lon="-122.102790"><ele>200.2</ele></trkpt><trkpt lat="37.740770" lon="-122.103390"><ele>194.5</ele></trkpt><trkpt lat="37.740789" lon="-122.103980"><ele>189.6</ele></trkpt><trkpt lat="37.740780" lon="-122.104210"><ele>187.5</ele></trkpt><trkpt lat="37.740670" lon="-122.104930"><ele>181.7</ele></trkpt><trkpt lat="37.740660" lon="-122.105760"><ele>176.5</ele></trkpt><trkpt lat="37.740540" lon="-122.106480"><ele>172.1</ele></trkpt><trkpt lat="37.740490" lon="-122.106940"><ele>169.2</ele></trkpt><trkpt lat="37.740450" lon="-122.107060"><ele>168.4</ele></trkpt><trkpt lat="37.740380" lon="-122.107160"><ele>167.6</ele></trkpt><trkpt lat="37.740210" lon="-122.107340"><ele>166.5</ele></trkpt><trkpt lat="37.739940" lon="-122.107580"><ele>165.1</ele></trkpt><trkpt lat="37.739900" lon="-122.107650"><ele>164.9</ele></trkpt><trkpt lat="37.739860" lon="-122.107840"><ele>164.3</ele></trkpt><trkpt lat="37.739800" lon="-122.108010"><ele>163.7</ele></trkpt><trkpt lat="37.739770" lon="-122.108420"><ele>162.4</ele></trkpt><trkpt lat="37.739700" lon="-122.108630"><ele>161.8</ele></trkpt><trkpt lat="37.739710" lon="-122.108770"><ele>161.5</ele></trkpt><trkpt lat="37.739620" lon="-122.109450"><ele>158.7</ele></trkpt><trkpt lat="37.739560" lon="-122.109720"><ele>157.4</ele></trkpt><trkpt lat="37.739410" lon="-122.110190"><ele>154.9</ele></trkpt><trkpt lat="37.739150" lon="-122.110750"><ele>149.9</ele></trkpt><trkpt lat="37.739060" lon="-122.110900"><ele>148.7</ele></trkpt><trkpt lat="37.738890" lon="-122.111030"><ele>147.6</ele></trkpt><trkpt lat="37.738900" lon="-122.111030"><ele>147.5</ele></trkpt><trkpt lat="37.738487" lon="-122.111636"><ele>142.8</ele></trkpt><trkpt lat="37.738739" lon="-122.110241"><ele>138.7</ele></trkpt><trkpt lat="37.739004" lon="-122.109168"><ele>140.1</ele></trkpt><trkpt lat="37.739085" lon="-122.107344"><ele>138.6</ele></trkpt><trkpt lat="37.738793" lon="-122.106465"><ele>135.7</ele></trkpt><trkpt lat="37.738400" lon="-122.107816"><ele>138.7</ele></trkpt><trkpt lat="37.738500" lon="-122.107840"><ele>139.2</ele></trkpt><trkpt lat="37.738490" lon="-122.108010"><ele>140.0</ele></trkpt><trkpt lat="37.738460" lon="-122.108150"><ele>141.0</ele></trkpt><trkpt lat="37.738400" lon="-122.108200"><ele>141.5</ele></trkpt><trkpt lat="37.738330" lon="-122.108220"><ele>142.1</ele></trkpt><trkpt lat="37.738259" lon="-122.108200"><ele>142.7</ele></trkpt><trkpt lat="37.738060" lon="-122.108090"><ele>144.4</ele></trkpt><trkpt lat="37.737990" lon="-122.108080"><ele>145.1</ele></trkpt><trkpt lat="37.737920" lon="-122.108120"><ele>145.9</ele></trkpt><trkpt lat="37.737890" lon="-122.108200"><ele>146.5</ele></trkpt><trkpt lat="37.737890" lon="-122.108290"><ele>147.2</ele></trkpt><trkpt lat="37.737920" lon="-122.108710"><ele>150.9</ele></trkpt><trkpt lat="37.737900" lon="-122.108890"><ele>152.9</ele></trkpt><trkpt lat="37.737850" lon="-122.109010"><ele>154.4</ele></trkpt><trkpt lat="37.737609" lon="-122.109470"><ele>158.4</ele></trkpt><trkpt lat="37.737500" lon="-122.109590"><ele>159.2</ele></trkpt><trkpt lat="37.737360" lon="-122.109640"><ele>160.1</ele></trkpt><trkpt lat="37.737200" lon="-122.109620"><ele>161.4</ele></trkpt><trkpt lat="37.737200" lon="-122.109610"><ele>161.5</ele></trkpt><trkpt lat="37.737040" lon="-122.109570"><ele>162.9</ele></trkpt><trkpt lat="37.736870" lon="-122.109640"><ele>164.4</ele></trkpt><trkpt lat="37.736770" lon="-122.109710"><ele>165.6</ele></trkpt><trkpt lat="37.736690" lon="-122.109800"><ele>166.8</ele></trkpt><trkpt lat="37.736550" lon="-122.110070"><ele>169.7</ele></trkpt><trkpt lat="37.736530" lon="-122.110100"><ele>170.1</ele></trkpt><trkpt lat="37.736420" lon="-122.110130"><ele>171.3</ele></trkpt><trkpt lat="37.736340" lon="-122.110040"><ele>172.5</ele></trkpt><trkpt lat="37.736320" lon="-122.110000"><ele>172.9</ele></trkpt><trkpt lat="37.736360" lon="-122.109830"><ele>174.5</ele></trkpt><trkpt lat="37.736849" lon="-122.108930"><ele>181.7</ele></trkpt><trkpt lat="37.737090" lon="-122.108580"><ele>185.4</ele></trkpt><trkpt lat="37.736800" lon="-122.108110"><ele>189.7</ele></trkpt><trkpt lat="37.736690" lon="-122.107610"><ele>191.6</ele></trkpt><trkpt lat="37.736690" lon="-122.107370"><ele>192.2</ele></trkpt><trkpt lat="37.736740" lon="-122.106930"><ele>192.2</ele></trkpt><trkpt lat="37.736990" lon="-122.106580"><ele>191.7</ele></trkpt><trkpt lat="37.737040" lon="-122.106570"><ele>191.5</ele></trkpt><trkpt lat="37.737100" lon="-122.106440"><ele>191.2</ele></trkpt><trkpt lat="37.736970" lon="-122.106270"><ele>190.7</ele></trkpt><trkpt lat="37.736940" lon="-122.105710"><ele>187.9</ele></trkpt><trkpt lat="37.736970" lon="-122.104830"><ele>182.6</ele></trkpt><trkpt lat="37.736849" lon="-122.104740"><ele>182.0</ele></trkpt><trkpt lat="37.736820" lon="-122.104650"><ele>181.7</ele></trkpt><trkpt lat="37.736710" lon="-122.103920"><ele>180.4</ele></trkpt><trkpt lat="37.736710" lon="-122.103780"><ele>180.4</ele></trkpt><trkpt lat="37.736740" lon="-122.103650"><ele>180.4</ele></trkpt><trkpt lat="37.736800" lon="-122.103530"><ele>180.7</ele></trkpt><trkpt lat="37.736920" lon="-122.103420"><ele>181.2</ele></trkpt><trkpt lat="37.737020" lon="-122.103370"><ele>181.7</ele></trkpt><trkpt lat="37.737270" lon="-122.103290"><ele>182.8</ele></trkpt><trkpt lat="37.737360" lon="-122.103220"><ele>183.4</ele></trkpt><trkpt lat="37.737409" lon="-122.103100"><ele>184.1</ele></trkpt><trkpt lat="37.737490" lon="-122.102790"><ele>185.7</ele></trkpt><trkpt lat="37.737650" lon="-122.102420"><ele>187.4</ele></trkpt><trkpt lat="37.737780" lon="-122.102190"><ele>188.6</ele></trkpt><trkpt lat="37.737950" lon="-122.102010"><ele>189.1</ele></trkpt><trkpt lat="37.738160" lon="-122.101830"><ele>189.7</ele></trkpt><trkpt lat="37.738240" lon="-122.101680"><ele>189.8</ele></trkpt><trkpt lat="37.738230" lon="-122.101500"><ele>189.4</ele></trkpt><trkpt lat="37.738120" lon="-122.101260"><ele>189.0</ele></trkpt><trkpt lat="37.737990" lon="-122.101040"><ele>188.6</ele></trkpt><trkpt lat="37.737910" lon="-122.100950"><ele>188.4</ele></trkpt><trkpt lat="37.737840" lon="-122.100920"><ele>188.4</ele></trkpt><trkpt lat="37.737630" lon="-122.100860"><ele>188.1</ele></trkpt><trkpt lat="37.737530" lon="-122.100800"><ele>188.1</ele></trkpt><trkpt lat="37.737460" lon="-122.100700"><ele>188.2</ele></trkpt><trkpt lat="37.737300" lon="-122.100340"><ele>188.3</ele></trkpt><trkpt lat="37.737200" lon="-122.099990"><ele>188.9</ele></trkpt><trkpt lat="37.737160" lon="-122.099490"><ele>190.0</ele></trkpt><trkpt lat="37.737139" lon="-122.099400"><ele>190.3</ele></trkpt><trkpt lat="37.736970" lon="-122.099160"><ele>191.3</ele></trkpt><trkpt lat="37.736890" lon="-122.098960"><ele>192.2</ele></trkpt><trkpt lat="37.736740" lon="-122.098490"><ele>194.7</ele></trkpt><trkpt lat="37.736669" lon="-122.098230"><ele>195.6</ele></trkpt><trkpt lat="37.736630" lon="-122.097820"><ele>196.7</ele></trkpt><trkpt lat="37.736500" lon="-122.097600"><ele>197.3</ele></trkpt><trkpt lat="37.736440" lon="-122.097430"><ele>197.7</ele></trkpt><trkpt lat="37.736440" lon="-122.097240"><ele>198.2</ele></trkpt><trkpt lat="37.736450" lon="-122.096920"><ele>199.0</ele></trkpt><trkpt lat="37.736410" lon="-122.096800"><ele>199.3</ele></trkpt><trkpt lat="37.736260" lon="-122.096680"><ele>199.9</ele></trkpt><trkpt lat="37.735930" lon="-122.096690"><ele>201.0</ele></trkpt><trkpt lat="37.735550" lon="-122.096550"><ele>202.5</ele></trkpt><trkpt lat="37.735300" lon="-122.096360"><ele>204.0</ele></trkpt><trkpt lat="37.735220" lon="-122.096270"><ele>204.5</ele></trkpt><trkpt lat="37.735130" lon="-122.096120"><ele>205.4</ele></trkpt><trkpt lat="37.735050" lon="-122.096150"><ele>205.9</ele></trkpt><trkpt lat="37.734940" lon="-122.096230"><ele>206.7</ele></trkpt><trkpt lat="37.734870" lon="-122.096380"><ele>207.6</ele></trkpt><trkpt lat="37.734860" lon="-122.096540"><ele>208.2</ele></trkpt><trkpt lat="37.734920" lon="-122.096690"><ele>208.5</ele></trkpt><trkpt lat="37.735140" lon="-122.097030"><ele>209.0</ele></trkpt><trkpt lat="37.735310" lon="-122.097660"><ele>209.4</ele></trkpt><trkpt lat="37.735490" lon="-122.098290"><ele>208.6</ele></trkpt><trkpt lat="37.735590" lon="-122.098710"><ele>207.3</ele></trkpt><trkpt lat="37.735560" lon="-122.099090"><ele>206.0</ele></trkpt><trkpt lat="37.735380" lon="-122.099840"><ele>202.4</ele></trkpt><trkpt lat="37.735360" lon="-122.099980"><ele>202.1</ele></trkpt><trkpt lat="37.735349" lon="-122.100370"><ele>201.5</ele></trkpt><trkpt lat="37.735370" lon="-122.100790"><ele>201.9</ele></trkpt><trkpt lat="37.735349" lon="-122.100920"><ele>202.0</ele></trkpt><trkpt lat="37.735169" lon="-122.101080"><ele>202.5</ele></trkpt><trkpt lat="37.734770" lon="-122.101300"><ele>204.0</ele></trkpt><trkpt lat="37.734770" lon="-122.101300"><ele>204.0</ele></trkpt><trkpt lat="37.734510" lon="-122.101480"><ele>204.8</ele></trkpt><trkpt lat="37.733810" lon="-122.102080"><ele>208.9</ele></trkpt><trkpt lat="37.733680" lon="-122.102220"><ele>209.2</ele></trkpt><trkpt lat="37.733530" lon="-122.102310"><ele>209.5</ele></trkpt><trkpt lat="37.733610" lon="-122.101980"><ele>209.1</ele></trkpt><trkpt lat="37.733660" lon="-122.101890"><ele>208.7</ele></trkpt><trkpt lat="37.733790" lon="-122.101770"><ele>208.1</ele></trkpt><trkpt lat="37.734160" lon="-122.101530"><ele>205.7</ele></trkpt><trkpt lat="37.734690" lon="-122.101300"><ele>202.4</ele></trkpt><trkpt lat="37.734850" lon="-122.101250"><ele>201.6</ele></trkpt><trkpt lat="37.735169" lon="-122.101080"><ele>198.9</ele></trkpt><trkpt lat="37.735259" lon="-122.101010"><ele>198.0</ele></trkpt><trkpt lat="37.735330" lon="-122.101100"><ele>197.1</ele></trkpt><trkpt lat="37.735420" lon="-122.101140"><ele>196.3</ele></trkpt><trkpt lat="37.735500" lon="-122.101260"><ele>195.2</ele></trkpt><trkpt lat="37.735450" lon="-122.101480"><ele>193.6</ele></trkpt><trkpt lat="37.735310" lon="-122.101820"><ele>191.4</ele></trkpt><trkpt lat="37.735100" lon="-122.102180"><ele>190.0</ele></trkpt><trkpt lat="37.735110" lon="-122.102680"><ele>189.6</ele></trkpt><trkpt lat="37.735150" lon="-122.102900"><ele>189.6</ele></trkpt><trkpt lat="37.735120" lon="-122.103060"><ele>189.6</ele></trkpt><trkpt lat="37.734890" lon="-122.103170"><ele>189.6</ele></trkpt><trkpt lat="37.734660" lon="-122.103170"><ele>189.6</ele></trkpt><trkpt lat="37.734430" lon="-122.103130"><ele>190.5</ele></trkpt><trkpt lat="37.734330" lon="-122.103220"><ele>191.0</ele></trkpt><trkpt lat="37.734310" lon="-122.103440"><ele>191.7</ele></trkpt><trkpt lat="37.734400" lon="-122.103570"><ele>192.2</ele></trkpt><trkpt lat="37.734680" lon="-122.103780"><ele>193.5</ele></trkpt><trkpt lat="37.734920" lon="-122.104040"><ele>193.9</ele></trkpt><trkpt lat="37.735000" lon="-122.104290"><ele>193.9</ele></trkpt><trkpt lat="37.735000" lon="-122.104290"><ele>193.9</ele></trkpt><trkpt lat="37.735020" lon="-122.104370"><ele>193.9</ele></trkpt><trkpt lat="37.735010" lon="-122.104790"><ele>194.9</ele></trkpt><trkpt lat="37.734969" lon="-122.105290"><ele>196.1</ele></trkpt><trkpt lat="37.734930" lon="-122.105500"><ele>196.6</ele></trkpt><trkpt lat="37.734760" lon="-122.105640"><ele>197.2</ele></trkpt><trkpt lat="37.734640" lon="-122.105680"><ele>196.9</ele></trkpt><trkpt lat="37.734480" lon="-122.105630"><ele>196.6</ele></trkpt><trkpt lat="37.734290" lon="-122.105300"><ele>195.9</ele></trkpt><trkpt lat="37.734229" lon="-122.105240"><ele>195.9</ele></trkpt><trkpt lat="37.734160" lon="-122.105410"><ele>195.8</ele></trkpt><trkpt lat="37.734200" lon="-122.106160"><ele>193.9</ele></trkpt><trkpt lat="37.734150" lon="-122.106870"><ele>188.1</ele></trkpt><trkpt lat="37.734190" lon="-122.107360"><ele>182.6</ele></trkpt><trkpt lat="37.734139" lon="-122.108030"><ele>175.0</ele></trkpt><trkpt lat="37.734180" lon="-122.108580"><ele>169.4</ele></trkpt><trkpt lat="37.734170" lon="-122.108970"><ele>165.7</ele></trkpt><trkpt lat="37.734139" lon="-122.109180"><ele>164.0</ele></trkpt><trkpt lat="37.734030" lon="-122.109290"><ele>163.2</ele></trkpt><trkpt lat="37.733880" lon="-122.109250"><ele>162.3</ele></trkpt><trkpt lat="37.733770" lon="-122.108990"><ele>161.1</ele></trkpt><trkpt lat="37.733720" lon="-122.108540"><ele>159.9</ele></trkpt><trkpt lat="37.733640" lon="-122.108380"><ele>159.4</ele></trkpt><trkpt lat="37.733379" lon="-122.108230"><ele>159.2</ele></trkpt><trkpt lat="37.733130" lon="-122.107670"><ele>160.3</ele></trkpt><trkpt lat="37.732890" lon="-122.107370"><ele>161.8</ele></trkpt><trkpt lat="37.732570" lon="-122.107090"><ele>163.6</ele></trkpt><trkpt lat="37.732300" lon="-122.107070"><ele>165.2</ele></trkpt><trkpt lat="37.732010" lon="-122.106940"><ele>167.2</ele></trkpt><trkpt lat="37.731730" lon="-122.106660"><ele>169.3</ele></trkpt><trkpt lat="37.731660" lon="-122.106300"><ele>171.0</ele></trkpt><trkpt lat="37.731620" lon="-122.105750"><ele>173.5</ele></trkpt><trkpt lat="37.731610" lon="-122.105270"><ele>174.7</ele></trkpt><trkpt lat="37.731560" lon="-122.105110"><ele>175.1</ele></trkpt><trkpt lat="37.731460" lon="-122.104940"><ele>175.4</ele></trkpt><trkpt lat="37.731250" lon="-122.104920"><ele>175.6</ele></trkpt><trkpt lat="37.731090" lon="-122.105040"><ele>175.8</ele></trkpt><trkpt lat="37.730920" lon="-122.105290"><ele>175.6</ele></trkpt><trkpt lat="37.729990" lon="-122.106360"><ele>175.2</ele></trkpt><trkpt lat="37.729890" lon="-122.106460"><ele>175.2</ele></trkpt><trkpt lat="37.729630" lon="-122.106710"><ele>174.6</ele></trkpt><trkpt lat="37.729250" lon="-122.106970"><ele>172.5</ele></trkpt><trkpt lat="37.728890" lon="-122.107110"><ele>169.2</ele></trkpt><trkpt lat="37.728740" lon="-122.107290"><ele>167.2</ele></trkpt><trkpt lat="37.728680" lon="-122.107430"><ele>166.0</ele></trkpt><trkpt lat="37.728670" lon="-122.107600"><ele>164.7</ele></trkpt><trkpt lat="37.728700" lon="-122.107850"><ele>162.3</ele></trkpt><trkpt lat="37.728660" lon="-122.108030"><ele>160.4</ele></trkpt><trkpt lat="37.728600" lon="-122.108130"><ele>159.1</ele></trkpt><trkpt lat="37.728409" lon="-122.108340"><ele>156.4</ele></trkpt><trkpt lat="37.728110" lon="-122.108800"><ele>152.3</ele></trkpt><trkpt lat="37.728010" lon="-122.108930"><ele>150.8</ele></trkpt><trkpt lat="37.727830" lon="-122.109090"><ele>148.6</ele></trkpt><trkpt lat="37.727700" lon="-122.109170"><ele>147.2</ele></trkpt><trkpt lat="37.727590" lon="-122.109160"><ele>147.2</ele></trkpt></trkseg></trk>
</gpx>