<?xml version="1.0" encoding="UTF-8"?>
<gpx version="1.1" creator="north-bay-planning" xmlns="http://www.topografix.com/GPX/1/1">
<metadata><name>Mount Diablo overnight day 1</name><desc>Day 1 Martinez to Juniper</desc></metadata>
<wpt lat="37.878500" lon="-121.931000"><name>Juniper Campground</name><desc>ReserveCalifornia, $30.</desc></wpt>
<trk><name>Day 1 Martinez to Juniper</name><trkseg><trkpt lat="38.018991" lon="-122.137994"><ele>2.1</ele></trkpt><trkpt lat="38.019053" lon="-122.137855"><ele>2.2</ele></trkpt><trkpt lat="38.019106" lon="-122.137906"><ele>2.2</ele></trkpt><trkpt lat="38.019131" lon="-122.137852"><ele>2.3</ele></trkpt><trkpt lat="38.019076" lon="-122.137806"><ele>2.3</ele></trkpt><trkpt lat="38.018592" lon="-122.137428"><ele>2.8</ele></trkpt><trkpt lat="38.018550" lon="-122.137393"><ele>2.9</ele></trkpt><trkpt lat="38.018518" lon="-122.137368"><ele>2.9</ele></trkpt><trkpt lat="38.018018" lon="-122.136977"><ele>4.1</ele></trkpt><trkpt lat="38.017962" lon="-122.136935"><ele>4.2</ele></trkpt><trkpt lat="38.017994" lon="-122.136874"><ele>4.4</ele></trkpt><trkpt lat="38.018035" lon="-122.136787"><ele>4.6</ele></trkpt><trkpt lat="38.018168" lon="-122.136524"><ele>5.1</ele></trkpt><trkpt lat="38.018242" lon="-122.136376"><ele>5.4</ele></trkpt><trkpt lat="38.018297" lon="-122.136267"><ele>5.7</ele></trkpt><trkpt lat="38.018330" lon="-122.136197"><ele>5.9</ele></trkpt><trkpt lat="38.018357" lon="-122.136138"><ele>6.0</ele></trkpt><trkpt lat="38.018623" lon="-122.135602"><ele>7.4</ele></trkpt><trkpt lat="38.018673" lon="-122.135505"><ele>7.7</ele></trkpt><trkpt lat="38.018710" lon="-122.135432"><ele>7.9</ele></trkpt><trkpt lat="38.018752" lon="-122.135355"><ele>8.1</ele></trkpt><trkpt lat="38.018955" lon="-122.134926"><ele>8.9</ele></trkpt><trkpt lat="38.018987" lon="-122.134856"><ele>9.0</ele></trkpt><trkpt lat="38.018939" lon="-122.134822"><ele>9.1</ele></trkpt><trkpt lat="38.018498" lon="-122.134407"><ele>9.7</ele></trkpt><trkpt lat="38.018437" lon="-122.134351"><ele>9.7</ele></trkpt><trkpt lat="38.018396" lon="-122.134304"><ele>9.7</ele></trkpt><trkpt lat="38.017935" lon="-122.133876"><ele>10.0</ele></trkpt><trkpt lat="38.017884" lon="-122.133815"><ele>10.1</ele></trkpt><trkpt lat="38.017836" lon="-122.133759"><ele>10.1</ele></trkpt><trkpt lat="38.017618" lon="-122.133550"><ele>10.1</ele></trkpt><trkpt lat="38.017406" lon="-122.133345"><ele>10.1</ele></trkpt><trkpt lat="38.017355" lon="-122.133292"><ele>10.1</ele></trkpt><trkpt lat="38.017297" lon="-122.133235"><ele>10.1</ele></trkpt><trkpt lat="38.017260" lon="-122.133190"><ele>10.1</ele></trkpt><trkpt lat="38.017167" lon="-122.133080"><ele>10.1</ele></trkpt><trkpt lat="38.016945" lon="-122.132853"><ele>10.1</ele></trkpt><trkpt lat="38.016880" lon="-122.132751"><ele>10.1</ele></trkpt><trkpt lat="38.016877" lon="-122.132746"><ele>10.1</ele></trkpt><trkpt lat="38.016864" lon="-122.132725"><ele>10.1</ele></trkpt><trkpt lat="38.016810" lon="-122.132579"><ele>10.1</ele></trkpt><trkpt lat="38.016762" lon="-122.132399"><ele>10.1</ele></trkpt><trkpt lat="38.016759" lon="-122.132296"><ele>10.2</ele></trkpt><trkpt lat="38.016771" lon="-122.132122"><ele>10.4</ele></trkpt><trkpt lat="38.016768" lon="-122.131940"><ele>10.5</ele></trkpt><trkpt lat="38.016746" lon="-122.131798"><ele>10.6</ele></trkpt><trkpt lat="38.016715" lon="-122.131690"><ele>10.7</ele></trkpt><trkpt lat="38.016686" lon="-122.131616"><ele>10.7</ele></trkpt><trkpt lat="38.016657" lon="-122.131548"><ele>10.7</ele></trkpt><trkpt lat="38.016611" lon="-122.131483"><ele>10.7</ele></trkpt><trkpt lat="38.016537" lon="-122.131401"><ele>10.7</ele></trkpt><trkpt lat="38.016383" lon="-122.131257"><ele>10.7</ele></trkpt><trkpt lat="38.016184" lon="-122.131077"><ele>10.7</ele></trkpt><trkpt lat="38.015960" lon="-122.130851"><ele>10.7</ele></trkpt><trkpt lat="38.015756" lon="-122.130650"><ele>10.7</ele></trkpt><trkpt lat="38.015619" lon="-122.130515"><ele>10.7</ele></trkpt><trkpt lat="38.015572" lon="-122.130470"><ele>10.7</ele></trkpt><trkpt lat="38.015459" lon="-122.130358"><ele>10.7</ele></trkpt><trkpt lat="38.015245" lon="-122.130147"><ele>10.7</ele></trkpt><trkpt lat="38.015209" lon="-122.130089"><ele>10.7</ele></trkpt><trkpt lat="38.015159" lon="-122.129976"><ele>10.7</ele></trkpt><trkpt lat="38.015154" lon="-122.129931"><ele>10.7</ele></trkpt><trkpt lat="38.015152" lon="-122.129825"><ele>10.7</ele></trkpt><trkpt lat="38.015168" lon="-122.129741"><ele>10.8</ele></trkpt><trkpt lat="38.015205" lon="-122.129657"><ele>10.8</ele></trkpt><trkpt lat="38.015304" lon="-122.129440"><ele>10.9</ele></trkpt><trkpt lat="38.015333" lon="-122.129361"><ele>11.0</ele></trkpt><trkpt lat="38.015343" lon="-122.129302"><ele>11.0</ele></trkpt><trkpt lat="38.015348" lon="-122.129187"><ele>11.1</ele></trkpt><trkpt lat="38.015342" lon="-122.129073"><ele>11.2</ele></trkpt><trkpt lat="38.015316" lon="-122.128943"><ele>11.3</ele></trkpt><trkpt lat="38.015274" lon="-122.128814"><ele>11.5</ele></trkpt><trkpt lat="38.015202" lon="-122.128614"><ele>11.6</ele></trkpt><trkpt lat="38.015114" lon="-122.128366"><ele>11.6</ele></trkpt><trkpt lat="38.014947" lon="-122.127903"><ele>11.8</ele></trkpt><trkpt lat="38.014813" lon="-122.127538"><ele>12.3</ele></trkpt><trkpt lat="38.014789" lon="-122.127472"><ele>12.4</ele></trkpt><trkpt lat="38.014735" lon="-122.127316"><ele>12.8</ele></trkpt><trkpt lat="38.014629" lon="-122.127007"><ele>13.5</ele></trkpt><trkpt lat="38.014465" lon="-122.126571"><ele>14.9</ele></trkpt><trkpt lat="38.014439" lon="-122.126511"><ele>15.1</ele></trkpt><trkpt lat="38.014361" lon="-122.126316"><ele>15.8</ele></trkpt><trkpt lat="38.014311" lon="-122.126193"><ele>16.2</ele></trkpt><trkpt lat="38.014306" lon="-122.126181"><ele>16.2</ele></trkpt><trkpt lat="38.014122" lon="-122.125715"><ele>17.8</ele></trkpt><trkpt lat="38.014054" lon="-122.125501"><ele>18.7</ele></trkpt><trkpt lat="38.013986" lon="-122.125273"><ele>19.8</ele></trkpt><trkpt lat="38.013838" lon="-122.124775"><ele>21.9</ele></trkpt><trkpt lat="38.013698" lon="-122.124294"><ele>23.5</ele></trkpt><trkpt lat="38.013481" lon="-122.123547"><ele>26.2</ele></trkpt><trkpt lat="38.013459" lon="-122.123475"><ele>26.3</ele></trkpt><trkpt lat="38.013261" lon="-122.122801"><ele>27.8</ele></trkpt><trkpt lat="38.013225" lon="-122.122668"><ele>28.1</ele></trkpt><trkpt lat="38.013194" lon="-122.122548"><ele>28.3</ele></trkpt><trkpt lat="38.013167" lon="-122.122418"><ele>28.6</ele></trkpt><trkpt lat="38.013099" lon="-122.122069"><ele>29.2</ele></trkpt><trkpt lat="38.013049" lon="-122.121822"><ele>29.7</ele></trkpt><trkpt lat="38.012947" lon="-122.121305"><ele>30.8</ele></trkpt><trkpt lat="38.012878" lon="-122.120978"><ele>31.4</ele></trkpt><trkpt lat="38.012861" lon="-122.120893"><ele>31.5</ele></trkpt><trkpt lat="38.012845" lon="-122.120812"><ele>31.6</ele></trkpt><trkpt lat="38.012841" lon="-122.120793"><ele>31.6</ele></trkpt><trkpt lat="38.012808" lon="-122.120626"><ele>31.8</ele></trkpt><trkpt lat="38.012773" lon="-122.120450"><ele>31.9</ele></trkpt><trkpt lat="38.012748" lon="-122.120297"><ele>32.0</ele></trkpt><trkpt lat="38.012740" lon="-122.120098"><ele>31.9</ele></trkpt><trkpt lat="38.012739" lon="-122.119905"><ele>31.8</ele></trkpt><trkpt lat="38.012754" lon="-122.119694"><ele>31.7</ele></trkpt><trkpt lat="38.012829" lon="-122.119216"><ele>31.5</ele></trkpt><trkpt lat="38.012843" lon="-122.119125"><ele>31.4</ele></trkpt><trkpt lat="38.012884" lon="-122.118828"><ele>31.1</ele></trkpt><trkpt lat="38.012893" lon="-122.118528"><ele>30.7</ele></trkpt><trkpt lat="38.012897" lon="-122.118412"><ele>30.6</ele></trkpt><trkpt lat="38.012898" lon="-122.118217"><ele>30.1</ele></trkpt><trkpt lat="38.012898" lon="-122.118163"><ele>29.9</ele></trkpt><trkpt lat="38.012879" lon="-122.117905"><ele>29.1</ele></trkpt><trkpt lat="38.012853" lon="-122.117793"><ele>28.7</ele></trkpt><trkpt lat="38.012774" lon="-122.117709"><ele>28.3</ele></trkpt><trkpt lat="38.012738" lon="-122.117571"><ele>27.9</ele></trkpt><trkpt lat="38.012666" lon="-122.117356"><ele>27.1</ele></trkpt><trkpt lat="38.012665" lon="-122.117202"><ele>26.7</ele></trkpt><trkpt lat="38.012599" lon="-122.117046"><ele>26.2</ele></trkpt><trkpt lat="38.012493" lon="-122.116794"><ele>26.1</ele></trkpt><trkpt lat="38.012477" lon="-122.116745"><ele>26.1</ele></trkpt><trkpt lat="38.012428" lon="-122.116598"><ele>26.0</ele></trkpt><trkpt lat="38.012398" lon="-122.116489"><ele>25.9</ele></trkpt><trkpt lat="38.012360" lon="-122.116310"><ele>25.8</ele></trkpt><trkpt lat="38.012335" lon="-122.116107"><ele>25.6</ele></trkpt><trkpt lat="38.012320" lon="-122.115904"><ele>25.4</ele></trkpt><trkpt lat="38.012315" lon="-122.115676"><ele>25.1</ele></trkpt><trkpt lat="38.012318" lon="-122.115287"><ele>24.2</ele></trkpt><trkpt lat="38.012322" lon="-122.114819"><ele>23.3</ele></trkpt><trkpt lat="38.012324" lon="-122.114374"><ele>22.5</ele></trkpt><trkpt lat="38.012325" lon="-122.114309"><ele>22.4</ele></trkpt><trkpt lat="38.012329" lon="-122.114177"><ele>22.1</ele></trkpt><trkpt lat="38.012330" lon="-122.113850"><ele>21.3</ele></trkpt><trkpt lat="38.012329" lon="-122.113772"><ele>21.2</ele></trkpt><trkpt lat="38.012337" lon="-122.112721"><ele>17.2</ele></trkpt><trkpt lat="38.012338" lon="-122.112600"><ele>16.7</ele></trkpt><trkpt lat="38.012342" lon="-122.111877"><ele>15.0</ele></trkpt><trkpt lat="38.012352" lon="-122.111522"><ele>14.3</ele></trkpt><trkpt lat="38.012353" lon="-122.111411"><ele>14.1</ele></trkpt><trkpt lat="38.012354" lon="-122.111370"><ele>14.0</ele></trkpt><trkpt lat="38.012358" lon="-122.110889"><ele>12.9</ele></trkpt><trkpt lat="38.012367" lon="-122.110401"><ele>12.1</ele></trkpt><trkpt lat="38.012369" lon="-122.110181"><ele>11.8</ele></trkpt><trkpt lat="38.012372" lon="-122.109838"><ele>11.5</ele></trkpt><trkpt lat="38.012375" lon="-122.109526"><ele>11.1</ele></trkpt><trkpt lat="38.012378" lon="-122.109219"><ele>10.6</ele></trkpt><trkpt lat="38.012385" lon="-122.108732"><ele>9.9</ele></trkpt><trkpt lat="38.012386" lon="-122.108531"><ele>9.7</ele></trkpt><trkpt lat="38.012396" lon="-122.108003"><ele>9.3</ele></trkpt><trkpt lat="38.012401" lon="-122.107446"><ele>9.1</ele></trkpt><trkpt lat="38.012406" lon="-122.107188"><ele>9.0</ele></trkpt><trkpt lat="38.012407" lon="-122.107006"><ele>8.9</ele></trkpt><trkpt lat="38.012409" lon="-122.106742"><ele>9.0</ele></trkpt><trkpt lat="38.012403" lon="-122.106570"><ele>9.1</ele></trkpt><trkpt lat="38.012369" lon="-122.106296"><ele>9.4</ele></trkpt><trkpt lat="38.012347" lon="-122.106194"><ele>9.5</ele></trkpt><trkpt lat="38.012300" lon="-122.106009"><ele>10.0</ele></trkpt><trkpt lat="38.012239" lon="-122.105803"><ele>10.6</ele></trkpt><trkpt lat="38.012176" lon="-122.105625"><ele>11.1</ele></trkpt><trkpt lat="38.012120" lon="-122.105475"><ele>11.5</ele></trkpt><trkpt lat="38.012052" lon="-122.105295"><ele>12.1</ele></trkpt><trkpt lat="38.012020" lon="-122.105205"><ele>12.3</ele></trkpt><trkpt lat="38.011939" lon="-122.104981"><ele>13.0</ele></trkpt><trkpt lat="38.011894" lon="-122.104869"><ele>13.3</ele></trkpt><trkpt lat="38.011806" lon="-122.104640"><ele>13.8</ele></trkpt><trkpt lat="38.011695" lon="-122.104346"><ele>14.6</ele></trkpt><trkpt lat="38.011631" lon="-122.104175"><ele>15.0</ele></trkpt><trkpt lat="38.011585" lon="-122.104051"><ele>15.3</ele></trkpt><trkpt lat="38.011511" lon="-122.103848"><ele>15.8</ele></trkpt><trkpt lat="38.011438" lon="-122.103651"><ele>16.2</ele></trkpt><trkpt lat="38.011375" lon="-122.103488"><ele>16.3</ele></trkpt><trkpt lat="38.011286" lon="-122.103262"><ele>16.4</ele></trkpt><trkpt lat="38.011195" lon="-122.103034"><ele>16.3</ele></trkpt><trkpt lat="38.011043" lon="-122.102632"><ele>15.3</ele></trkpt><trkpt lat="38.010971" lon="-122.102440"><ele>14.8</ele></trkpt><trkpt lat="38.010911" lon="-122.102288"><ele>14.4</ele></trkpt><trkpt lat="38.010866" lon="-122.102173"><ele>14.0</ele></trkpt><trkpt lat="38.010820" lon="-122.102056"><ele>13.7</ele></trkpt><trkpt lat="38.010727" lon="-122.101817"><ele>13.1</ele></trkpt><trkpt lat="38.010520" lon="-122.101314"><ele>12.8</ele></trkpt><trkpt lat="38.010408" lon="-122.101026"><ele>12.8</ele></trkpt><trkpt lat="38.010386" lon="-122.100968"><ele>12.8</ele></trkpt><trkpt lat="38.010273" lon="-122.100678"><ele>12.8</ele></trkpt><trkpt lat="38.010180" lon="-122.100449"><ele>12.7</ele></trkpt><trkpt lat="38.010070" lon="-122.100172"><ele>12.6</ele></trkpt><trkpt lat="38.009962" lon="-122.099911"><ele>12.6</ele></trkpt><trkpt lat="38.009864" lon="-122.099665"><ele>12.9</ele></trkpt><trkpt lat="38.009771" lon="-122.099421"><ele>13.1</ele></trkpt><trkpt lat="38.009531" lon="-122.098760"><ele>14.3</ele></trkpt><trkpt lat="38.009434" lon="-122.098492"><ele>14.2</ele></trkpt><trkpt lat="38.009263" lon="-122.098048"><ele>13.9</ele></trkpt><trkpt lat="38.009163" lon="-122.097793"><ele>13.6</ele></trkpt><trkpt lat="38.009027" lon="-122.097446"><ele>13.4</ele></trkpt><trkpt lat="38.008915" lon="-122.097149"><ele>13.2</ele></trkpt><trkpt lat="38.008785" lon="-122.096815"><ele>12.8</ele></trkpt><trkpt lat="38.008656" lon="-122.096477"><ele>12.2</ele></trkpt><trkpt lat="38.008418" lon="-122.095852"><ele>10.5</ele></trkpt><trkpt lat="38.008375" lon="-122.095737"><ele>10.1</ele></trkpt><trkpt lat="38.008333" lon="-122.095625"><ele>9.8</ele></trkpt><trkpt lat="38.008274" lon="-122.095466"><ele>9.5</ele></trkpt><trkpt lat="38.008244" lon="-122.095385"><ele>9.3</ele></trkpt><trkpt lat="38.008146" lon="-122.095124"><ele>8.6</ele></trkpt><trkpt lat="38.008015" lon="-122.094775"><ele>8.1</ele></trkpt><trkpt lat="38.007921" lon="-122.094528"><ele>7.7</ele></trkpt><trkpt lat="38.007831" lon="-122.094289"><ele>7.3</ele></trkpt><trkpt lat="38.007764" lon="-122.094119"><ele>7.1</ele></trkpt><trkpt lat="38.007679" lon="-122.093897"><ele>6.8</ele></trkpt><trkpt lat="38.007645" lon="-122.093807"><ele>6.7</ele></trkpt><trkpt lat="38.007556" lon="-122.093582"><ele>6.6</ele></trkpt><trkpt lat="38.007385" lon="-122.093136"><ele>6.3</ele></trkpt><trkpt lat="38.007348" lon="-122.093043"><ele>6.3</ele></trkpt><trkpt lat="38.007256" lon="-122.092810"><ele>6.2</ele></trkpt><trkpt lat="38.007135" lon="-122.092513"><ele>6.0</ele></trkpt><trkpt lat="38.006993" lon="-122.092133"><ele>5.6</ele></trkpt><trkpt lat="38.006956" lon="-122.092034"><ele>5.5</ele></trkpt><trkpt lat="38.006870" lon="-122.091915"><ele>5.4</ele></trkpt><trkpt lat="38.006752" lon="-122.091639"><ele>5.1</ele></trkpt><trkpt lat="38.006699" lon="-122.091432"><ele>4.9</ele></trkpt><trkpt lat="38.006648" lon="-122.091132"><ele>4.7</ele></trkpt><trkpt lat="38.006631" lon="-122.090639"><ele>4.5</ele></trkpt><trkpt lat="38.006643" lon="-122.090468"><ele>4.4</ele></trkpt><trkpt lat="38.006387" lon="-122.090409"><ele>4.3</ele></trkpt><trkpt lat="38.006298" lon="-122.090346"><ele>4.3</ele></trkpt><trkpt lat="38.006289" lon="-122.090331"><ele>4.3</ele></trkpt><trkpt lat="38.006223" lon="-122.090220"><ele>4.4</ele></trkpt><trkpt lat="38.006065" lon="-122.089813"><ele>4.6</ele></trkpt><trkpt lat="38.005904" lon="-122.089398"><ele>5.2</ele></trkpt><trkpt lat="38.005735" lon="-122.088907"><ele>5.7</ele></trkpt><trkpt lat="38.005510" lon="-122.087995"><ele>6.6</ele></trkpt><trkpt lat="38.005470" lon="-122.087823"><ele>6.8</ele></trkpt><trkpt lat="38.005296" lon="-122.087092"><ele>7.7</ele></trkpt><trkpt lat="38.005235" lon="-122.086810"><ele>7.8</ele></trkpt><trkpt lat="38.005177" lon="-122.086619"><ele>7.9</ele></trkpt><trkpt lat="38.005002" lon="-122.086300"><ele>8.1</ele></trkpt><trkpt lat="38.004966" lon="-122.086238"><ele>8.1</ele></trkpt><trkpt lat="38.004831" lon="-122.086099"><ele>8.2</ele></trkpt><trkpt lat="38.004671" lon="-122.085980"><ele>8.3</ele></trkpt><trkpt lat="38.004376" lon="-122.085845"><ele>8.5</ele></trkpt><trkpt lat="38.004277" lon="-122.085800"><ele>8.5</ele></trkpt><trkpt lat="38.004227" lon="-122.085777"><ele>8.5</ele></trkpt><trkpt lat="38.004163" lon="-122.085748"><ele>8.5</ele></trkpt><trkpt lat="38.004029" lon="-122.085641"><ele>8.4</ele></trkpt><trkpt lat="38.003893" lon="-122.085480"><ele>8.3</ele></trkpt><trkpt lat="38.003831" lon="-122.085376"><ele>8.2</ele></trkpt><trkpt lat="38.003813" lon="-122.085345"><ele>8.2</ele></trkpt><trkpt lat="38.003760" lon="-122.085256"><ele>8.1</ele></trkpt><trkpt lat="38.003723" lon="-122.085157"><ele>8.1</ele></trkpt><trkpt lat="38.003696" lon="-122.085085"><ele>8.1</ele></trkpt><trkpt lat="38.003668" lon="-122.085010"><ele>8.0</ele></trkpt><trkpt lat="38.003654" lon="-122.084929"><ele>8.0</ele></trkpt><trkpt lat="38.003619" lon="-122.084734"><ele>7.9</ele></trkpt><trkpt lat="38.003599" lon="-122.084322"><ele>7.7</ele></trkpt><trkpt lat="38.003565" lon="-122.084079"><ele>7.6</ele></trkpt><trkpt lat="38.003530" lon="-122.083967"><ele>7.5</ele></trkpt><trkpt lat="38.003436" lon="-122.083672"><ele>7.4</ele></trkpt><trkpt lat="38.003417" lon="-122.083624"><ele>7.4</ele></trkpt><trkpt lat="38.003238" lon="-122.083185"><ele>7.3</ele></trkpt><trkpt lat="38.003214" lon="-122.083128"><ele>7.3</ele></trkpt><trkpt lat="38.003075" lon="-122.082795"><ele>7.4</ele></trkpt><trkpt lat="38.002991" lon="-122.082595"><ele>7.6</ele></trkpt><trkpt lat="38.002883" lon="-122.082424"><ele>7.8</ele></trkpt><trkpt lat="38.002817" lon="-122.082319"><ele>8.0</ele></trkpt><trkpt lat="38.002722" lon="-122.082195"><ele>8.3</ele></trkpt><trkpt lat="38.002511" lon="-122.081919"><ele>8.9</ele></trkpt><trkpt lat="38.002202" lon="-122.081515"><ele>9.7</ele></trkpt><trkpt lat="38.002043" lon="-122.081308"><ele>10.1</ele></trkpt><trkpt lat="38.001939" lon="-122.081171"><ele>10.4</ele></trkpt><trkpt lat="38.001805" lon="-122.081003"><ele>10.7</ele></trkpt><trkpt lat="38.001747" lon="-122.080930"><ele>10.8</ele></trkpt><trkpt lat="38.001625" lon="-122.080776"><ele>11.1</ele></trkpt><trkpt lat="38.001257" lon="-122.080296"><ele>12.0</ele></trkpt><trkpt lat="38.001014" lon="-122.080067"><ele>12.5</ele></trkpt><trkpt lat="38.000038" lon="-122.079360"><ele>14.5</ele></trkpt><trkpt lat="37.999810" lon="-122.079195"><ele>14.9</ele></trkpt><trkpt lat="37.999326" lon="-122.078825"><ele>15.7</ele></trkpt><trkpt lat="37.999303" lon="-122.078807"><ele>15.8</ele></trkpt><trkpt lat="37.998484" lon="-122.078096"><ele>15.8</ele></trkpt><trkpt lat="37.998172" lon="-122.077825"><ele>15.6</ele></trkpt><trkpt lat="37.997720" lon="-122.077433"><ele>15.0</ele></trkpt><trkpt lat="37.997429" lon="-122.077182"><ele>14.6</ele></trkpt><trkpt lat="37.997309" lon="-122.077078"><ele>14.4</ele></trkpt><trkpt lat="37.997224" lon="-122.077008"><ele>14.3</ele></trkpt><trkpt lat="37.997157" lon="-122.076954"><ele>14.4</ele></trkpt><trkpt lat="37.997121" lon="-122.076924"><ele>14.4</ele></trkpt><trkpt lat="37.997008" lon="-122.076819"><ele>14.5</ele></trkpt><trkpt lat="37.996939" lon="-122.076758"><ele>14.5</ele></trkpt><trkpt lat="37.996804" lon="-122.076640"><ele>14.6</ele></trkpt><trkpt lat="37.996793" lon="-122.076630"><ele>14.6</ele></trkpt><trkpt lat="37.996640" lon="-122.076496"><ele>14.7</ele></trkpt><trkpt lat="37.996585" lon="-122.076448"><ele>14.8</ele></trkpt><trkpt lat="37.996356" lon="-122.076246"><ele>14.9</ele></trkpt><trkpt lat="37.996228" lon="-122.076134"><ele>14.9</ele></trkpt><trkpt lat="37.995936" lon="-122.075877"><ele>14.7</ele></trkpt><trkpt lat="37.995826" lon="-122.075785"><ele>14.6</ele></trkpt><trkpt lat="37.995745" lon="-122.075718"><ele>14.5</ele></trkpt><trkpt lat="37.995645" lon="-122.075678"><ele>14.5</ele></trkpt><trkpt lat="37.995597" lon="-122.075637"><ele>14.4</ele></trkpt><trkpt lat="37.995046" lon="-122.075182"><ele>13.8</ele></trkpt><trkpt lat="37.994816" lon="-122.074984"><ele>13.3</ele></trkpt><trkpt lat="37.994793" lon="-122.074967"><ele>13.2</ele></trkpt><trkpt lat="37.994491" lon="-122.074714"><ele>12.5</ele></trkpt><trkpt lat="37.994285" lon="-122.074541"><ele>12.2</ele></trkpt><trkpt lat="37.994187" lon="-122.074498"><ele>12.1</ele></trkpt><trkpt lat="37.994102" lon="-122.074428"><ele>12.0</ele></trkpt><trkpt lat="37.993954" lon="-122.074318"><ele>11.6</ele></trkpt><trkpt lat="37.993551" lon="-122.074150"><ele>10.7</ele></trkpt><trkpt lat="37.993541" lon="-122.074147"><ele>10.7</ele></trkpt><trkpt lat="37.992837" lon="-122.073947"><ele>9.3</ele></trkpt><trkpt lat="37.992424" lon="-122.073856"><ele>9.1</ele></trkpt><trkpt lat="37.992118" lon="-122.073782"><ele>8.7</ele></trkpt><trkpt lat="37.992027" lon="-122.073759"><ele>8.6</ele></trkpt><trkpt lat="37.991719" lon="-122.073679"><ele>8.5</ele></trkpt><trkpt lat="37.990638" lon="-122.073398"><ele>8.5</ele></trkpt><trkpt lat="37.990390" lon="-122.073298"><ele>8.5</ele></trkpt><trkpt lat="37.990345" lon="-122.073280"><ele>8.5</ele></trkpt><trkpt lat="37.990325" lon="-122.073270"><ele>8.5</ele></trkpt><trkpt lat="37.990279" lon="-122.073253"><ele>8.5</ele></trkpt><trkpt lat="37.990232" lon="-122.073220"><ele>8.5</ele></trkpt><trkpt lat="37.988890" lon="-122.072126"><ele>7.9</ele></trkpt><trkpt lat="37.988674" lon="-122.071943"><ele>7.9</ele></trkpt><trkpt lat="37.988249" lon="-122.071582"><ele>7.7</ele></trkpt><trkpt lat="37.988024" lon="-122.071378"><ele>7.6</ele></trkpt><trkpt lat="37.987701" lon="-122.071128"><ele>7.6</ele></trkpt><trkpt lat="37.987527" lon="-122.070968"><ele>7.6</ele></trkpt><trkpt lat="37.987404" lon="-122.070854"><ele>7.5</ele></trkpt><trkpt lat="37.987320" lon="-122.070745"><ele>7.4</ele></trkpt><trkpt lat="37.987264" lon="-122.070674"><ele>7.4</ele></trkpt><trkpt lat="37.987175" lon="-122.070559"><ele>7.2</ele></trkpt><trkpt lat="37.986996" lon="-122.070228"><ele>6.7</ele></trkpt><trkpt lat="37.986873" lon="-122.069949"><ele>6.3</ele></trkpt><trkpt lat="37.986666" lon="-122.069504"><ele>6.1</ele></trkpt><trkpt lat="37.986397" lon="-122.069104"><ele>6.1</ele></trkpt><trkpt lat="37.986057" lon="-122.068771"><ele>6.4</ele></trkpt><trkpt lat="37.985549" lon="-122.068469"><ele>6.7</ele></trkpt><trkpt lat="37.985103" lon="-122.068204"><ele>6.7</ele></trkpt><trkpt lat="37.984752" lon="-122.068038"><ele>6.6</ele></trkpt><trkpt lat="37.984603" lon="-122.067963"><ele>6.5</ele></trkpt><trkpt lat="37.984442" lon="-122.067877"><ele>6.3</ele></trkpt><trkpt lat="37.984146" lon="-122.067749"><ele>5.9</ele></trkpt><trkpt lat="37.983297" lon="-122.067578"><ele>5.2</ele></trkpt><trkpt lat="37.982920" lon="-122.067504"><ele>5.2</ele></trkpt><trkpt lat="37.982839" lon="-122.067487"><ele>5.2</ele></trkpt><trkpt lat="37.982396" lon="-122.067400"><ele>5.2</ele></trkpt><trkpt lat="37.981731" lon="-122.067273"><ele>4.9</ele></trkpt><trkpt lat="37.981640" lon="-122.067256"><ele>4.9</ele></trkpt><trkpt lat="37.981575" lon="-122.067242"><ele>4.9</ele></trkpt><trkpt lat="37.981422" lon="-122.067211"><ele>4.9</ele></trkpt><trkpt lat="37.981207" lon="-122.067171"><ele>4.9</ele></trkpt><trkpt lat="37.980774" lon="-122.067089"><ele>4.9</ele></trkpt><trkpt lat="37.980296" lon="-122.066990"><ele>4.6</ele></trkpt><trkpt lat="37.979795" lon="-122.066831"><ele>4.4</ele></trkpt><trkpt lat="37.979516" lon="-122.066717"><ele>4.6</ele></trkpt><trkpt lat="37.979355" lon="-122.066651"><ele>4.8</ele></trkpt><trkpt lat="37.979126" lon="-122.066539"><ele>5.0</ele></trkpt><trkpt lat="37.979059" lon="-122.066507"><ele>5.1</ele></trkpt><trkpt lat="37.978497" lon="-122.066257"><ele>5.2</ele></trkpt><trkpt lat="37.977462" lon="-122.065784"><ele>6.1</ele></trkpt><trkpt lat="37.976930" lon="-122.065528"><ele>5.8</ele></trkpt><trkpt lat="37.976775" lon="-122.065453"><ele>5.8</ele></trkpt><trkpt lat="37.976229" lon="-122.065190"><ele>6.5</ele></trkpt><trkpt lat="37.976108" lon="-122.065132"><ele>6.8</ele></trkpt><trkpt lat="37.975863" lon="-122.065170"><ele>7.4</ele></trkpt><trkpt lat="37.975828" lon="-122.065181"><ele>7.5</ele></trkpt><trkpt lat="37.975819" lon="-122.065150"><ele>7.5</ele></trkpt><trkpt lat="37.975812" lon="-122.065129"><ele>7.6</ele></trkpt><trkpt lat="37.975802" lon="-122.065120"><ele>7.6</ele></trkpt><trkpt lat="37.975739" lon="-122.065100"><ele>7.7</ele></trkpt><trkpt lat="37.975686" lon="-122.065070"><ele>7.8</ele></trkpt><trkpt lat="37.975581" lon="-122.065011"><ele>8.0</ele></trkpt><trkpt lat="37.975590" lon="-122.064900"><ele>8.1</ele></trkpt><trkpt lat="37.975615" lon="-122.064783"><ele>8.2</ele></trkpt><trkpt lat="37.975739" lon="-122.064557"><ele>8.1</ele></trkpt><trkpt lat="37.975897" lon="-122.064338"><ele>8.0</ele></trkpt><trkpt lat="37.977050" lon="-122.062758"><ele>7.3</ele></trkpt><trkpt lat="37.977257" lon="-122.062464"><ele>7.1</ele></trkpt><trkpt lat="37.977619" lon="-122.061951"><ele>7.2</ele></trkpt><trkpt lat="37.977805" lon="-122.061630"><ele>7.5</ele></trkpt><trkpt lat="37.977966" lon="-122.061321"><ele>8.0</ele></trkpt><trkpt lat="37.978020" lon="-122.061209"><ele>8.2</ele></trkpt><trkpt lat="37.978062" lon="-122.061105"><ele>8.2</ele></trkpt><trkpt lat="37.978367" lon="-122.060344"><ele>7.9</ele></trkpt><trkpt lat="37.978830" lon="-122.059239"><ele>7.6</ele></trkpt><trkpt lat="37.978948" lon="-122.058967"><ele>7.4</ele></trkpt><trkpt lat="37.978998" lon="-122.058853"><ele>7.4</ele></trkpt><trkpt lat="37.979022" lon="-122.058803"><ele>7.3</ele></trkpt><trkpt lat="37.979150" lon="-122.058542"><ele>7.1</ele></trkpt><trkpt lat="37.979420" lon="-122.057913"><ele>6.7</ele></trkpt><trkpt lat="37.980001" lon="-122.056564"><ele>6.7</ele></trkpt><trkpt lat="37.980200" lon="-122.056103"><ele>7.0</ele></trkpt><trkpt lat="37.980265" lon="-122.055954"><ele>7.1</ele></trkpt><trkpt lat="37.980600" lon="-122.055224"><ele>7.6</ele></trkpt><trkpt lat="37.980744" lon="-122.054651"><ele>7.9</ele></trkpt><trkpt lat="37.980793" lon="-122.053938"><ele>8.2</ele></trkpt><trkpt lat="37.980800" lon="-122.053842"><ele>8.2</ele></trkpt><trkpt lat="37.980789" lon="-122.053732"><ele>8.3</ele></trkpt><trkpt lat="37.980755" lon="-122.053394"><ele>8.4</ele></trkpt><trkpt lat="37.980740" lon="-122.053251"><ele>8.5</ele></trkpt><trkpt lat="37.980606" lon="-122.052538"><ele>7.4</ele></trkpt><trkpt lat="37.980599" lon="-122.052492"><ele>7.3</ele></trkpt><trkpt lat="37.980596" lon="-122.052470"><ele>7.3</ele></trkpt><trkpt lat="37.980579" lon="-122.052349"><ele>7.3</ele></trkpt><trkpt lat="37.980564" lon="-122.052269"><ele>7.3</ele></trkpt><trkpt lat="37.980431" lon="-122.051562"><ele>7.3</ele></trkpt><trkpt lat="37.980350" lon="-122.051129"><ele>7.3</ele></trkpt><trkpt lat="37.980330" lon="-122.050965"><ele>7.2</ele></trkpt><trkpt lat="37.980212" lon="-122.050318"><ele>7.0</ele></trkpt><trkpt lat="37.980063" lon="-122.049547"><ele>7.4</ele></trkpt><trkpt lat="37.979934" lon="-122.048808"><ele>8.2</ele></trkpt><trkpt lat="37.979811" lon="-122.048109"><ele>8.9</ele></trkpt><trkpt lat="37.979724" lon="-122.047639"><ele>9.4</ele></trkpt><trkpt lat="37.979648" lon="-122.047215"><ele>10.0</ele></trkpt><trkpt lat="37.979550" lon="-122.046668"><ele>10.5</ele></trkpt><trkpt lat="37.979504" lon="-122.046420"><ele>10.8</ele></trkpt><trkpt lat="37.979441" lon="-122.046081"><ele>11.2</ele></trkpt><trkpt lat="37.979384" lon="-122.045778"><ele>11.6</ele></trkpt><trkpt lat="37.979329" lon="-122.045474"><ele>12.1</ele></trkpt><trkpt lat="37.979284" lon="-122.045225"><ele>12.4</ele></trkpt><trkpt lat="37.979220" lon="-122.044877"><ele>12.6</ele></trkpt><trkpt lat="37.979146" lon="-122.044496"><ele>12.8</ele></trkpt><trkpt lat="37.978779" lon="-122.042475"><ele>14.0</ele></trkpt><trkpt lat="37.978685" lon="-122.041954"><ele>14.5</ele></trkpt><trkpt lat="37.978673" lon="-122.041890"><ele>14.6</ele></trkpt><trkpt lat="37.978661" lon="-122.041826"><ele>14.6</ele></trkpt><trkpt lat="37.978604" lon="-122.041518"><ele>15.1</ele></trkpt><trkpt lat="37.978570" lon="-122.041346"><ele>15.3</ele></trkpt><trkpt lat="37.978465" lon="-122.040809"><ele>15.9</ele></trkpt><trkpt lat="37.978359" lon="-122.040337"><ele>16.2</ele></trkpt><trkpt lat="37.978221" lon="-122.039719"><ele>16.5</ele></trkpt><trkpt lat="37.978146" lon="-122.039434"><ele>16.6</ele></trkpt><trkpt lat="37.977951" lon="-122.038719"><ele>17.0</ele></trkpt><trkpt lat="37.977765" lon="-122.038063"><ele>17.3</ele></trkpt><trkpt lat="37.977690" lon="-122.037882"><ele>17.4</ele></trkpt><trkpt lat="37.977459" lon="-122.037315"><ele>18.3</ele></trkpt><trkpt lat="37.977226" lon="-122.036696"><ele>19.5</ele></trkpt><trkpt lat="37.977210" lon="-122.036655"><ele>19.6</ele></trkpt><trkpt lat="37.977062" lon="-122.036354"><ele>20.2</ele></trkpt><trkpt lat="37.976940" lon="-122.036156"><ele>20.6</ele></trkpt><trkpt lat="37.976898" lon="-122.035993"><ele>21.0</ele></trkpt><trkpt lat="37.976567" lon="-122.035642"><ele>22.2</ele></trkpt><trkpt lat="37.976412" lon="-122.035518"><ele>22.4</ele></trkpt><trkpt lat="37.976130" lon="-122.035293"><ele>22.8</ele></trkpt><trkpt lat="37.976067" lon="-122.035243"><ele>23.0</ele></trkpt><trkpt lat="37.975998" lon="-122.035189"><ele>23.3</ele></trkpt><trkpt lat="37.975943" lon="-122.035144"><ele>23.6</ele></trkpt><trkpt lat="37.975773" lon="-122.035007"><ele>24.4</ele></trkpt><trkpt lat="37.975564" lon="-122.034838"><ele>25.4</ele></trkpt><trkpt lat="37.975225" lon="-122.034564"><ele>27.2</ele></trkpt><trkpt lat="37.975134" lon="-122.034490"><ele>27.8</ele></trkpt><trkpt lat="37.975045" lon="-122.034416"><ele>28.4</ele></trkpt><trkpt lat="37.974850" lon="-122.034256"><ele>29.9</ele></trkpt><trkpt lat="37.974361" lon="-122.033857"><ele>32.5</ele></trkpt><trkpt lat="37.974258" lon="-122.033774"><ele>33.0</ele></trkpt><trkpt lat="37.974325" lon="-122.033624"><ele>33.4</ele></trkpt><trkpt lat="37.974555" lon="-122.033109"><ele>34.4</ele></trkpt><trkpt lat="37.974734" lon="-122.032755"><ele>34.2</ele></trkpt><trkpt lat="37.975081" lon="-122.032031"><ele>33.5</ele></trkpt><trkpt lat="37.975240" lon="-122.031698"><ele>31.8</ele></trkpt><trkpt lat="37.975294" lon="-122.031584"><ele>31.2</ele></trkpt><trkpt lat="37.975339" lon="-122.031489"><ele>30.7</ele></trkpt><trkpt lat="37.975555" lon="-122.031037"><ele>29.8</ele></trkpt><trkpt lat="37.975664" lon="-122.030810"><ele>29.5</ele></trkpt><trkpt lat="37.975717" lon="-122.030704"><ele>29.5</ele></trkpt><trkpt lat="37.975817" lon="-122.030481"><ele>29.4</ele></trkpt><trkpt lat="37.975853" lon="-122.030400"><ele>29.3</ele></trkpt><trkpt lat="37.975832" lon="-122.030149"><ele>29.2</ele></trkpt><trkpt lat="37.975815" lon="-122.029941"><ele>29.0</ele></trkpt><trkpt lat="37.975763" lon="-122.029724"><ele>28.8</ele></trkpt><trkpt lat="37.975714" lon="-122.029575"><ele>28.6</ele></trkpt><trkpt lat="37.975559" lon="-122.029096"><ele>28.2</ele></trkpt><trkpt lat="37.975531" lon="-122.029007"><ele>28.1</ele></trkpt><trkpt lat="37.975449" lon="-122.028753"><ele>27.9</ele></trkpt><trkpt lat="37.975373" lon="-122.028474"><ele>27.8</ele></trkpt><trkpt lat="37.975261" lon="-122.028152"><ele>27.6</ele></trkpt><trkpt lat="37.975209" lon="-122.027966"><ele>27.4</ele></trkpt><trkpt lat="37.975121" lon="-122.027655"><ele>27.1</ele></trkpt><trkpt lat="37.975082" lon="-122.027516"><ele>27.0</ele></trkpt><trkpt lat="37.975052" lon="-122.027406"><ele>26.9</ele></trkpt><trkpt lat="37.974909" lon="-122.026878"><ele>26.4</ele></trkpt><trkpt lat="37.974846" lon="-122.026643"><ele>26.2</ele></trkpt><trkpt lat="37.974769" lon="-122.026358"><ele>25.9</ele></trkpt><trkpt lat="37.974648" lon="-122.025924"><ele>25.9</ele></trkpt><trkpt lat="37.974565" lon="-122.025628"><ele>26.0</ele></trkpt><trkpt lat="37.974529" lon="-122.025502"><ele>26.0</ele></trkpt><trkpt lat="37.974445" lon="-122.025213"><ele>26.2</ele></trkpt><trkpt lat="37.974330" lon="-122.024819"><ele>26.6</ele></trkpt><trkpt lat="37.974231" lon="-122.024479"><ele>27.1</ele></trkpt><trkpt lat="37.974104" lon="-122.024043"><ele>27.5</ele></trkpt><trkpt lat="37.974038" lon="-122.023807"><ele>27.7</ele></trkpt><trkpt lat="37.973869" lon="-122.023204"><ele>28.6</ele></trkpt><trkpt lat="37.973833" lon="-122.023076"><ele>28.7</ele></trkpt><trkpt lat="37.973758" lon="-122.022811"><ele>29.0</ele></trkpt><trkpt lat="37.973740" lon="-122.022744"><ele>29.1</ele></trkpt><trkpt lat="37.973582" lon="-122.022182"><ele>29.4</ele></trkpt><trkpt lat="37.973531" lon="-122.022001"><ele>29.5</ele></trkpt><trkpt lat="37.973204" lon="-122.020851"><ele>30.2</ele></trkpt><trkpt lat="37.973187" lon="-122.020789"><ele>30.3</ele></trkpt><trkpt lat="37.973101" lon="-122.020490"><ele>30.6</ele></trkpt><trkpt lat="37.973046" lon="-122.020226"><ele>30.8</ele></trkpt><trkpt lat="37.972966" lon="-122.019959"><ele>31.1</ele></trkpt><trkpt lat="37.972775" lon="-122.019314"><ele>32.3</ele></trkpt><trkpt lat="37.972484" lon="-122.018347"><ele>33.8</ele></trkpt><trkpt lat="37.972445" lon="-122.018217"><ele>34.0</ele></trkpt><trkpt lat="37.972384" lon="-122.017993"><ele>34.1</ele></trkpt><trkpt lat="37.972252" lon="-122.017512"><ele>34.1</ele></trkpt><trkpt lat="37.972160" lon="-122.017174"><ele>34.1</ele></trkpt><trkpt lat="37.972088" lon="-122.016912"><ele>34.1</ele></trkpt><trkpt lat="37.971946" lon="-122.016395"><ele>34.4</ele></trkpt><trkpt lat="37.971850" lon="-122.016056"><ele>34.8</ele></trkpt><trkpt lat="37.971647" lon="-122.015342"><ele>35.4</ele></trkpt><trkpt lat="37.971545" lon="-122.014965"><ele>35.4</ele></trkpt><trkpt lat="37.971542" lon="-122.014792"><ele>35.4</ele></trkpt><trkpt lat="37.971441" lon="-122.014427"><ele>35.5</ele></trkpt><trkpt lat="37.971310" lon="-122.013970"><ele>36.0</ele></trkpt><trkpt lat="37.971252" lon="-122.013769"><ele>36.4</ele></trkpt><trkpt lat="37.971161" lon="-122.013456"><ele>36.9</ele></trkpt><trkpt lat="37.971145" lon="-122.013401"><ele>37.0</ele></trkpt><trkpt lat="37.971073" lon="-122.013144"><ele>37.2</ele></trkpt><trkpt lat="37.971016" lon="-122.012940"><ele>37.4</ele></trkpt><trkpt lat="37.970948" lon="-122.012699"><ele>37.6</ele></trkpt><trkpt lat="37.970864" lon="-122.012400"><ele>37.9</ele></trkpt><trkpt lat="37.970762" lon="-122.012051"><ele>38.4</ele></trkpt><trkpt lat="37.970746" lon="-122.011999"><ele>38.5</ele></trkpt><trkpt lat="37.970652" lon="-122.011662"><ele>39.1</ele></trkpt><trkpt lat="37.970609" lon="-122.011504"><ele>39.5</ele></trkpt><trkpt lat="37.970493" lon="-122.011092"><ele>40.4</ele></trkpt><trkpt lat="37.970446" lon="-122.010923"><ele>40.8</ele></trkpt><trkpt lat="37.970427" lon="-122.010859"><ele>40.9</ele></trkpt><trkpt lat="37.970391" lon="-122.010735"><ele>41.0</ele></trkpt><trkpt lat="37.970337" lon="-122.010539"><ele>41.2</ele></trkpt><trkpt lat="37.970259" lon="-122.010262"><ele>41.5</ele></trkpt><trkpt lat="37.970108" lon="-122.009717"><ele>42.5</ele></trkpt><trkpt lat="37.970041" lon="-122.009668"><ele>42.7</ele></trkpt><trkpt lat="37.970033" lon="-122.009640"><ele>42.7</ele></trkpt><trkpt lat="37.970002" lon="-122.009532"><ele>42.8</ele></trkpt><trkpt lat="37.969948" lon="-122.009340"><ele>43.0</ele></trkpt><trkpt lat="37.969810" lon="-122.008845"><ele>43.5</ele></trkpt><trkpt lat="37.969789" lon="-122.008771"><ele>43.5</ele></trkpt><trkpt lat="37.969672" lon="-122.008355"><ele>43.9</ele></trkpt><trkpt lat="37.969642" lon="-122.008247"><ele>44.2</ele></trkpt><trkpt lat="37.969628" lon="-122.008195"><ele>44.3</ele></trkpt><trkpt lat="37.969320" lon="-122.007096"><ele>47.2</ele></trkpt><trkpt lat="37.969220" lon="-122.006738"><ele>47.9</ele></trkpt><trkpt lat="37.969074" lon="-122.006220"><ele>49.1</ele></trkpt><trkpt lat="37.969011" lon="-122.005992"><ele>49.7</ele></trkpt><trkpt lat="37.968910" lon="-122.005635"><ele>50.6</ele></trkpt><trkpt lat="37.968774" lon="-122.005160"><ele>51.5</ele></trkpt><trkpt lat="37.968576" lon="-122.004467"><ele>52.1</ele></trkpt><trkpt lat="37.968331" lon="-122.003628"><ele>51.7</ele></trkpt><trkpt lat="37.968198" lon="-122.003155"><ele>51.5</ele></trkpt><trkpt lat="37.968153" lon="-122.002996"><ele>51.5</ele></trkpt><trkpt lat="37.968088" lon="-122.002764"><ele>51.5</ele></trkpt><trkpt lat="37.967983" lon="-122.002389"><ele>51.7</ele></trkpt><trkpt lat="37.967867" lon="-122.001982"><ele>52.1</ele></trkpt><trkpt lat="37.967767" lon="-122.001630"><ele>52.4</ele></trkpt><trkpt lat="37.967698" lon="-122.001389"><ele>52.6</ele></trkpt><trkpt lat="37.967666" lon="-122.001277"><ele>52.8</ele></trkpt><trkpt lat="37.967646" lon="-122.001207"><ele>52.9</ele></trkpt><trkpt lat="37.967581" lon="-122.000980"><ele>53.2</ele></trkpt><trkpt lat="37.967319" lon="-122.000069"><ele>53.9</ele></trkpt><trkpt lat="37.967079" lon="-121.999185"><ele>53.6</ele></trkpt><trkpt lat="37.967044" lon="-121.999058"><ele>53.5</ele></trkpt><trkpt lat="37.967013" lon="-121.998968"><ele>53.5</ele></trkpt><trkpt lat="37.966843" lon="-121.998471"><ele>53.3</ele></trkpt><trkpt lat="37.966794" lon="-121.998328"><ele>53.3</ele></trkpt><trkpt lat="37.966666" lon="-121.997971"><ele>53.3</ele></trkpt><trkpt lat="37.966635" lon="-121.997887"><ele>53.3</ele></trkpt><trkpt lat="37.966490" lon="-121.997484"><ele>53.3</ele></trkpt><trkpt lat="37.966413" lon="-121.997274"><ele>53.3</ele></trkpt><trkpt lat="37.966303" lon="-121.996973"><ele>53.3</ele></trkpt><trkpt lat="37.965884" lon="-121.995831"><ele>54.3</ele></trkpt><trkpt lat="37.965876" lon="-121.995807"><ele>54.3</ele></trkpt><trkpt lat="37.965661" lon="-121.995223"><ele>54.4</ele></trkpt><trkpt lat="37.965411" lon="-121.994543"><ele>55.2</ele></trkpt><trkpt lat="37.965395" lon="-121.994498"><ele>55.3</ele></trkpt><trkpt lat="37.965363" lon="-121.994412"><ele>55.4</ele></trkpt><trkpt lat="37.965111" lon="-121.993730"><ele>57.0</ele></trkpt><trkpt lat="37.965085" lon="-121.993659"><ele>57.1</ele></trkpt><trkpt lat="37.965049" lon="-121.993562"><ele>57.3</ele></trkpt><trkpt lat="37.964977" lon="-121.993365"><ele>57.6</ele></trkpt><trkpt lat="37.964954" lon="-121.993303"><ele>57.7</ele></trkpt><trkpt lat="37.964928" lon="-121.993233"><ele>57.8</ele></trkpt><trkpt lat="37.964896" lon="-121.993145"><ele>57.9</ele></trkpt><trkpt lat="37.964785" lon="-121.992844"><ele>58.5</ele></trkpt><trkpt lat="37.964750" lon="-121.992750"><ele>58.7</ele></trkpt><trkpt lat="37.964710" lon="-121.992642"><ele>58.9</ele></trkpt><trkpt lat="37.964671" lon="-121.992533"><ele>59.1</ele></trkpt><trkpt lat="37.964641" lon="-121.992449"><ele>59.2</ele></trkpt><trkpt lat="37.964513" lon="-121.992090"><ele>59.8</ele></trkpt><trkpt lat="37.964295" lon="-121.991478"><ele>60.5</ele></trkpt><trkpt lat="37.964240" lon="-121.991324"><ele>60.6</ele></trkpt><trkpt lat="37.964120" lon="-121.990988"><ele>60.8</ele></trkpt><trkpt lat="37.964068" lon="-121.990841"><ele>60.9</ele></trkpt><trkpt lat="37.964046" lon="-121.990779"><ele>60.9</ele></trkpt><trkpt lat="37.963809" lon="-121.990120"><ele>61.2</ele></trkpt><trkpt lat="37.963555" lon="-121.989375"><ele>61.3</ele></trkpt><trkpt lat="37.963488" lon="-121.989190"><ele>61.3</ele></trkpt><trkpt lat="37.963368" lon="-121.988860"><ele>61.3</ele></trkpt><trkpt lat="37.963299" lon="-121.988672"><ele>61.3</ele></trkpt><trkpt lat="37.963113" lon="-121.988163"><ele>61.3</ele></trkpt><trkpt lat="37.962864" lon="-121.987484"><ele>61.9</ele></trkpt><trkpt lat="37.962816" lon="-121.987351"><ele>62.1</ele></trkpt><trkpt lat="37.962687" lon="-121.987001"><ele>62.7</ele></trkpt><trkpt lat="37.962635" lon="-121.986859"><ele>62.9</ele></trkpt><trkpt lat="37.962540" lon="-121.986588"><ele>63.6</ele></trkpt><trkpt lat="37.962466" lon="-121.986374"><ele>64.1</ele></trkpt><trkpt lat="37.962394" lon="-121.986170"><ele>64.5</ele></trkpt><trkpt lat="37.962241" lon="-121.985745"><ele>65.1</ele></trkpt><trkpt lat="37.962052" lon="-121.985223"><ele>66.1</ele></trkpt><trkpt lat="37.961834" lon="-121.984630"><ele>66.6</ele></trkpt><trkpt lat="37.961642" lon="-121.984116"><ele>66.6</ele></trkpt><trkpt lat="37.961636" lon="-121.984100"><ele>66.6</ele></trkpt><trkpt lat="37.961552" lon="-121.983877"><ele>66.5</ele></trkpt><trkpt lat="37.961434" lon="-121.983556"><ele>66.4</ele></trkpt><trkpt lat="37.961392" lon="-121.983444"><ele>66.4</ele></trkpt><trkpt lat="37.961270" lon="-121.983109"><ele>66.5</ele></trkpt><trkpt lat="37.961234" lon="-121.983010"><ele>66.5</ele></trkpt><trkpt lat="37.961191" lon="-121.982894"><ele>66.6</ele></trkpt><trkpt lat="37.961124" lon="-121.982714"><ele>66.7</ele></trkpt><trkpt lat="37.961070" lon="-121.982558"><ele>66.8</ele></trkpt><trkpt lat="37.961011" lon="-121.982389"><ele>66.8</ele></trkpt><trkpt lat="37.960951" lon="-121.982216"><ele>66.9</ele></trkpt><trkpt lat="37.960844" lon="-121.981907"><ele>67.1</ele></trkpt><trkpt lat="37.960669" lon="-121.981401"><ele>68.1</ele></trkpt><trkpt lat="37.960579" lon="-121.981142"><ele>68.5</ele></trkpt><trkpt lat="37.960528" lon="-121.980995"><ele>68.7</ele></trkpt><trkpt lat="37.960373" lon="-121.980548"><ele>69.4</ele></trkpt><trkpt lat="37.960170" lon="-121.979990"><ele>70.2</ele></trkpt><trkpt lat="37.960126" lon="-121.979869"><ele>70.3</ele></trkpt><trkpt lat="37.960002" lon="-121.979535"><ele>70.6</ele></trkpt><trkpt lat="37.959982" lon="-121.979479"><ele>70.7</ele></trkpt><trkpt lat="37.959694" lon="-121.978695"><ele>71.8</ele></trkpt><trkpt lat="37.959609" lon="-121.978460"><ele>72.2</ele></trkpt><trkpt lat="37.959174" lon="-121.977246"><ele>73.6</ele></trkpt><trkpt lat="37.958855" lon="-121.976351"><ele>73.8</ele></trkpt><trkpt lat="37.958810" lon="-121.976224"><ele>73.8</ele></trkpt><trkpt lat="37.958679" lon="-121.975857"><ele>73.8</ele></trkpt><trkpt lat="37.958539" lon="-121.975485"><ele>74.1</ele></trkpt><trkpt lat="37.958320" lon="-121.974903"><ele>74.8</ele></trkpt><trkpt lat="37.958183" lon="-121.974503"><ele>75.0</ele></trkpt><trkpt lat="37.958149" lon="-121.974403"><ele>75.0</ele></trkpt><trkpt lat="37.958087" lon="-121.974221"><ele>75.2</ele></trkpt><trkpt lat="37.958022" lon="-121.974024"><ele>75.4</ele></trkpt><trkpt lat="37.957864" lon="-121.973543"><ele>76.0</ele></trkpt><trkpt lat="37.957695" lon="-121.973088"><ele>76.6</ele></trkpt><trkpt lat="37.956509" lon="-121.969795"><ele>78.9</ele></trkpt><trkpt lat="37.956450" lon="-121.969631"><ele>79.1</ele></trkpt><trkpt lat="37.956216" lon="-121.968981"><ele>80.2</ele></trkpt><trkpt lat="37.956009" lon="-121.968427"><ele>81.3</ele></trkpt><trkpt lat="37.955915" lon="-121.968176"><ele>81.7</ele></trkpt><trkpt lat="37.955911" lon="-121.968166"><ele>81.7</ele></trkpt><trkpt lat="37.955786" lon="-121.967824"><ele>82.1</ele></trkpt><trkpt lat="37.955345" lon="-121.966652"><ele>83.6</ele></trkpt><trkpt lat="37.955300" lon="-121.966525"><ele>83.8</ele></trkpt><trkpt lat="37.955076" lon="-121.965894"><ele>84.8</ele></trkpt><trkpt lat="37.954833" lon="-121.965211"><ele>85.6</ele></trkpt><trkpt lat="37.954818" lon="-121.965168"><ele>85.6</ele></trkpt><trkpt lat="37.954746" lon="-121.964966"><ele>86.2</ele></trkpt><trkpt lat="37.954601" lon="-121.964582"><ele>87.5</ele></trkpt><trkpt lat="37.954551" lon="-121.964447"><ele>87.9</ele></trkpt><trkpt lat="37.954522" lon="-121.964361"><ele>88.1</ele></trkpt><trkpt lat="37.954231" lon="-121.963527"><ele>89.6</ele></trkpt><trkpt lat="37.953820" lon="-121.962355"><ele>91.5</ele></trkpt><trkpt lat="37.953488" lon="-121.961443"><ele>92.9</ele></trkpt><trkpt lat="37.953335" lon="-121.961011"><ele>93.1</ele></trkpt><trkpt lat="37.953211" lon="-121.960673"><ele>93.4</ele></trkpt><trkpt lat="37.952971" lon="-121.960016"><ele>93.9</ele></trkpt><trkpt lat="37.952777" lon="-121.959505"><ele>94.2</ele></trkpt><trkpt lat="37.952772" lon="-121.959489"><ele>94.2</ele></trkpt><trkpt lat="37.952663" lon="-121.959203"><ele>94.6</ele></trkpt><trkpt lat="37.952606" lon="-121.959029"><ele>94.9</ele></trkpt><trkpt lat="37.952599" lon="-121.959008"><ele>94.9</ele></trkpt><trkpt lat="37.952554" lon="-121.958880"><ele>95.1</ele></trkpt><trkpt lat="37.952517" lon="-121.958771"><ele>95.2</ele></trkpt><trkpt lat="37.952382" lon="-121.958374"><ele>95.6</ele></trkpt><trkpt lat="37.952347" lon="-121.958271"><ele>95.7</ele></trkpt><trkpt lat="37.952262" lon="-121.958019"><ele>96.2</ele></trkpt><trkpt lat="37.952134" lon="-121.957631"><ele>97.0</ele></trkpt><trkpt lat="37.952092" lon="-121.957517"><ele>97.2</ele></trkpt><trkpt lat="37.952013" lon="-121.957305"><ele>97.6</ele></trkpt><trkpt lat="37.951968" lon="-121.957195"><ele>97.8</ele></trkpt><trkpt lat="37.951736" lon="-121.956641"><ele>99.1</ele></trkpt><trkpt lat="37.951572" lon="-121.956301"><ele>99.9</ele></trkpt><trkpt lat="37.951479" lon="-121.956107"><ele>100.2</ele></trkpt><trkpt lat="37.951441" lon="-121.956030"><ele>100.3</ele></trkpt><trkpt lat="37.951387" lon="-121.955930"><ele>100.5</ele></trkpt><trkpt lat="37.951356" lon="-121.955875"><ele>100.6</ele></trkpt><trkpt lat="37.951279" lon="-121.955735"><ele>100.6</ele></trkpt><trkpt lat="37.951179" lon="-121.955555"><ele>100.7</ele></trkpt><trkpt lat="37.951109" lon="-121.955428"><ele>100.8</ele></trkpt><trkpt lat="37.951049" lon="-121.955321"><ele>100.9</ele></trkpt><trkpt lat="37.950874" lon="-121.955004"><ele>101.4</ele></trkpt><trkpt lat="37.950205" lon="-121.953782"><ele>103.4</ele></trkpt><trkpt lat="37.949352" lon="-121.952223"><ele>105.4</ele></trkpt><trkpt lat="37.949124" lon="-121.951822"><ele>106.2</ele></trkpt><trkpt lat="37.949107" lon="-121.951792"><ele>106.2</ele></trkpt><trkpt lat="37.948823" lon="-121.951278"><ele>106.8</ele></trkpt><trkpt lat="37.948794" lon="-121.951224"><ele>107.0</ele></trkpt><trkpt lat="37.948765" lon="-121.951169"><ele>107.1</ele></trkpt><trkpt lat="37.948586" lon="-121.950829"><ele>107.8</ele></trkpt><trkpt lat="37.948398" lon="-121.950488"><ele>108.6</ele></trkpt><trkpt lat="37.948281" lon="-121.950276"><ele>109.0</ele></trkpt><trkpt lat="37.947255" lon="-121.948442"><ele>113.5</ele></trkpt><trkpt lat="37.946774" lon="-121.947575"><ele>116.5</ele></trkpt><trkpt lat="37.946447" lon="-121.947140"><ele>118.2</ele></trkpt><trkpt lat="37.946070" lon="-121.946639"><ele>120.0</ele></trkpt><trkpt lat="37.945847" lon="-121.946302"><ele>121.2</ele></trkpt><trkpt lat="37.945475" lon="-121.945559"><ele>122.9</ele></trkpt><trkpt lat="37.945260" lon="-121.945137"><ele>123.4</ele></trkpt><trkpt lat="37.943603" lon="-121.941934"><ele>130.0</ele></trkpt><trkpt lat="37.943046" lon="-121.941939"><ele>131.3</ele></trkpt><trkpt lat="37.942094" lon="-121.941955"><ele>134.7</ele></trkpt><trkpt lat="37.941234" lon="-121.941972"><ele>138.7</ele></trkpt><trkpt lat="37.939416" lon="-121.941966"><ele>144.1</ele></trkpt><trkpt lat="37.938851" lon="-121.941963"><ele>145.3</ele></trkpt><trkpt lat="37.938087" lon="-121.941986"><ele>147.6</ele></trkpt><trkpt lat="37.937704" lon="-121.941958"><ele>148.9</ele></trkpt><trkpt lat="37.937254" lon="-121.941963"><ele>150.3</ele></trkpt><trkpt lat="37.936912" lon="-121.941958"><ele>151.3</ele></trkpt><trkpt lat="37.935991" lon="-121.941926"><ele>154.1</ele></trkpt><trkpt lat="37.935923" lon="-121.941923"><ele>154.3</ele></trkpt><trkpt lat="37.935558" lon="-121.941926"><ele>155.3</ele></trkpt><trkpt lat="37.935188" lon="-121.941928"><ele>156.5</ele></trkpt><trkpt lat="37.934368" lon="-121.941934"><ele>159.5</ele></trkpt><trkpt lat="37.934065" lon="-121.941931"><ele>160.6</ele></trkpt><trkpt lat="37.933862" lon="-121.941923"><ele>161.3</ele></trkpt><trkpt lat="37.933583" lon="-121.941923"><ele>162.0</ele></trkpt><trkpt lat="37.931936" lon="-121.941903"><ele>166.3</ele></trkpt><trkpt lat="37.931446" lon="-121.941897"><ele>167.5</ele></trkpt><trkpt lat="37.931401" lon="-121.941895"><ele>167.6</ele></trkpt><trkpt lat="37.930458" lon="-121.941863"><ele>170.8</ele></trkpt><trkpt lat="37.929749" lon="-121.941818"><ele>172.2</ele></trkpt><trkpt lat="37.928673" lon="-121.941715"><ele>174.0</ele></trkpt><trkpt lat="37.928464" lon="-121.941692"><ele>174.2</ele></trkpt><trkpt lat="37.928016" lon="-121.941642"><ele>174.3</ele></trkpt><trkpt lat="37.927369" lon="-121.941565"><ele>175.1</ele></trkpt><trkpt lat="37.927287" lon="-121.941568"><ele>175.2</ele></trkpt><trkpt lat="37.927190" lon="-121.941574"><ele>175.7</ele></trkpt><trkpt lat="37.927128" lon="-121.941584"><ele>176.1</ele></trkpt><trkpt lat="37.927045" lon="-121.941606"><ele>176.5</ele></trkpt><trkpt lat="37.926958" lon="-121.941635"><ele>177.0</ele></trkpt><trkpt lat="37.926724" lon="-121.941748"><ele>178.4</ele></trkpt><trkpt lat="37.926688" lon="-121.941765"><ele>178.6</ele></trkpt><trkpt lat="37.926474" lon="-121.941869"><ele>179.6</ele></trkpt><trkpt lat="37.926387" lon="-121.941897"><ele>180.1</ele></trkpt><trkpt lat="37.926295" lon="-121.941920"><ele>180.5</ele></trkpt><trkpt lat="37.925969" lon="-121.941927"><ele>181.6</ele></trkpt><trkpt lat="37.923901" lon="-121.941928"><ele>181.6</ele></trkpt><trkpt lat="37.922601" lon="-121.941928"><ele>179.1</ele></trkpt><trkpt lat="37.922601" lon="-121.941873"><ele>179.1</ele></trkpt><trkpt lat="37.922571" lon="-121.941573"><ele>179.0</ele></trkpt><trkpt lat="37.922460" lon="-121.941442"><ele>179.2</ele></trkpt><trkpt lat="37.922308" lon="-121.941412"><ele>179.4</ele></trkpt><trkpt lat="37.922122" lon="-121.941442"><ele>179.7</ele></trkpt><trkpt lat="37.921973" lon="-121.941529"><ele>180.0</ele></trkpt><trkpt lat="37.921908" lon="-121.941439"><ele>180.3</ele></trkpt><trkpt lat="37.921699" lon="-121.941476"><ele>180.7</ele></trkpt><trkpt lat="37.921641" lon="-121.941437"><ele>180.8</ele></trkpt><trkpt lat="37.921512" lon="-121.941352"><ele>180.9</ele></trkpt><trkpt lat="37.921324" lon="-121.941116"><ele>181.0</ele></trkpt><trkpt lat="37.921277" lon="-121.941038"><ele>181.1</ele></trkpt><trkpt lat="37.921312" lon="-121.940963"><ele>181.3</ele></trkpt><trkpt lat="37.921469" lon="-121.940892"><ele>181.7</ele></trkpt><trkpt lat="37.921312" lon="-121.940963"><ele>182.2</ele></trkpt><trkpt lat="37.921277" lon="-121.941038"><ele>182.4</ele></trkpt><trkpt lat="37.921203" lon="-121.941011"><ele>182.6</ele></trkpt><trkpt lat="37.921165" lon="-121.941020"><ele>182.7</ele></trkpt><trkpt lat="37.921097" lon="-121.941041"><ele>183.0</ele></trkpt><trkpt lat="37.920992" lon="-121.941109"><ele>183.4</ele></trkpt><trkpt lat="37.920698" lon="-121.941389"><ele>184.6</ele></trkpt><trkpt lat="37.920520" lon="-121.941545"><ele>185.3</ele></trkpt><trkpt lat="37.920408" lon="-121.941644"><ele>185.8</ele></trkpt><trkpt lat="37.920276" lon="-121.941834"><ele>186.5</ele></trkpt><trkpt lat="37.920208" lon="-121.941892"><ele>186.8</ele></trkpt><trkpt lat="37.920122" lon="-121.941905"><ele>187.1</ele></trkpt><trkpt lat="37.919896" lon="-121.941907"><ele>187.8</ele></trkpt><trkpt lat="37.919769" lon="-121.941951"><ele>188.3</ele></trkpt><trkpt lat="37.919508" lon="-121.942105"><ele>189.6</ele></trkpt><trkpt lat="37.919416" lon="-121.942176"><ele>190.1</ele></trkpt><trkpt lat="37.918929" lon="-121.942873"><ele>194.2</ele></trkpt><trkpt lat="37.918712" lon="-121.943126"><ele>196.0</ele></trkpt><trkpt lat="37.918389" lon="-121.943640"><ele>199.0</ele></trkpt><trkpt lat="37.918163" lon="-121.944180"><ele>201.6</ele></trkpt><trkpt lat="37.917984" lon="-121.944476"><ele>202.9</ele></trkpt><trkpt lat="37.917821" lon="-121.944801"><ele>203.8</ele></trkpt><trkpt lat="37.917287" lon="-121.945691"><ele>205.6</ele></trkpt><trkpt lat="37.917000" lon="-121.946207"><ele>206.7</ele></trkpt><trkpt lat="37.916908" lon="-121.946342"><ele>207.4</ele></trkpt><trkpt lat="37.916783" lon="-121.946463"><ele>208.2</ele></trkpt><trkpt lat="37.916603" lon="-121.946565"><ele>209.4</ele></trkpt><trkpt lat="37.916488" lon="-121.946669"><ele>210.4</ele></trkpt><trkpt lat="37.916386" lon="-121.946865"><ele>211.6</ele></trkpt><trkpt lat="37.916303" lon="-121.947113"><ele>213.0</ele></trkpt><trkpt lat="37.916216" lon="-121.947199"><ele>213.6</ele></trkpt><trkpt lat="37.916128" lon="-121.947215"><ele>214.1</ele></trkpt><trkpt lat="37.915851" lon="-121.947206"><ele>215.7</ele></trkpt><trkpt lat="37.915672" lon="-121.947273"><ele>216.7</ele></trkpt><trkpt lat="37.915451" lon="-121.947424"><ele>218.1</ele></trkpt><trkpt lat="37.915012" lon="-121.947853"><ele>220.4</ele></trkpt><trkpt lat="37.914673" lon="-121.948126"><ele>221.4</ele></trkpt><trkpt lat="37.914557" lon="-121.948209"><ele>221.7</ele></trkpt><trkpt lat="37.914447" lon="-121.948255"><ele>221.9</ele></trkpt><trkpt lat="37.914193" lon="-121.948319"><ele>221.7</ele></trkpt><trkpt lat="37.914114" lon="-121.948368"><ele>221.7</ele></trkpt><trkpt lat="37.914093" lon="-121.948389"><ele>221.7</ele></trkpt><trkpt lat="37.914017" lon="-121.948463"><ele>221.6</ele></trkpt><trkpt lat="37.913936" lon="-121.948542"><ele>221.7</ele></trkpt><trkpt lat="37.913739" lon="-121.948739"><ele>222.3</ele></trkpt><trkpt lat="37.913228" lon="-121.949096"><ele>223.4</ele></trkpt><trkpt lat="37.913046" lon="-121.949193"><ele>223.8</ele></trkpt><trkpt lat="37.912759" lon="-121.949280"><ele>224.8</ele></trkpt><trkpt lat="37.912547" lon="-121.949295"><ele>225.5</ele></trkpt><trkpt lat="37.912308" lon="-121.949254"><ele>226.1</ele></trkpt><trkpt lat="37.912159" lon="-121.949182"><ele>226.4</ele></trkpt><trkpt lat="37.911925" lon="-121.948995"><ele>227.2</ele></trkpt><trkpt lat="37.911834" lon="-121.948950"><ele>227.5</ele></trkpt><trkpt lat="37.911693" lon="-121.948936"><ele>228.0</ele></trkpt><trkpt lat="37.911561" lon="-121.948961"><ele>228.4</ele></trkpt><trkpt lat="37.911453" lon="-121.949013"><ele>228.9</ele></trkpt><trkpt lat="37.911377" lon="-121.949087"><ele>229.3</ele></trkpt><trkpt lat="37.911239" lon="-121.949361"><ele>230.5</ele></trkpt><trkpt lat="37.911057" lon="-121.949576"><ele>231.6</ele></trkpt><trkpt lat="37.910719" lon="-121.949928"><ele>233.5</ele></trkpt><trkpt lat="37.910601" lon="-121.950031"><ele>233.8</ele></trkpt><trkpt lat="37.910438" lon="-121.950125"><ele>234.2</ele></trkpt><trkpt lat="37.910227" lon="-121.950167"><ele>234.7</ele></trkpt><trkpt lat="37.909762" lon="-121.950197"><ele>235.8</ele></trkpt><trkpt lat="37.909291" lon="-121.950181"><ele>237.5</ele></trkpt><trkpt lat="37.908776" lon="-121.950336"><ele>239.6</ele></trkpt><trkpt lat="37.908499" lon="-121.950362"><ele>240.7</ele></trkpt><trkpt lat="37.908259" lon="-121.950333"><ele>241.6</ele></trkpt><trkpt lat="37.908157" lon="-121.950294"><ele>242.1</ele></trkpt><trkpt lat="37.908062" lon="-121.950196"><ele>242.8</ele></trkpt><trkpt lat="37.907950" lon="-121.949977"><ele>244.3</ele></trkpt><trkpt lat="37.907891" lon="-121.949912"><ele>244.8</ele></trkpt><trkpt lat="37.907801" lon="-121.949875"><ele>245.5</ele></trkpt><trkpt lat="37.907515" lon="-121.949896"><ele>248.0</ele></trkpt><trkpt lat="37.907421" lon="-121.949867"><ele>248.9</ele></trkpt><trkpt lat="37.907323" lon="-121.949791"><ele>250.0</ele></trkpt><trkpt lat="37.907084" lon="-121.949486"><ele>252.8</ele></trkpt><trkpt lat="37.907014" lon="-121.949441"><ele>253.4</ele></trkpt><trkpt lat="37.906963" lon="-121.949431"><ele>253.8</ele></trkpt><trkpt lat="37.906878" lon="-121.949457"><ele>254.4</ele></trkpt><trkpt lat="37.906823" lon="-121.949512"><ele>254.9</ele></trkpt><trkpt lat="37.906660" lon="-121.949795"><ele>256.7</ele></trkpt><trkpt lat="37.906511" lon="-121.949893"><ele>257.8</ele></trkpt><trkpt lat="37.906398" lon="-121.949917"><ele>258.5</ele></trkpt><trkpt lat="37.905686" lon="-121.949961"><ele>261.9</ele></trkpt><trkpt lat="37.905510" lon="-121.949950"><ele>262.4</ele></trkpt><trkpt lat="37.905200" lon="-121.949867"><ele>263.0</ele></trkpt><trkpt lat="37.905077" lon="-121.949869"><ele>262.9</ele></trkpt><trkpt lat="37.904980" lon="-121.949922"><ele>262.9</ele></trkpt><trkpt lat="37.904797" lon="-121.950063"><ele>262.8</ele></trkpt><trkpt lat="37.904659" lon="-121.950094"><ele>262.9</ele></trkpt><trkpt lat="37.904528" lon="-121.950057"><ele>263.0</ele></trkpt><trkpt lat="37.904248" lon="-121.949907"><ele>263.4</ele></trkpt><trkpt lat="37.903899" lon="-121.949809"><ele>264.4</ele></trkpt><trkpt lat="37.903441" lon="-121.949476"><ele>266.5</ele></trkpt><trkpt lat="37.903211" lon="-121.949386"><ele>267.6</ele></trkpt><trkpt lat="37.902319" lon="-121.949276"><ele>273.7</ele></trkpt><trkpt lat="37.901997" lon="-121.949258"><ele>275.7</ele></trkpt><trkpt lat="37.901800" lon="-121.949269"><ele>276.8</ele></trkpt><trkpt lat="37.901587" lon="-121.949248"><ele>277.8</ele></trkpt><trkpt lat="37.901477" lon="-121.949204"><ele>278.2</ele></trkpt><trkpt lat="37.901056" lon="-121.948897"><ele>280.1</ele></trkpt><trkpt lat="37.900955" lon="-121.948850"><ele>280.8</ele></trkpt><trkpt lat="37.900591" lon="-121.948788"><ele>282.7</ele></trkpt><trkpt lat="37.900461" lon="-121.948746"><ele>283.3</ele></trkpt><trkpt lat="37.899986" lon="-121.948505"><ele>285.3</ele></trkpt><trkpt lat="37.899649" lon="-121.948385"><ele>286.9</ele></trkpt><trkpt lat="37.899535" lon="-121.948324"><ele>287.6</ele></trkpt><trkpt lat="37.899377" lon="-121.948196"><ele>288.8</ele></trkpt><trkpt lat="37.899194" lon="-121.947997"><ele>290.3</ele></trkpt><trkpt lat="37.898976" lon="-121.947653"><ele>292.6</ele></trkpt><trkpt lat="37.898857" lon="-121.947535"><ele>293.7</ele></trkpt><trkpt lat="37.898662" lon="-121.947394"><ele>294.6</ele></trkpt><trkpt lat="37.898531" lon="-121.947277"><ele>295.0</ele></trkpt><trkpt lat="37.898187" lon="-121.946758"><ele>297.0</ele></trkpt><trkpt lat="37.898015" lon="-121.946546"><ele>298.1</ele></trkpt><trkpt lat="37.897680" lon="-121.946244"><ele>300.4</ele></trkpt><trkpt lat="37.897568" lon="-121.946116"><ele>301.3</ele></trkpt><trkpt lat="37.897502" lon="-121.946009"><ele>302.0</ele></trkpt><trkpt lat="37.897200" lon="-121.945320"><ele>306.1</ele></trkpt><trkpt lat="37.897094" lon="-121.945138"><ele>307.4</ele></trkpt><trkpt lat="37.896996" lon="-121.945009"><ele>308.4</ele></trkpt><trkpt lat="37.896626" lon="-121.944601"><ele>312.5</ele></trkpt><trkpt lat="37.896527" lon="-121.944441"><ele>314.0</ele></trkpt><trkpt lat="37.896389" lon="-121.944078"><ele>317.1</ele></trkpt><trkpt lat="37.896343" lon="-121.943898"><ele>318.6</ele></trkpt><trkpt lat="37.896339" lon="-121.943213"><ele>325.0</ele></trkpt><trkpt lat="37.896326" lon="-121.943033"><ele>327.0</ele></trkpt><trkpt lat="37.896261" lon="-121.942834"><ele>329.4</ele></trkpt><trkpt lat="37.896099" lon="-121.942576"><ele>333.1</ele></trkpt><trkpt lat="37.895841" lon="-121.942276"><ele>337.9</ele></trkpt><trkpt lat="37.895767" lon="-121.942239"><ele>339.0</ele></trkpt><trkpt lat="37.895729" lon="-121.942204"><ele>339.6</ele></trkpt><trkpt lat="37.895509" lon="-121.942054"><ele>343.1</ele></trkpt><trkpt lat="37.895260" lon="-121.941882"><ele>347.2</ele></trkpt><trkpt lat="37.895090" lon="-121.941787"><ele>350.6</ele></trkpt><trkpt lat="37.895059" lon="-121.941751"><ele>351.4</ele></trkpt><trkpt lat="37.895035" lon="-121.941706"><ele>352.2</ele></trkpt><trkpt lat="37.895038" lon="-121.941649"><ele>353.1</ele></trkpt><trkpt lat="37.895076" lon="-121.941579"><ele>354.3</ele></trkpt><trkpt lat="37.895159" lon="-121.941495"><ele>356.3</ele></trkpt><trkpt lat="37.895256" lon="-121.941422"><ele>358.3</ele></trkpt><trkpt lat="37.895312" lon="-121.941344"><ele>359.6</ele></trkpt><trkpt lat="37.895348" lon="-121.941259"><ele>360.9</ele></trkpt><trkpt lat="37.895391" lon="-121.941119"><ele>362.7</ele></trkpt><trkpt lat="37.895407" lon="-121.941032"><ele>363.9</ele></trkpt><trkpt lat="37.895410" lon="-121.940966"><ele>364.7</ele></trkpt><trkpt lat="37.895387" lon="-121.940858"><ele>366.1</ele></trkpt><trkpt lat="37.895349" lon="-121.940780"><ele>367.0</ele></trkpt><trkpt lat="37.895294" lon="-121.940700"><ele>368.1</ele></trkpt><trkpt lat="37.895143" lon="-121.940541"><ele>370.7</ele></trkpt><trkpt lat="37.895046" lon="-121.940391"><ele>372.7</ele></trkpt><trkpt lat="37.895009" lon="-121.940279"><ele>374.2</ele></trkpt><trkpt lat="37.895006" lon="-121.940243"><ele>374.7</ele></trkpt><trkpt lat="37.895014" lon="-121.940206"><ele>375.2</ele></trkpt><trkpt lat="37.895028" lon="-121.940163"><ele>375.8</ele></trkpt><trkpt lat="37.895053" lon="-121.940124"><ele>376.4</ele></trkpt><trkpt lat="37.895254" lon="-121.940014"><ele>380.1</ele></trkpt><trkpt lat="37.895295" lon="-121.939968"><ele>381.0</ele></trkpt><trkpt lat="37.895330" lon="-121.939888"><ele>382.2</ele></trkpt><trkpt lat="37.895355" lon="-121.939777"><ele>383.8</ele></trkpt><trkpt lat="37.895388" lon="-121.939541"><ele>387.3</ele></trkpt><trkpt lat="37.895391" lon="-121.939368"><ele>389.8</ele></trkpt><trkpt lat="37.895372" lon="-121.939263"><ele>391.3</ele></trkpt><trkpt lat="37.895327" lon="-121.939178"><ele>392.6</ele></trkpt><trkpt lat="37.895261" lon="-121.939129"><ele>393.6</ele></trkpt><trkpt lat="37.895177" lon="-121.939092"><ele>394.7</ele></trkpt><trkpt lat="37.894928" lon="-121.939085"><ele>398.0</ele></trkpt><trkpt lat="37.894832" lon="-121.939024"><ele>399.3</ele></trkpt><trkpt lat="37.894798" lon="-121.938981"><ele>399.9</ele></trkpt><trkpt lat="37.894736" lon="-121.938855"><ele>401.4</ele></trkpt><trkpt lat="37.894598" lon="-121.938489"><ele>405.4</ele></trkpt><trkpt lat="37.894566" lon="-121.938342"><ele>406.8</ele></trkpt><trkpt lat="37.894546" lon="-121.938063"><ele>409.2</ele></trkpt><trkpt lat="37.894531" lon="-121.937991"><ele>409.9</ele></trkpt><trkpt lat="37.894511" lon="-121.937949"><ele>410.3</ele></trkpt><trkpt lat="37.894462" lon="-121.937907"><ele>411.0</ele></trkpt><trkpt lat="37.894368" lon="-121.937910"><ele>412.0</ele></trkpt><trkpt lat="37.894337" lon="-121.937945"><ele>412.4</ele></trkpt><trkpt lat="37.894323" lon="-121.937974"><ele>412.7</ele></trkpt><trkpt lat="37.894314" lon="-121.938050"><ele>413.3</ele></trkpt><trkpt lat="37.894316" lon="-121.938442"><ele>416.5</ele></trkpt><trkpt lat="37.894295" lon="-121.938768"><ele>419.2</ele></trkpt><trkpt lat="37.894267" lon="-121.938907"><ele>420.5</ele></trkpt><trkpt lat="37.894216" lon="-121.939048"><ele>421.8</ele></trkpt><trkpt lat="37.894150" lon="-121.939103"><ele>422.6</ele></trkpt><trkpt lat="37.894000" lon="-121.939173"><ele>424.5</ele></trkpt><trkpt lat="37.893925" lon="-121.939216"><ele>425.5</ele></trkpt><trkpt lat="37.893813" lon="-121.939306"><ele>427.1</ele></trkpt><trkpt lat="37.893748" lon="-121.939354"><ele>428.0</ele></trkpt><trkpt lat="37.893710" lon="-121.939394"><ele>428.6</ele></trkpt><trkpt lat="37.893615" lon="-121.939527"><ele>430.4</ele></trkpt><trkpt lat="37.893543" lon="-121.939682"><ele>432.1</ele></trkpt><trkpt lat="37.893518" lon="-121.939718"><ele>432.6</ele></trkpt><trkpt lat="37.893476" lon="-121.939757"><ele>433.3</ele></trkpt><trkpt lat="37.893426" lon="-121.939760"><ele>433.9</ele></trkpt><trkpt lat="37.893343" lon="-121.939717"><ele>435.0</ele></trkpt><trkpt lat="37.893300" lon="-121.939673"><ele>435.7</ele></trkpt><trkpt lat="37.893271" lon="-121.939623"><ele>436.3</ele></trkpt><trkpt lat="37.893257" lon="-121.939572"><ele>437.0</ele></trkpt><trkpt lat="37.893257" lon="-121.939469"><ele>438.4</ele></trkpt><trkpt lat="37.893316" lon="-121.939178"><ele>442.4</ele></trkpt><trkpt lat="37.893309" lon="-121.939095"><ele>443.6</ele></trkpt><trkpt lat="37.893291" lon="-121.939072"><ele>444.0</ele></trkpt><trkpt lat="37.893248" lon="-121.939068"><ele>444.7</ele></trkpt><trkpt lat="37.893210" lon="-121.939076"><ele>445.4</ele></trkpt><trkpt lat="37.892944" lon="-121.939352"><ele>452.5</ele></trkpt><trkpt lat="37.892826" lon="-121.939509"><ele>456.1</ele></trkpt><trkpt lat="37.892787" lon="-121.939543"><ele>457.1</ele></trkpt><trkpt lat="37.892728" lon="-121.939541"><ele>458.2</ele></trkpt><trkpt lat="37.892710" lon="-121.939500"><ele>458.9</ele></trkpt><trkpt lat="37.892713" lon="-121.939456"><ele>459.6</ele></trkpt><trkpt lat="37.892766" lon="-121.939309"><ele>462.0</ele></trkpt><trkpt lat="37.892774" lon="-121.939261"><ele>462.7</ele></trkpt><trkpt lat="37.892767" lon="-121.939168"><ele>464.1</ele></trkpt><trkpt lat="37.892753" lon="-121.939119"><ele>464.9</ele></trkpt><trkpt lat="37.892703" lon="-121.939014"><ele>466.7</ele></trkpt><trkpt lat="37.892569" lon="-121.938771"><ele>471.3</ele></trkpt><trkpt lat="37.892510" lon="-121.938686"><ele>473.1</ele></trkpt><trkpt lat="37.892441" lon="-121.938643"><ele>474.6</ele></trkpt><trkpt lat="37.892402" lon="-121.938642"><ele>475.4</ele></trkpt><trkpt lat="37.892329" lon="-121.938682"><ele>477.0</ele></trkpt><trkpt lat="37.892303" lon="-121.938709"><ele>477.6</ele></trkpt><trkpt lat="37.892218" lon="-121.938881"><ele>481.1</ele></trkpt><trkpt lat="37.892166" lon="-121.939005"><ele>483.6</ele></trkpt><trkpt lat="37.892123" lon="-121.939187"><ele>486.9</ele></trkpt><trkpt lat="37.892107" lon="-121.939218"><ele>487.6</ele></trkpt><trkpt lat="37.892050" lon="-121.939222"><ele>488.8</ele></trkpt><trkpt lat="37.892018" lon="-121.939170"><ele>490.0</ele></trkpt><trkpt lat="37.891952" lon="-121.938835"><ele>495.9</ele></trkpt><trkpt lat="37.891850" lon="-121.938485"><ele>502.1</ele></trkpt><trkpt lat="37.891831" lon="-121.938372"><ele>503.6</ele></trkpt><trkpt lat="37.891826" lon="-121.938156"><ele>506.4</ele></trkpt><trkpt lat="37.891807" lon="-121.938104"><ele>507.2</ele></trkpt><trkpt lat="37.891790" lon="-121.938086"><ele>507.6</ele></trkpt><trkpt lat="37.891763" lon="-121.938082"><ele>508.0</ele></trkpt><trkpt lat="37.891725" lon="-121.938083"><ele>508.6</ele></trkpt><trkpt lat="37.891690" lon="-121.938104"><ele>509.3</ele></trkpt><trkpt lat="37.891659" lon="-121.938144"><ele>510.0</ele></trkpt><trkpt lat="37.891578" lon="-121.938297"><ele>512.5</ele></trkpt><trkpt lat="37.891519" lon="-121.938380"><ele>514.1</ele></trkpt><trkpt lat="37.891296" lon="-121.938662"><ele>519.6</ele></trkpt><trkpt lat="37.891231" lon="-121.938793"><ele>521.6</ele></trkpt><trkpt lat="37.891181" lon="-121.938941"><ele>523.7</ele></trkpt><trkpt lat="37.891114" lon="-121.939249"><ele>527.9</ele></trkpt><trkpt lat="37.891103" lon="-121.939492"><ele>530.6</ele></trkpt><trkpt lat="37.891095" lon="-121.939540"><ele>531.2</ele></trkpt><trkpt lat="37.891073" lon="-121.939579"><ele>531.7</ele></trkpt><trkpt lat="37.891030" lon="-121.939582"><ele>532.2</ele></trkpt><trkpt lat="37.890999" lon="-121.939564"><ele>532.7</ele></trkpt><trkpt lat="37.890764" lon="-121.939307"><ele>536.7</ele></trkpt><trkpt lat="37.890685" lon="-121.939241"><ele>537.8</ele></trkpt><trkpt lat="37.890567" lon="-121.939178"><ele>539.2</ele></trkpt><trkpt lat="37.890534" lon="-121.939173"><ele>539.6</ele></trkpt><trkpt lat="37.890503" lon="-121.939157"><ele>540.0</ele></trkpt><trkpt lat="37.890375" lon="-121.939154"><ele>541.4</ele></trkpt><trkpt lat="37.890337" lon="-121.939173"><ele>541.9</ele></trkpt><trkpt lat="37.890286" lon="-121.939220"><ele>542.7</ele></trkpt><trkpt lat="37.890256" lon="-121.939370"><ele>544.4</ele></trkpt><trkpt lat="37.890311" lon="-121.939476"><ele>545.9</ele></trkpt><trkpt lat="37.890415" lon="-121.939560"><ele>547.6</ele></trkpt><trkpt lat="37.890484" lon="-121.939587"><ele>548.6</ele></trkpt><trkpt lat="37.890597" lon="-121.939649"><ele>550.4</ele></trkpt><trkpt lat="37.890626" lon="-121.939672"><ele>550.8</ele></trkpt><trkpt lat="37.890673" lon="-121.939755"><ele>552.0</ele></trkpt><trkpt lat="37.890690" lon="-121.939838"><ele>552.9</ele></trkpt><trkpt lat="37.890684" lon="-121.939928"><ele>553.9</ele></trkpt><trkpt lat="37.890649" lon="-121.940032"><ele>555.1</ele></trkpt><trkpt lat="37.890595" lon="-121.940118"><ele>556.3</ele></trkpt><trkpt lat="37.890531" lon="-121.940183"><ele>557.5</ele></trkpt><trkpt lat="37.890408" lon="-121.940272"><ele>559.6</ele></trkpt><trkpt lat="37.890308" lon="-121.940336"><ele>561.3</ele></trkpt><trkpt lat="37.890145" lon="-121.940418"><ele>564.0</ele></trkpt><trkpt lat="37.890111" lon="-121.940424"><ele>564.5</ele></trkpt><trkpt lat="37.890033" lon="-121.940461"><ele>565.8</ele></trkpt><trkpt lat="37.889995" lon="-121.940467"><ele>566.5</ele></trkpt><trkpt lat="37.889867" lon="-121.940524"><ele>568.8</ele></trkpt><trkpt lat="37.889681" lon="-121.940550"><ele>572.0</ele></trkpt><trkpt lat="37.889587" lon="-121.940549"><ele>573.5</ele></trkpt><trkpt lat="37.889535" lon="-121.940532"><ele>574.5</ele></trkpt><trkpt lat="37.889415" lon="-121.940485"><ele>576.5</ele></trkpt><trkpt lat="37.889290" lon="-121.940378"><ele>578.9</ele></trkpt><trkpt lat="37.889236" lon="-121.940314"><ele>580.0</ele></trkpt><trkpt lat="37.889205" lon="-121.940269"><ele>580.8</ele></trkpt><trkpt lat="37.889133" lon="-121.940119"><ele>583.0</ele></trkpt><trkpt lat="37.889047" lon="-121.939859"><ele>586.0</ele></trkpt><trkpt lat="37.889009" lon="-121.939774"><ele>587.1</ele></trkpt><trkpt lat="37.888933" lon="-121.939648"><ele>588.7</ele></trkpt><trkpt lat="37.888813" lon="-121.939493"><ele>591.0</ele></trkpt><trkpt lat="37.888771" lon="-121.939409"><ele>592.0</ele></trkpt><trkpt lat="37.888756" lon="-121.939361"><ele>592.5</ele></trkpt><trkpt lat="37.888743" lon="-121.939276"><ele>593.4</ele></trkpt><trkpt lat="37.888750" lon="-121.939174"><ele>594.5</ele></trkpt><trkpt lat="37.888786" lon="-121.939065"><ele>595.7</ele></trkpt><trkpt lat="37.888874" lon="-121.938913"><ele>597.7</ele></trkpt><trkpt lat="37.888895" lon="-121.938834"><ele>598.7</ele></trkpt><trkpt lat="37.888894" lon="-121.938767"><ele>599.5</ele></trkpt><trkpt lat="37.888873" lon="-121.938702"><ele>600.3</ele></trkpt><trkpt lat="37.888847" lon="-121.938663"><ele>600.9</ele></trkpt><trkpt lat="37.888702" lon="-121.938574"><ele>603.4</ele></trkpt><trkpt lat="37.888680" lon="-121.938553"><ele>603.8</ele></trkpt><trkpt lat="37.888659" lon="-121.938518"><ele>604.4</ele></trkpt><trkpt lat="37.888648" lon="-121.938459"><ele>605.1</ele></trkpt><trkpt lat="37.888665" lon="-121.938215"><ele>607.9</ele></trkpt><trkpt lat="37.888663" lon="-121.938101"><ele>609.2</ele></trkpt><trkpt lat="37.888646" lon="-121.937997"><ele>610.5</ele></trkpt><trkpt lat="37.888585" lon="-121.937779"><ele>613.1</ele></trkpt><trkpt lat="37.888384" lon="-121.937195"><ele>618.7</ele></trkpt><trkpt lat="37.888298" lon="-121.936895"><ele>621.3</ele></trkpt><trkpt lat="37.888290" lon="-121.936819"><ele>621.8</ele></trkpt><trkpt lat="37.888340" lon="-121.936382"><ele>625.2</ele></trkpt><trkpt lat="37.888359" lon="-121.936321"><ele>625.8</ele></trkpt><trkpt lat="37.888396" lon="-121.936277"><ele>626.3</ele></trkpt><trkpt lat="37.888439" lon="-121.936255"><ele>626.8</ele></trkpt><trkpt lat="37.888518" lon="-121.936242"><ele>627.6</ele></trkpt><trkpt lat="37.888650" lon="-121.936259"><ele>628.9</ele></trkpt><trkpt lat="37.888690" lon="-121.936275"><ele>629.3</ele></trkpt><trkpt lat="37.888824" lon="-121.936277"><ele>630.6</ele></trkpt><trkpt lat="37.888922" lon="-121.936242"><ele>631.2</ele></trkpt><trkpt lat="37.889007" lon="-121.936189"><ele>631.7</ele></trkpt><trkpt lat="37.889083" lon="-121.936104"><ele>632.4</ele></trkpt><trkpt lat="37.889162" lon="-121.935953"><ele>633.2</ele></trkpt><trkpt lat="37.889223" lon="-121.935776"><ele>634.3</ele></trkpt><trkpt lat="37.889291" lon="-121.935526"><ele>636.0</ele></trkpt><trkpt lat="37.889429" lon="-121.935029"><ele>639.8</ele></trkpt><trkpt lat="37.889466" lon="-121.934946"><ele>640.6</ele></trkpt><trkpt lat="37.889467" lon="-121.934714"><ele>642.6</ele></trkpt><trkpt lat="37.889345" lon="-121.934482"><ele>644.9</ele></trkpt><trkpt lat="37.889108" lon="-121.934268"><ele>648.1</ele></trkpt><trkpt lat="37.888865" lon="-121.934036"><ele>650.8</ele></trkpt><trkpt lat="37.888602" lon="-121.934110"><ele>652.7</ele></trkpt><trkpt lat="37.888587" lon="-121.934131"><ele>652.8</ele></trkpt><trkpt lat="37.888289" lon="-121.934379"><ele>655.8</ele></trkpt><trkpt lat="37.887964" lon="-121.934800"><ele>659.8</ele></trkpt><trkpt lat="37.887760" lon="-121.935083"><ele>662.6</ele></trkpt><trkpt lat="37.887557" lon="-121.935143"><ele>664.5</ele></trkpt><trkpt lat="37.887158" lon="-121.935255"><ele>668.3</ele></trkpt><trkpt lat="37.886968" lon="-121.935229"><ele>669.9</ele></trkpt><trkpt lat="37.886704" lon="-121.935066"><ele>672.4</ele></trkpt><trkpt lat="37.886366" lon="-121.934925"><ele>675.1</ele></trkpt><trkpt lat="37.886252" lon="-121.934925"><ele>675.9</ele></trkpt><trkpt lat="37.886218" lon="-121.934957"><ele>676.2</ele></trkpt><trkpt lat="37.886202" lon="-121.934997"><ele>676.5</ele></trkpt><trkpt lat="37.886203" lon="-121.935080"><ele>676.9</ele></trkpt><trkpt lat="37.886224" lon="-121.935184"><ele>677.5</ele></trkpt><trkpt lat="37.886256" lon="-121.935286"><ele>678.0</ele></trkpt><trkpt lat="37.886310" lon="-121.935410"><ele>678.7</ele></trkpt><trkpt lat="37.886988" lon="-121.935856"><ele>683.4</ele></trkpt><trkpt lat="37.887124" lon="-121.936053"><ele>684.8</ele></trkpt><trkpt lat="37.887130" lon="-121.936259"><ele>685.9</ele></trkpt><trkpt lat="37.887042" lon="-121.936525"><ele>687.7</ele></trkpt><trkpt lat="37.886751" lon="-121.936834"><ele>691.6</ele></trkpt><trkpt lat="37.886473" lon="-121.936911"><ele>695.1</ele></trkpt><trkpt lat="37.886243" lon="-121.936826"><ele>698.4</ele></trkpt><trkpt lat="37.886013" lon="-121.936551"><ele>702.6</ele></trkpt><trkpt lat="37.885782" lon="-121.936276"><ele>706.5</ele></trkpt><trkpt lat="37.885586" lon="-121.936182"><ele>709.1</ele></trkpt><trkpt lat="37.885552" lon="-121.936170"><ele>709.6</ele></trkpt><trkpt lat="37.885486" lon="-121.936171"><ele>710.4</ele></trkpt><trkpt lat="37.885430" lon="-121.936191"><ele>711.1</ele></trkpt><trkpt lat="37.885399" lon="-121.936214"><ele>711.6</ele></trkpt><trkpt lat="37.885366" lon="-121.936252"><ele>712.1</ele></trkpt><trkpt lat="37.885343" lon="-121.936298"><ele>712.7</ele></trkpt><trkpt lat="37.885332" lon="-121.936351"><ele>713.2</ele></trkpt><trkpt lat="37.885334" lon="-121.936410"><ele>713.7</ele></trkpt><trkpt lat="37.885344" lon="-121.936468"><ele>714.0</ele></trkpt><trkpt lat="37.885406" lon="-121.936687"><ele>715.4</ele></trkpt><trkpt lat="37.885416" lon="-121.936766"><ele>715.9</ele></trkpt><trkpt lat="37.885471" lon="-121.937315"><ele>718.7</ele></trkpt><trkpt lat="37.885478" lon="-121.937650"><ele>720.2</ele></trkpt><trkpt lat="37.885552" lon="-121.937787"><ele>720.9</ele></trkpt><trkpt lat="37.885580" lon="-121.937851"><ele>721.3</ele></trkpt><trkpt lat="37.885616" lon="-121.937888"><ele>721.6</ele></trkpt><trkpt lat="37.885788" lon="-121.938014"><ele>722.8</ele></trkpt><trkpt lat="37.885956" lon="-121.938108"><ele>724.0</ele></trkpt><trkpt lat="37.886044" lon="-121.938169"><ele>725.0</ele></trkpt><trkpt lat="37.886179" lon="-121.938274"><ele>726.5</ele></trkpt><trkpt lat="37.886259" lon="-121.938357"><ele>727.5</ele></trkpt><trkpt lat="37.886334" lon="-121.938472"><ele>728.6</ele></trkpt><trkpt lat="37.886368" lon="-121.938559"><ele>729.3</ele></trkpt><trkpt lat="37.886378" lon="-121.938661"><ele>730.1</ele></trkpt><trkpt lat="37.886362" lon="-121.938746"><ele>730.7</ele></trkpt><trkpt lat="37.886338" lon="-121.938795"><ele>731.1</ele></trkpt><trkpt lat="37.886290" lon="-121.938857"><ele>731.7</ele></trkpt><trkpt lat="37.886198" lon="-121.938924"><ele>732.6</ele></trkpt><trkpt lat="37.886116" lon="-121.938962"><ele>733.4</ele></trkpt><trkpt lat="37.886005" lon="-121.938967"><ele>734.6</ele></trkpt><trkpt lat="37.885891" lon="-121.938961"><ele>736.1</ele></trkpt><trkpt lat="37.885767" lon="-121.938925"><ele>737.9</ele></trkpt><trkpt lat="37.885707" lon="-121.938918"><ele>738.7</ele></trkpt><trkpt lat="37.885512" lon="-121.938855"><ele>741.4</ele></trkpt><trkpt lat="37.885348" lon="-121.938772"><ele>743.9</ele></trkpt><trkpt lat="37.885168" lon="-121.938773"><ele>746.5</ele></trkpt><trkpt lat="37.885112" lon="-121.938796"><ele>747.3</ele></trkpt><trkpt lat="37.885080" lon="-121.938833"><ele>747.9</ele></trkpt><trkpt lat="37.885053" lon="-121.938881"><ele>748.6</ele></trkpt><trkpt lat="37.885019" lon="-121.939008"><ele>750.0</ele></trkpt><trkpt lat="37.884996" lon="-121.939050"><ele>750.5</ele></trkpt><trkpt lat="37.884974" lon="-121.939071"><ele>750.9</ele></trkpt><trkpt lat="37.884912" lon="-121.939088"><ele>751.7</ele></trkpt><trkpt lat="37.884871" lon="-121.939072"><ele>752.3</ele></trkpt><trkpt lat="37.884825" lon="-121.939033"><ele>753.0</ele></trkpt><trkpt lat="37.884779" lon="-121.938962"><ele>753.9</ele></trkpt><trkpt lat="37.884543" lon="-121.938577"><ele>758.2</ele></trkpt><trkpt lat="37.884421" lon="-121.938302"><ele>760.7</ele></trkpt><trkpt lat="37.884333" lon="-121.938293"><ele>761.6</ele></trkpt><trkpt lat="37.884218" lon="-121.938405"><ele>762.7</ele></trkpt><trkpt lat="37.884190" lon="-121.938783"><ele>765.1</ele></trkpt><trkpt lat="37.884306" lon="-121.939203"><ele>767.9</ele></trkpt><trkpt lat="37.884604" lon="-121.939898"><ele>774.2</ele></trkpt><trkpt lat="37.884658" lon="-121.940199"><ele>777.2</ele></trkpt><trkpt lat="37.884651" lon="-121.940491"><ele>780.5</ele></trkpt><trkpt lat="37.884509" lon="-121.940645"><ele>783.2</ele></trkpt><trkpt lat="37.884177" lon="-121.940697"><ele>788.5</ele></trkpt><trkpt lat="37.883757" lon="-121.940611"><ele>795.8</ele></trkpt><trkpt lat="37.883452" lon="-121.940405"><ele>802.1</ele></trkpt><trkpt lat="37.883222" lon="-121.940199"><ele>808.2</ele></trkpt><trkpt lat="37.883134" lon="-121.939813"><ele>815.2</ele></trkpt><trkpt lat="37.883059" lon="-121.939555"><ele>820.2</ele></trkpt><trkpt lat="37.882876" lon="-121.939229"><ele>827.3</ele></trkpt><trkpt lat="37.882748" lon="-121.939043"><ele>830.8</ele></trkpt><trkpt lat="37.882578" lon="-121.938817"><ele>835.3</ele></trkpt><trkpt lat="37.882422" lon="-121.938654"><ele>838.7</ele></trkpt><trkpt lat="37.882314" lon="-121.938474"><ele>841.5</ele></trkpt><trkpt lat="37.882212" lon="-121.938311"><ele>844.2</ele></trkpt><trkpt lat="37.882029" lon="-121.938250"><ele>847.6</ele></trkpt><trkpt lat="37.881718" lon="-121.938182"><ele>853.9</ele></trkpt><trkpt lat="37.881494" lon="-121.938173"><ele>857.8</ele></trkpt><trkpt lat="37.881325" lon="-121.938010"><ele>861.1</ele></trkpt><trkpt lat="37.881210" lon="-121.937581"><ele>866.1</ele></trkpt><trkpt lat="37.881217" lon="-121.937306"><ele>868.7</ele></trkpt><trkpt lat="37.881237" lon="-121.936851"><ele>872.6</ele></trkpt><trkpt lat="37.881115" lon="-121.936577"><ele>875.1</ele></trkpt><trkpt lat="37.880959" lon="-121.936379"><ele>877.6</ele></trkpt><trkpt lat="37.880858" lon="-121.936190"><ele>879.8</ele></trkpt><trkpt lat="37.880912" lon="-121.935839"><ele>883.1</ele></trkpt><trkpt lat="37.880790" lon="-121.935615"><ele>883.7</ele></trkpt><trkpt lat="37.880587" lon="-121.935504"><ele>884.3</ele></trkpt><trkpt lat="37.880478" lon="-121.935186"><ele>885.1</ele></trkpt><trkpt lat="37.880404" lon="-121.934989"><ele>885.6</ele></trkpt><trkpt lat="37.880309" lon="-121.934869"><ele>885.9</ele></trkpt><trkpt lat="37.880106" lon="-121.934894"><ele>885.9</ele></trkpt><trkpt lat="37.879855" lon="-121.934852"><ele>885.6</ele></trkpt><trkpt lat="37.879723" lon="-121.934831"><ele>885.4</ele></trkpt><trkpt lat="37.879601" lon="-121.934762"><ele>885.4</ele></trkpt><trkpt lat="37.879512" lon="-121.934681"><ele>885.3</ele></trkpt><trkpt lat="37.879433" lon="-121.934585"><ele>885.2</ele></trkpt><trkpt lat="37.879313" lon="-121.934412"><ele>885.1</ele></trkpt><trkpt lat="37.879248" lon="-121.934307"><ele>885.0</ele></trkpt><trkpt lat="37.879236" lon="-121.934294"><ele>885.0</ele></trkpt><trkpt lat="37.878818" lon="-121.933701"><ele>885.4</ele></trkpt><trkpt lat="37.878777" lon="-121.933612"><ele>885.7</ele></trkpt><trkpt lat="37.878695" lon="-121.933437"><ele>886.3</ele></trkpt><trkpt lat="37.878685" lon="-121.933370"><ele>886.5</ele></trkpt><trkpt lat="37.878637" lon="-121.933244"><ele>887.0</ele></trkpt><trkpt lat="37.878584" lon="-121.933074"><ele>887.8</ele></trkpt><trkpt lat="37.878575" lon="-121.933052"><ele>887.9</ele></trkpt><trkpt lat="37.878538" lon="-121.932964"><ele>888.3</ele></trkpt><trkpt lat="37.878523" lon="-121.932943"><ele>888.4</ele></trkpt><trkpt lat="37.878473" lon="-121.932879"><ele>888.8</ele></trkpt><trkpt lat="37.878460" lon="-121.932862"><ele>888.9</ele></trkpt><trkpt lat="37.878412" lon="-121.932814"><ele>889.2</ele></trkpt><trkpt lat="37.878348" lon="-121.932750"><ele>889.5</ele></trkpt><trkpt lat="37.878272" lon="-121.932675"><ele>889.8</ele></trkpt><trkpt lat="37.878269" lon="-121.932672"><ele>889.8</ele></trkpt><trkpt lat="37.878184" lon="-121.932594"><ele>890.1</ele></trkpt><trkpt lat="37.878137" lon="-121.932539"><ele>890.3</ele></trkpt><trkpt lat="37.878094" lon="-121.932480"><ele>890.4</ele></trkpt><trkpt lat="37.878079" lon="-121.932456"><ele>890.5</ele></trkpt><trkpt lat="37.878055" lon="-121.932419"><ele>890.6</ele></trkpt><trkpt lat="37.878038" lon="-121.932390"><ele>890.7</ele></trkpt><trkpt lat="37.877982" lon="-121.932300"><ele>891.0</ele></trkpt><trkpt lat="37.877966" lon="-121.932274"><ele>891.1</ele></trkpt><trkpt lat="37.877894" lon="-121.932149"><ele>891.8</ele></trkpt><trkpt lat="37.877854" lon="-121.932080"><ele>892.2</ele></trkpt><trkpt lat="37.877822" lon="-121.932033"><ele>892.5</ele></trkpt><trkpt lat="37.877789" lon="-121.931971"><ele>892.8</ele></trkpt><trkpt lat="37.877770" lon="-121.931929"><ele>893.0</ele></trkpt><trkpt lat="37.877753" lon="-121.931877"><ele>893.3</ele></trkpt><trkpt lat="37.877746" lon="-121.931802"><ele>893.6</ele></trkpt><trkpt lat="37.877741" lon="-121.931672"><ele>894.0</ele></trkpt><trkpt lat="37.877739" lon="-121.931650"><ele>894.0</ele></trkpt><trkpt lat="37.877728" lon="-121.931531"><ele>894.0</ele></trkpt><trkpt lat="37.877719" lon="-121.931494"><ele>894.0</ele></trkpt><trkpt lat="37.877707" lon="-121.931458"><ele>894.0</ele></trkpt></trkseg></trk>
</gpx>