<?xml version="1.0" encoding="UTF-8"?>
<gpx version="1.1" creator="north-bay-planning" xmlns="http://www.topografix.com/GPX/1/1">
<metadata><name>Mount Diablo overnight day 2</name><desc>Day 2 Juniper to Walnut Creek BART</desc></metadata>
<wpt lat="37.878500" lon="-121.931000"><name>Juniper Campground</name><desc>ReserveCalifornia, $30.</desc></wpt>
<trk><name>Day 2 Juniper to Walnut Creek BART</name><trkseg><trkpt lat="37.877707" lon="-121.931458"><ele>905.6</ele></trkpt><trkpt lat="37.877707" lon="-121.931458"><ele>905.6</ele></trkpt><trkpt lat="37.877674" lon="-121.931389"><ele>905.7</ele></trkpt><trkpt lat="37.877636" lon="-121.931321"><ele>905.9</ele></trkpt><trkpt lat="37.877632" lon="-121.931314"><ele>905.9</ele></trkpt><trkpt lat="37.877599" lon="-121.931264"><ele>906.0</ele></trkpt><trkpt lat="37.877576" lon="-121.931233"><ele>906.1</ele></trkpt><trkpt lat="37.877506" lon="-121.931161"><ele>906.3</ele></trkpt><trkpt lat="37.877354" lon="-121.930990"><ele>906.7</ele></trkpt><trkpt lat="37.877318" lon="-121.930958"><ele>906.9</ele></trkpt><trkpt lat="37.877278" lon="-121.930928"><ele>907.1</ele></trkpt><trkpt lat="37.877251" lon="-121.930914"><ele>907.3</ele></trkpt><trkpt lat="37.877173" lon="-121.930874"><ele>907.7</ele></trkpt><trkpt lat="37.876950" lon="-121.930813"><ele>908.8</ele></trkpt><trkpt lat="37.876836" lon="-121.930778"><ele>909.4</ele></trkpt><trkpt lat="37.876771" lon="-121.930739"><ele>909.9</ele></trkpt><trkpt lat="37.876795" lon="-121.930671"><ele>910.4</ele></trkpt><trkpt lat="37.876808" lon="-121.930603"><ele>910.8</ele></trkpt><trkpt lat="37.876807" lon="-121.930511"><ele>911.4</ele></trkpt><trkpt lat="37.876800" lon="-121.930458"><ele>911.7</ele></trkpt><trkpt lat="37.876790" lon="-121.930417"><ele>912.0</ele></trkpt><trkpt lat="37.876759" lon="-121.930344"><ele>912.5</ele></trkpt><trkpt lat="37.876737" lon="-121.930312"><ele>912.8</ele></trkpt><trkpt lat="37.876661" lon="-121.930209"><ele>913.7</ele></trkpt><trkpt lat="37.876577" lon="-121.930086"><ele>914.2</ele></trkpt><trkpt lat="37.876522" lon="-121.929977"><ele>914.5</ele></trkpt><trkpt lat="37.876473" lon="-121.929851"><ele>914.9</ele></trkpt><trkpt lat="37.876402" lon="-121.929620"><ele>915.6</ele></trkpt><trkpt lat="37.876375" lon="-121.929556"><ele>915.9</ele></trkpt><trkpt lat="37.876343" lon="-121.929494"><ele>916.2</ele></trkpt><trkpt lat="37.876307" lon="-121.929435"><ele>916.5</ele></trkpt><trkpt lat="37.876268" lon="-121.929382"><ele>916.9</ele></trkpt><trkpt lat="37.876194" lon="-121.929311"><ele>917.4</ele></trkpt><trkpt lat="37.876107" lon="-121.929262"><ele>917.9</ele></trkpt><trkpt lat="37.876037" lon="-121.929246"><ele>918.3</ele></trkpt><trkpt lat="37.875968" lon="-121.929235"><ele>918.7</ele></trkpt><trkpt lat="37.875706" lon="-121.929235"><ele>920.7</ele></trkpt><trkpt lat="37.875569" lon="-121.929217"><ele>921.8</ele></trkpt><trkpt lat="37.875432" lon="-121.929186"><ele>922.9</ele></trkpt><trkpt lat="37.875289" lon="-121.929136"><ele>923.7</ele></trkpt><trkpt lat="37.875232" lon="-121.929084"><ele>924.1</ele></trkpt><trkpt lat="37.875192" lon="-121.929014"><ele>924.5</ele></trkpt><trkpt lat="37.875176" lon="-121.928927"><ele>924.9</ele></trkpt><trkpt lat="37.875197" lon="-121.928747"><ele>925.7</ele></trkpt><trkpt lat="37.875245" lon="-121.928563"><ele>926.7</ele></trkpt><trkpt lat="37.875284" lon="-121.928318"><ele>928.1</ele></trkpt><trkpt lat="37.875279" lon="-121.928194"><ele>928.8</ele></trkpt><trkpt lat="37.875176" lon="-121.927629"><ele>933.1</ele></trkpt><trkpt lat="37.875169" lon="-121.927392"><ele>935.1</ele></trkpt><trkpt lat="37.875189" lon="-121.927294"><ele>935.9</ele></trkpt><trkpt lat="37.875262" lon="-121.927098"><ele>937.5</ele></trkpt><trkpt lat="37.875467" lon="-121.926697"><ele>941.2</ele></trkpt><trkpt lat="37.875492" lon="-121.926614"><ele>941.8</ele></trkpt><trkpt lat="37.875508" lon="-121.926528"><ele>942.4</ele></trkpt><trkpt lat="37.875496" lon="-121.926465"><ele>942.9</ele></trkpt><trkpt lat="37.875464" lon="-121.926417"><ele>943.3</ele></trkpt><trkpt lat="37.875396" lon="-121.926382"><ele>944.0</ele></trkpt><trkpt lat="37.875224" lon="-121.926285"><ele>945.7</ele></trkpt><trkpt lat="37.875142" lon="-121.926197"><ele>946.8</ele></trkpt><trkpt lat="37.875077" lon="-121.926089"><ele>947.9</ele></trkpt><trkpt lat="37.875014" lon="-121.925913"><ele>949.5</ele></trkpt><trkpt lat="37.874988" lon="-121.925746"><ele>950.9</ele></trkpt><trkpt lat="37.875008" lon="-121.925568"><ele>952.2</ele></trkpt><trkpt lat="37.875071" lon="-121.925405"><ele>953.4</ele></trkpt><trkpt lat="37.875200" lon="-121.925216"><ele>955.2</ele></trkpt><trkpt lat="37.875330" lon="-121.925096"><ele>956.7</ele></trkpt><trkpt lat="37.875887" lon="-121.924765"><ele>962.7</ele></trkpt><trkpt lat="37.875932" lon="-121.924727"><ele>963.2</ele></trkpt><trkpt lat="37.875970" lon="-121.924676"><ele>963.8</ele></trkpt><trkpt lat="37.875990" lon="-121.924616"><ele>964.3</ele></trkpt><trkpt lat="37.876004" lon="-121.924533"><ele>965.0</ele></trkpt><trkpt lat="37.875993" lon="-121.924440"><ele>965.8</ele></trkpt><trkpt lat="37.875974" lon="-121.924358"><ele>966.5</ele></trkpt><trkpt lat="37.875916" lon="-121.924249"><ele>967.4</ele></trkpt><trkpt lat="37.875703" lon="-121.923926"><ele>970.6</ele></trkpt><trkpt lat="37.875637" lon="-121.923791"><ele>971.7</ele></trkpt><trkpt lat="37.875589" lon="-121.923621"><ele>972.6</ele></trkpt><trkpt lat="37.875581" lon="-121.923508"><ele>973.2</ele></trkpt><trkpt lat="37.875588" lon="-121.923418"><ele>973.6</ele></trkpt><trkpt lat="37.875641" lon="-121.923225"><ele>974.6</ele></trkpt><trkpt lat="37.875777" lon="-121.922878"><ele>976.7</ele></trkpt><trkpt lat="37.875823" lon="-121.922695"><ele>977.7</ele></trkpt><trkpt lat="37.875823" lon="-121.922457"><ele>979.1</ele></trkpt><trkpt lat="37.875702" lon="-121.921617"><ele>985.8</ele></trkpt><trkpt lat="37.875701" lon="-121.921414"><ele>987.5</ele></trkpt><trkpt lat="37.875723" lon="-121.921305"><ele>988.4</ele></trkpt><trkpt lat="37.875803" lon="-121.921127"><ele>990.0</ele></trkpt><trkpt lat="37.875878" lon="-121.921031"><ele>990.9</ele></trkpt><trkpt lat="37.875977" lon="-121.920948"><ele>991.8</ele></trkpt><trkpt lat="37.876087" lon="-121.920889"><ele>992.8</ele></trkpt><trkpt lat="37.876402" lon="-121.920728"><ele>996.3</ele></trkpt><trkpt lat="37.876509" lon="-121.920635"><ele>997.9</ele></trkpt><trkpt lat="37.876579" lon="-121.920549"><ele>999.2</ele></trkpt><trkpt lat="37.876713" lon="-121.920360"><ele>1001.7</ele></trkpt><trkpt lat="37.876837" lon="-121.919995"><ele>1005.8</ele></trkpt><trkpt lat="37.876942" lon="-121.919765"><ele>1008.2</ele></trkpt><trkpt lat="37.877097" lon="-121.919631"><ele>1009.7</ele></trkpt><trkpt lat="37.877336" lon="-121.919551"><ele>1011.6</ele></trkpt><trkpt lat="37.877447" lon="-121.919483"><ele>1012.5</ele></trkpt><trkpt lat="37.877542" lon="-121.919386"><ele>1013.4</ele></trkpt><trkpt lat="37.877622" lon="-121.919275"><ele>1014.3</ele></trkpt><trkpt lat="37.877669" lon="-121.919153"><ele>1015.1</ele></trkpt><trkpt lat="37.877729" lon="-121.918713"><ele>1019.7</ele></trkpt><trkpt lat="37.877830" lon="-121.918444"><ele>1023.4</ele></trkpt><trkpt lat="37.878019" lon="-121.918027"><ele>1027.2</ele></trkpt><trkpt lat="37.878092" lon="-121.917919"><ele>1028.2</ele></trkpt><trkpt lat="37.878139" lon="-121.917878"><ele>1028.7</ele></trkpt><trkpt lat="37.878229" lon="-121.917844"><ele>1029.5</ele></trkpt><trkpt lat="37.878699" lon="-121.917860"><ele>1033.0</ele></trkpt><trkpt lat="37.878770" lon="-121.917849"><ele>1033.6</ele></trkpt><trkpt lat="37.878839" lon="-121.917824"><ele>1034.2</ele></trkpt><trkpt lat="37.878900" lon="-121.917779"><ele>1034.9</ele></trkpt><trkpt lat="37.878954" lon="-121.917713"><ele>1035.5</ele></trkpt><trkpt lat="37.878983" lon="-121.917637"><ele>1036.1</ele></trkpt><trkpt lat="37.878997" lon="-121.917552"><ele>1036.8</ele></trkpt><trkpt lat="37.878999" lon="-121.917412"><ele>1037.8</ele></trkpt><trkpt lat="37.879016" lon="-121.917277"><ele>1038.9</ele></trkpt><trkpt lat="37.879042" lon="-121.917160"><ele>1039.9</ele></trkpt><trkpt lat="37.879082" lon="-121.917062"><ele>1040.9</ele></trkpt><trkpt lat="37.879108" lon="-121.916985"><ele>1041.6</ele></trkpt><trkpt lat="37.879121" lon="-121.916902"><ele>1042.3</ele></trkpt><trkpt lat="37.879118" lon="-121.916840"><ele>1042.8</ele></trkpt><trkpt lat="37.879111" lon="-121.916786"><ele>1043.3</ele></trkpt><trkpt lat="37.879068" lon="-121.916580"><ele>1044.6</ele></trkpt><trkpt lat="37.879052" lon="-121.916473"><ele>1045.1</ele></trkpt><trkpt lat="37.879046" lon="-121.916366"><ele>1045.6</ele></trkpt><trkpt lat="37.879048" lon="-121.916167"><ele>1046.6</ele></trkpt><trkpt lat="37.879056" lon="-121.916070"><ele>1047.1</ele></trkpt><trkpt lat="37.879075" lon="-121.915980"><ele>1047.5</ele></trkpt><trkpt lat="37.879094" lon="-121.915898"><ele>1047.9</ele></trkpt><trkpt lat="37.879121" lon="-121.915820"><ele>1048.3</ele></trkpt><trkpt lat="37.879182" lon="-121.915695"><ele>1048.9</ele></trkpt><trkpt lat="37.879256" lon="-121.915578"><ele>1049.6</ele></trkpt><trkpt lat="37.879355" lon="-121.915432"><ele>1050.5</ele></trkpt><trkpt lat="37.879431" lon="-121.915312"><ele>1051.6</ele></trkpt><trkpt lat="37.879497" lon="-121.915177"><ele>1052.6</ele></trkpt><trkpt lat="37.879546" lon="-121.915056"><ele>1053.6</ele></trkpt><trkpt lat="37.879569" lon="-121.914950"><ele>1054.3</ele></trkpt><trkpt lat="37.879580" lon="-121.914840"><ele>1055.1</ele></trkpt><trkpt lat="37.879569" lon="-121.914724"><ele>1056.2</ele></trkpt><trkpt lat="37.879495" lon="-121.914429"><ele>1059.2</ele></trkpt><trkpt lat="37.879485" lon="-121.914376"><ele>1059.7</ele></trkpt><trkpt lat="37.879484" lon="-121.914326"><ele>1060.2</ele></trkpt><trkpt lat="37.879486" lon="-121.914277"><ele>1060.7</ele></trkpt><trkpt lat="37.879496" lon="-121.914236"><ele>1061.1</ele></trkpt><trkpt lat="37.879528" lon="-121.914167"><ele>1061.8</ele></trkpt><trkpt lat="37.879548" lon="-121.914144"><ele>1062.0</ele></trkpt><trkpt lat="37.879575" lon="-121.914127"><ele>1062.2</ele></trkpt><trkpt lat="37.879646" lon="-121.914102"><ele>1062.8</ele></trkpt><trkpt lat="37.879686" lon="-121.914125"><ele>1063.2</ele></trkpt><trkpt lat="37.879723" lon="-121.914178"><ele>1063.6</ele></trkpt><trkpt lat="37.879747" lon="-121.914266"><ele>1064.2</ele></trkpt><trkpt lat="37.879766" lon="-121.914416"><ele>1065.2</ele></trkpt><trkpt lat="37.879799" lon="-121.914801"><ele>1066.9</ele></trkpt><trkpt lat="37.879796" lon="-121.915092"><ele>1067.9</ele></trkpt><trkpt lat="37.879776" lon="-121.915312"><ele>1069.2</ele></trkpt><trkpt lat="37.879712" lon="-121.915765"><ele>1073.2</ele></trkpt><trkpt lat="37.879648" lon="-121.916050"><ele>1075.3</ele></trkpt><trkpt lat="37.879635" lon="-121.916159"><ele>1076.0</ele></trkpt><trkpt lat="37.879632" lon="-121.916265"><ele>1076.7</ele></trkpt><trkpt lat="37.879650" lon="-121.916427"><ele>1077.8</ele></trkpt><trkpt lat="37.879746" lon="-121.916937"><ele>1079.7</ele></trkpt><trkpt lat="37.879755" lon="-121.917036"><ele>1080.0</ele></trkpt><trkpt lat="37.879751" lon="-121.917135"><ele>1080.3</ele></trkpt><trkpt lat="37.879678" lon="-121.917431"><ele>1081.3</ele></trkpt><trkpt lat="37.879667" lon="-121.917510"><ele>1081.6</ele></trkpt><trkpt lat="37.879671" lon="-121.917588"><ele>1081.9</ele></trkpt><trkpt lat="37.879810" lon="-121.918018"><ele>1083.1</ele></trkpt><trkpt lat="37.879820" lon="-121.918105"><ele>1083.2</ele></trkpt><trkpt lat="37.879807" lon="-121.918193"><ele>1083.3</ele></trkpt><trkpt lat="37.879779" lon="-121.918281"><ele>1083.3</ele></trkpt><trkpt lat="37.879648" lon="-121.918571"><ele>1083.7</ele></trkpt><trkpt lat="37.879587" lon="-121.918641"><ele>1083.9</ele></trkpt><trkpt lat="37.879447" lon="-121.918733"><ele>1084.2</ele></trkpt><trkpt lat="37.878982" lon="-121.918950"><ele>1086.1</ele></trkpt><trkpt lat="37.878883" lon="-121.919020"><ele>1086.7</ele></trkpt><trkpt lat="37.878815" lon="-121.919111"><ele>1087.2</ele></trkpt><trkpt lat="37.878774" lon="-121.919228"><ele>1087.8</ele></trkpt><trkpt lat="37.878763" lon="-121.919311"><ele>1088.3</ele></trkpt><trkpt lat="37.878758" lon="-121.919399"><ele>1088.8</ele></trkpt><trkpt lat="37.878784" lon="-121.919795"><ele>1091.1</ele></trkpt><trkpt lat="37.878820" lon="-121.920027"><ele>1092.4</ele></trkpt><trkpt lat="37.878855" lon="-121.920067"><ele>1092.7</ele></trkpt><trkpt lat="37.878892" lon="-121.920094"><ele>1093.0</ele></trkpt><trkpt lat="37.879008" lon="-121.920124"><ele>1093.8</ele></trkpt><trkpt lat="37.879128" lon="-121.920180"><ele>1094.6</ele></trkpt><trkpt lat="37.879193" lon="-121.920218"><ele>1095.1</ele></trkpt><trkpt lat="37.879355" lon="-121.920328"><ele>1097.1</ele></trkpt><trkpt lat="37.879863" lon="-121.920408"><ele>1102.3</ele></trkpt><trkpt lat="37.880140" lon="-121.920540"><ele>1104.3</ele></trkpt><trkpt lat="37.880257" lon="-121.920644"><ele>1105.2</ele></trkpt><trkpt lat="37.880500" lon="-121.921069"><ele>1107.5</ele></trkpt><trkpt lat="37.880572" lon="-121.921146"><ele>1108.0</ele></trkpt><trkpt lat="37.880667" lon="-121.921187"><ele>1108.7</ele></trkpt><trkpt lat="37.880761" lon="-121.921167"><ele>1109.4</ele></trkpt><trkpt lat="37.880842" lon="-121.921095"><ele>1110.2</ele></trkpt><trkpt lat="37.880888" lon="-121.921000"><ele>1110.8</ele></trkpt><trkpt lat="37.880917" lon="-121.920860"><ele>1111.7</ele></trkpt><trkpt lat="37.880926" lon="-121.920547"><ele>1112.8</ele></trkpt><trkpt lat="37.880932" lon="-121.920359"><ele>1113.4</ele></trkpt><trkpt lat="37.880877" lon="-121.919623"><ele>1117.3</ele></trkpt><trkpt lat="37.880883" lon="-121.919533"><ele>1117.9</ele></trkpt><trkpt lat="37.880909" lon="-121.919426"><ele>1118.5</ele></trkpt><trkpt lat="37.880955" lon="-121.919344"><ele>1119.0</ele></trkpt><trkpt lat="37.881041" lon="-121.919264"><ele>1119.7</ele></trkpt><trkpt lat="37.881223" lon="-121.919144"><ele>1120.9</ele></trkpt><trkpt lat="37.881269" lon="-121.919077"><ele>1121.3</ele></trkpt><trkpt lat="37.881306" lon="-121.918962"><ele>1121.9</ele></trkpt><trkpt lat="37.881314" lon="-121.918792"><ele>1122.7</ele></trkpt><trkpt lat="37.881294" lon="-121.918520"><ele>1123.9</ele></trkpt><trkpt lat="37.881258" lon="-121.918274"><ele>1125.1</ele></trkpt><trkpt lat="37.881222" lon="-121.918158"><ele>1125.9</ele></trkpt><trkpt lat="37.881169" lon="-121.918054"><ele>1126.6</ele></trkpt><trkpt lat="37.881114" lon="-121.917971"><ele>1127.2</ele></trkpt><trkpt lat="37.880966" lon="-121.917765"><ele>1128.9</ele></trkpt><trkpt lat="37.880911" lon="-121.917658"><ele>1130.1</ele></trkpt><trkpt lat="37.880869" lon="-121.917553"><ele>1131.2</ele></trkpt><trkpt lat="37.880843" lon="-121.917403"><ele>1132.6</ele></trkpt><trkpt lat="37.880823" lon="-121.917244"><ele>1134.1</ele></trkpt><trkpt lat="37.880821" lon="-121.917092"><ele>1135.4</ele></trkpt><trkpt lat="37.880826" lon="-121.917035"><ele>1135.9</ele></trkpt><trkpt lat="37.880829" lon="-121.917008"><ele>1136.1</ele></trkpt><trkpt lat="37.880874" lon="-121.916612"><ele>1139.4</ele></trkpt><trkpt lat="37.880942" lon="-121.916299"><ele>1142.1</ele></trkpt><trkpt lat="37.881235" lon="-121.915435"><ele>1150.0</ele></trkpt><trkpt lat="37.881478" lon="-121.914981"><ele>1153.5</ele></trkpt><trkpt lat="37.881538" lon="-121.914840"><ele>1154.3</ele></trkpt><trkpt lat="37.881580" lon="-121.914770"><ele>1154.8</ele></trkpt><trkpt lat="37.881562" lon="-121.914743"><ele>1154.9</ele></trkpt><trkpt lat="37.881549" lon="-121.914656"><ele>1155.4</ele></trkpt><trkpt lat="37.881557" lon="-121.914497"><ele>1155.6</ele></trkpt><trkpt lat="37.881563" lon="-121.914480"><ele>1155.6</ele></trkpt><trkpt lat="37.881557" lon="-121.914497"><ele>1155.7</ele></trkpt><trkpt lat="37.881549" lon="-121.914656"><ele>1155.8</ele></trkpt><trkpt lat="37.881562" lon="-121.914743"><ele>1155.9</ele></trkpt><trkpt lat="37.881580" lon="-121.914770"><ele>1155.9</ele></trkpt><trkpt lat="37.881632" lon="-121.914706"><ele>1156.0</ele></trkpt><trkpt lat="37.881637" lon="-121.914621"><ele>1156.1</ele></trkpt><trkpt lat="37.881646" lon="-121.914575"><ele>1156.1</ele></trkpt><trkpt lat="37.881662" lon="-121.914548"><ele>1156.0</ele></trkpt><trkpt lat="37.881686" lon="-121.914533"><ele>1155.9</ele></trkpt><trkpt lat="37.881729" lon="-121.914530"><ele>1155.8</ele></trkpt><trkpt lat="37.881767" lon="-121.914550"><ele>1155.6</ele></trkpt><trkpt lat="37.881771" lon="-121.914598"><ele>1155.5</ele></trkpt><trkpt lat="37.881760" lon="-121.914698"><ele>1155.2</ele></trkpt><trkpt lat="37.881736" lon="-121.914751"><ele>1155.0</ele></trkpt><trkpt lat="37.881715" lon="-121.914899"><ele>1154.6</ele></trkpt><trkpt lat="37.881668" lon="-121.915020"><ele>1154.3</ele></trkpt><trkpt lat="37.881634" lon="-121.915192"><ele>1153.4</ele></trkpt><trkpt lat="37.881633" lon="-121.915351"><ele>1152.5</ele></trkpt><trkpt lat="37.881631" lon="-121.915598"><ele>1151.2</ele></trkpt><trkpt lat="37.881482" lon="-121.915994"><ele>1148.0</ele></trkpt><trkpt lat="37.881407" lon="-121.916390"><ele>1144.6</ele></trkpt><trkpt lat="37.881335" lon="-121.916544"><ele>1142.7</ele></trkpt><trkpt lat="37.881267" lon="-121.916646"><ele>1141.4</ele></trkpt><trkpt lat="37.880966" lon="-121.917029"><ele>1136.3</ele></trkpt><trkpt lat="37.880961" lon="-121.917036"><ele>1136.2</ele></trkpt><trkpt lat="37.880869" lon="-121.917154"><ele>1134.9</ele></trkpt><trkpt lat="37.880823" lon="-121.917244"><ele>1134.0</ele></trkpt><trkpt lat="37.880843" lon="-121.917403"><ele>1132.7</ele></trkpt><trkpt lat="37.880869" lon="-121.917553"><ele>1131.6</ele></trkpt><trkpt lat="37.880911" lon="-121.917658"><ele>1130.8</ele></trkpt><trkpt lat="37.880966" lon="-121.917765"><ele>1129.9</ele></trkpt><trkpt lat="37.881114" lon="-121.917971"><ele>1128.0</ele></trkpt><trkpt lat="37.881169" lon="-121.918054"><ele>1127.3</ele></trkpt><trkpt lat="37.881222" lon="-121.918158"><ele>1126.6</ele></trkpt><trkpt lat="37.881258" lon="-121.918274"><ele>1125.8</ele></trkpt><trkpt lat="37.881294" lon="-121.918520"><ele>1124.4</ele></trkpt><trkpt lat="37.881314" lon="-121.918792"><ele>1123.0</ele></trkpt><trkpt lat="37.881306" lon="-121.918962"><ele>1122.3</ele></trkpt><trkpt lat="37.881269" lon="-121.919077"><ele>1121.7</ele></trkpt><trkpt lat="37.881223" lon="-121.919144"><ele>1121.3</ele></trkpt><trkpt lat="37.881041" lon="-121.919264"><ele>1120.0</ele></trkpt><trkpt lat="37.880955" lon="-121.919344"><ele>1119.3</ele></trkpt><trkpt lat="37.880909" lon="-121.919426"><ele>1118.7</ele></trkpt><trkpt lat="37.880883" lon="-121.919533"><ele>1118.1</ele></trkpt><trkpt lat="37.880877" lon="-121.919623"><ele>1117.7</ele></trkpt><trkpt lat="37.880932" lon="-121.920359"><ele>1113.5</ele></trkpt><trkpt lat="37.880926" lon="-121.920547"><ele>1112.5</ele></trkpt><trkpt lat="37.880917" lon="-121.920860"><ele>1110.9</ele></trkpt><trkpt lat="37.880888" lon="-121.921000"><ele>1110.2</ele></trkpt><trkpt lat="37.880842" lon="-121.921095"><ele>1109.7</ele></trkpt><trkpt lat="37.880761" lon="-121.921167"><ele>1109.1</ele></trkpt><trkpt lat="37.880667" lon="-121.921187"><ele>1108.6</ele></trkpt><trkpt lat="37.880572" lon="-121.921146"><ele>1108.0</ele></trkpt><trkpt lat="37.880500" lon="-121.921069"><ele>1107.5</ele></trkpt><trkpt lat="37.880257" lon="-121.920644"><ele>1104.9</ele></trkpt><trkpt lat="37.880140" lon="-121.920540"><ele>1103.9</ele></trkpt><trkpt lat="37.879863" lon="-121.920408"><ele>1101.7</ele></trkpt><trkpt lat="37.879355" lon="-121.920328"><ele>1097.5</ele></trkpt><trkpt lat="37.879193" lon="-121.920218"><ele>1095.9</ele></trkpt><trkpt lat="37.879128" lon="-121.920180"><ele>1095.2</ele></trkpt><trkpt lat="37.879008" lon="-121.920124"><ele>1094.0</ele></trkpt><trkpt lat="37.878892" lon="-121.920094"><ele>1093.2</ele></trkpt><trkpt lat="37.878855" lon="-121.920067"><ele>1092.9</ele></trkpt><trkpt lat="37.878820" lon="-121.920027"><ele>1092.6</ele></trkpt><trkpt lat="37.878784" lon="-121.919795"><ele>1091.3</ele></trkpt><trkpt lat="37.878758" lon="-121.919399"><ele>1089.5</ele></trkpt><trkpt lat="37.878763" lon="-121.919311"><ele>1089.1</ele></trkpt><trkpt lat="37.878774" lon="-121.919228"><ele>1088.8</ele></trkpt><trkpt lat="37.878815" lon="-121.919111"><ele>1088.3</ele></trkpt><trkpt lat="37.878883" lon="-121.919020"><ele>1087.8</ele></trkpt><trkpt lat="37.878982" lon="-121.918950"><ele>1087.3</ele></trkpt><trkpt lat="37.879447" lon="-121.918733"><ele>1085.1</ele></trkpt><trkpt lat="37.879587" lon="-121.918641"><ele>1084.8</ele></trkpt><trkpt lat="37.879648" lon="-121.918571"><ele>1084.7</ele></trkpt><trkpt lat="37.879779" lon="-121.918281"><ele>1084.2</ele></trkpt><trkpt lat="37.879807" lon="-121.918193"><ele>1084.0</ele></trkpt><trkpt lat="37.879820" lon="-121.918105"><ele>1083.7</ele></trkpt><trkpt lat="37.879810" lon="-121.918018"><ele>1083.5</ele></trkpt><trkpt lat="37.879671" lon="-121.917588"><ele>1082.3</ele></trkpt><trkpt lat="37.879667" lon="-121.917510"><ele>1082.0</ele></trkpt><trkpt lat="37.879678" lon="-121.917431"><ele>1081.8</ele></trkpt><trkpt lat="37.879751" lon="-121.917135"><ele>1080.8</ele></trkpt><trkpt lat="37.879755" lon="-121.917036"><ele>1080.5</ele></trkpt><trkpt lat="37.879746" lon="-121.916937"><ele>1080.2</ele></trkpt><trkpt lat="37.879650" lon="-121.916427"><ele>1077.3</ele></trkpt><trkpt lat="37.879632" lon="-121.916265"><ele>1076.4</ele></trkpt><trkpt lat="37.879635" lon="-121.916159"><ele>1075.8</ele></trkpt><trkpt lat="37.879648" lon="-121.916050"><ele>1075.1</ele></trkpt><trkpt lat="37.879712" lon="-121.915765"><ele>1073.2</ele></trkpt><trkpt lat="37.879776" lon="-121.915312"><ele>1070.1</ele></trkpt><trkpt lat="37.879796" lon="-121.915092"><ele>1068.5</ele></trkpt><trkpt lat="37.879799" lon="-121.914801"><ele>1067.0</ele></trkpt><trkpt lat="37.879766" lon="-121.914416"><ele>1065.8</ele></trkpt><trkpt lat="37.879747" lon="-121.914266"><ele>1065.3</ele></trkpt><trkpt lat="37.879723" lon="-121.914178"><ele>1064.5</ele></trkpt><trkpt lat="37.879686" lon="-121.914125"><ele>1063.8</ele></trkpt><trkpt lat="37.879646" lon="-121.914102"><ele>1063.3</ele></trkpt><trkpt lat="37.879575" lon="-121.914127"><ele>1062.4</ele></trkpt><trkpt lat="37.879548" lon="-121.914144"><ele>1062.1</ele></trkpt><trkpt lat="37.879528" lon="-121.914167"><ele>1061.7</ele></trkpt><trkpt lat="37.879496" lon="-121.914236"><ele>1061.0</ele></trkpt><trkpt lat="37.879486" lon="-121.914277"><ele>1060.6</ele></trkpt><trkpt lat="37.879484" lon="-121.914326"><ele>1060.1</ele></trkpt><trkpt lat="37.879485" lon="-121.914376"><ele>1059.6</ele></trkpt><trkpt lat="37.879495" lon="-121.914429"><ele>1059.1</ele></trkpt><trkpt lat="37.879569" lon="-121.914724"><ele>1056.5</ele></trkpt><trkpt lat="37.879580" lon="-121.914840"><ele>1055.6</ele></trkpt><trkpt lat="37.879569" lon="-121.914950"><ele>1054.6</ele></trkpt><trkpt lat="37.879546" lon="-121.915056"><ele>1053.7</ele></trkpt><trkpt lat="37.879497" lon="-121.915177"><ele>1052.7</ele></trkpt><trkpt lat="37.879431" lon="-121.915312"><ele>1051.7</ele></trkpt><trkpt lat="37.879355" lon="-121.915432"><ele>1050.7</ele></trkpt><trkpt lat="37.879256" lon="-121.915578"><ele>1049.5</ele></trkpt><trkpt lat="37.879182" lon="-121.915695"><ele>1048.7</ele></trkpt><trkpt lat="37.879121" lon="-121.915820"><ele>1048.3</ele></trkpt><trkpt lat="37.879094" lon="-121.915898"><ele>1048.1</ele></trkpt><trkpt lat="37.879075" lon="-121.915980"><ele>1047.9</ele></trkpt><trkpt lat="37.879056" lon="-121.916070"><ele>1047.6</ele></trkpt><trkpt lat="37.879048" lon="-121.916167"><ele>1047.4</ele></trkpt><trkpt lat="37.879046" lon="-121.916366"><ele>1046.5</ele></trkpt><trkpt lat="37.879052" lon="-121.916473"><ele>1045.8</ele></trkpt><trkpt lat="37.879068" lon="-121.916580"><ele>1045.0</ele></trkpt><trkpt lat="37.879111" lon="-121.916786"><ele>1043.4</ele></trkpt><trkpt lat="37.879118" lon="-121.916840"><ele>1043.0</ele></trkpt><trkpt lat="37.879121" lon="-121.916902"><ele>1042.6</ele></trkpt><trkpt lat="37.879108" lon="-121.916985"><ele>1042.0</ele></trkpt><trkpt lat="37.879082" lon="-121.917062"><ele>1041.4</ele></trkpt><trkpt lat="37.879042" lon="-121.917160"><ele>1040.6</ele></trkpt><trkpt lat="37.879016" lon="-121.917277"><ele>1039.8</ele></trkpt><trkpt lat="37.878999" lon="-121.917412"><ele>1038.8</ele></trkpt><trkpt lat="37.878997" lon="-121.917552"><ele>1037.8</ele></trkpt><trkpt lat="37.878983" lon="-121.917637"><ele>1037.2</ele></trkpt><trkpt lat="37.878954" lon="-121.917713"><ele>1036.7</ele></trkpt><trkpt lat="37.878900" lon="-121.917779"><ele>1036.0</ele></trkpt><trkpt lat="37.878839" lon="-121.917824"><ele>1035.4</ele></trkpt><trkpt lat="37.878770" lon="-121.917849"><ele>1034.8</ele></trkpt><trkpt lat="37.878699" lon="-121.917860"><ele>1034.2</ele></trkpt><trkpt lat="37.878229" lon="-121.917844"><ele>1030.5</ele></trkpt><trkpt lat="37.878139" lon="-121.917878"><ele>1029.9</ele></trkpt><trkpt lat="37.878092" lon="-121.917919"><ele>1029.4</ele></trkpt><trkpt lat="37.878019" lon="-121.918027"><ele>1028.5</ele></trkpt><trkpt lat="37.877830" lon="-121.918444"><ele>1023.0</ele></trkpt><trkpt lat="37.877729" lon="-121.918713"><ele>1019.9</ele></trkpt><trkpt lat="37.877669" lon="-121.919153"><ele>1015.9</ele></trkpt><trkpt lat="37.877622" lon="-121.919275"><ele>1014.7</ele></trkpt><trkpt lat="37.877542" lon="-121.919386"><ele>1013.7</ele></trkpt><trkpt lat="37.877447" lon="-121.919483"><ele>1012.6</ele></trkpt><trkpt lat="37.877336" lon="-121.919551"><ele>1011.6</ele></trkpt><trkpt lat="37.877097" lon="-121.919631"><ele>1009.4</ele></trkpt><trkpt lat="37.876942" lon="-121.919765"><ele>1007.7</ele></trkpt><trkpt lat="37.876837" lon="-121.919995"><ele>1005.8</ele></trkpt><trkpt lat="37.876713" lon="-121.920360"><ele>1001.6</ele></trkpt><trkpt lat="37.876579" lon="-121.920549"><ele>998.7</ele></trkpt><trkpt lat="37.876509" lon="-121.920635"><ele>997.3</ele></trkpt><trkpt lat="37.876402" lon="-121.920728"><ele>996.1</ele></trkpt><trkpt lat="37.876087" lon="-121.920889"><ele>992.8</ele></trkpt><trkpt lat="37.875977" lon="-121.920948"><ele>991.7</ele></trkpt><trkpt lat="37.875878" lon="-121.921031"><ele>990.6</ele></trkpt><trkpt lat="37.875803" lon="-121.921127"><ele>989.6</ele></trkpt><trkpt lat="37.875723" lon="-121.921305"><ele>988.2</ele></trkpt><trkpt lat="37.875701" lon="-121.921414"><ele>987.4</ele></trkpt><trkpt lat="37.875702" lon="-121.921617"><ele>985.8</ele></trkpt><trkpt lat="37.875823" lon="-121.922457"><ele>979.3</ele></trkpt><trkpt lat="37.875823" lon="-121.922695"><ele>977.6</ele></trkpt><trkpt lat="37.875777" lon="-121.922878"><ele>976.5</ele></trkpt><trkpt lat="37.875641" lon="-121.923225"><ele>974.9</ele></trkpt><trkpt lat="37.875588" lon="-121.923418"><ele>974.1</ele></trkpt><trkpt lat="37.875581" lon="-121.923508"><ele>973.5</ele></trkpt><trkpt lat="37.875589" lon="-121.923621"><ele>972.7</ele></trkpt><trkpt lat="37.875637" lon="-121.923791"><ele>971.5</ele></trkpt><trkpt lat="37.875703" lon="-121.923926"><ele>970.4</ele></trkpt><trkpt lat="37.875916" lon="-121.924249"><ele>967.4</ele></trkpt><trkpt lat="37.875974" lon="-121.924358"><ele>966.4</ele></trkpt><trkpt lat="37.875993" lon="-121.924440"><ele>965.8</ele></trkpt><trkpt lat="37.876004" lon="-121.924533"><ele>965.1</ele></trkpt><trkpt lat="37.875990" lon="-121.924616"><ele>964.4</ele></trkpt><trkpt lat="37.875970" lon="-121.924676"><ele>963.9</ele></trkpt><trkpt lat="37.875932" lon="-121.924727"><ele>963.4</ele></trkpt><trkpt lat="37.875887" lon="-121.924765"><ele>962.9</ele></trkpt><trkpt lat="37.875330" lon="-121.925096"><ele>957.3</ele></trkpt><trkpt lat="37.875200" lon="-121.925216"><ele>956.1</ele></trkpt><trkpt lat="37.875071" lon="-121.925405"><ele>954.4</ele></trkpt><trkpt lat="37.875008" lon="-121.925568"><ele>952.9</ele></trkpt><trkpt lat="37.874988" lon="-121.925746"><ele>951.5</ele></trkpt><trkpt lat="37.875014" lon="-121.925913"><ele>950.1</ele></trkpt><trkpt lat="37.875077" lon="-121.926089"><ele>948.6</ele></trkpt><trkpt lat="37.875142" lon="-121.926197"><ele>947.6</ele></trkpt><trkpt lat="37.875224" lon="-121.926285"><ele>946.6</ele></trkpt><trkpt lat="37.875396" lon="-121.926382"><ele>944.8</ele></trkpt><trkpt lat="37.875464" lon="-121.926417"><ele>944.1</ele></trkpt><trkpt lat="37.875496" lon="-121.926465"><ele>943.7</ele></trkpt><trkpt lat="37.875508" lon="-121.926528"><ele>943.3</ele></trkpt><trkpt lat="37.875492" lon="-121.926614"><ele>942.7</ele></trkpt><trkpt lat="37.875467" lon="-121.926697"><ele>942.1</ele></trkpt><trkpt lat="37.875262" lon="-121.927098"><ele>938.5</ele></trkpt><trkpt lat="37.875189" lon="-121.927294"><ele>936.5</ele></trkpt><trkpt lat="37.875169" lon="-121.927392"><ele>935.5</ele></trkpt><trkpt lat="37.875176" lon="-121.927629"><ele>933.3</ele></trkpt><trkpt lat="37.875279" lon="-121.928194"><ele>929.0</ele></trkpt><trkpt lat="37.875284" lon="-121.928318"><ele>928.1</ele></trkpt><trkpt lat="37.875245" lon="-121.928563"><ele>926.9</ele></trkpt><trkpt lat="37.875197" lon="-121.928747"><ele>926.1</ele></trkpt><trkpt lat="37.875176" lon="-121.928927"><ele>925.3</ele></trkpt><trkpt lat="37.875192" lon="-121.929014"><ele>924.8</ele></trkpt><trkpt lat="37.875232" lon="-121.929084"><ele>924.3</ele></trkpt><trkpt lat="37.875289" lon="-121.929136"><ele>923.8</ele></trkpt><trkpt lat="37.875432" lon="-121.929186"><ele>922.7</ele></trkpt><trkpt lat="37.875569" lon="-121.929217"><ele>921.7</ele></trkpt><trkpt lat="37.875706" lon="-121.929235"><ele>920.6</ele></trkpt><trkpt lat="37.875968" lon="-121.929235"><ele>918.5</ele></trkpt><trkpt lat="37.876037" lon="-121.929246"><ele>918.0</ele></trkpt><trkpt lat="37.876107" lon="-121.929262"><ele>917.4</ele></trkpt><trkpt lat="37.876194" lon="-121.929311"><ele>916.8</ele></trkpt><trkpt lat="37.876268" lon="-121.929382"><ele>916.5</ele></trkpt><trkpt lat="37.876307" lon="-121.929435"><ele>916.4</ele></trkpt><trkpt lat="37.876343" lon="-121.929494"><ele>916.2</ele></trkpt><trkpt lat="37.876375" lon="-121.929556"><ele>916.0</ele></trkpt><trkpt lat="37.876402" lon="-121.929620"><ele>915.9</ele></trkpt><trkpt lat="37.876473" lon="-121.929851"><ele>915.3</ele></trkpt><trkpt lat="37.876522" lon="-121.929977"><ele>914.4</ele></trkpt><trkpt lat="37.876577" lon="-121.930086"><ele>913.6</ele></trkpt><trkpt lat="37.876661" lon="-121.930209"><ele>912.5</ele></trkpt><trkpt lat="37.876737" lon="-121.930312"><ele>911.5</ele></trkpt><trkpt lat="37.876759" lon="-121.930344"><ele>911.2</ele></trkpt><trkpt lat="37.876790" lon="-121.930417"><ele>910.6</ele></trkpt><trkpt lat="37.876800" lon="-121.930458"><ele>910.2</ele></trkpt><trkpt lat="37.876807" lon="-121.930511"><ele>909.7</ele></trkpt><trkpt lat="37.876808" lon="-121.930603"><ele>908.7</ele></trkpt><trkpt lat="37.876795" lon="-121.930671"><ele>908.0</ele></trkpt><trkpt lat="37.876771" lon="-121.930739"><ele>907.2</ele></trkpt><trkpt lat="37.876745" lon="-121.930779"><ele>906.7</ele></trkpt><trkpt lat="37.876715" lon="-121.930811"><ele>906.2</ele></trkpt><trkpt lat="37.876795" lon="-121.930988"><ele>904.1</ele></trkpt><trkpt lat="37.876847" lon="-121.931103"><ele>903.0</ele></trkpt><trkpt lat="37.876876" lon="-121.931167"><ele>902.4</ele></trkpt><trkpt lat="37.876934" lon="-121.931272"><ele>901.5</ele></trkpt><trkpt lat="37.876969" lon="-121.931334"><ele>900.9</ele></trkpt><trkpt lat="37.876979" lon="-121.931352"><ele>900.7</ele></trkpt><trkpt lat="37.877016" lon="-121.931435"><ele>900.0</ele></trkpt><trkpt lat="37.877026" lon="-121.931458"><ele>899.8</ele></trkpt><trkpt lat="37.877051" lon="-121.931534"><ele>899.2</ele></trkpt><trkpt lat="37.877058" lon="-121.931555"><ele>899.1</ele></trkpt><trkpt lat="37.877066" lon="-121.931580"><ele>898.9</ele></trkpt><trkpt lat="37.877074" lon="-121.931619"><ele>898.6</ele></trkpt><trkpt lat="37.877086" lon="-121.931676"><ele>898.2</ele></trkpt><trkpt lat="37.877096" lon="-121.931711"><ele>898.0</ele></trkpt><trkpt lat="37.877114" lon="-121.931771"><ele>897.6</ele></trkpt><trkpt lat="37.877130" lon="-121.931815"><ele>897.2</ele></trkpt><trkpt lat="37.877179" lon="-121.931952"><ele>896.3</ele></trkpt><trkpt lat="37.877197" lon="-121.931984"><ele>896.1</ele></trkpt><trkpt lat="37.877228" lon="-121.932038"><ele>895.6</ele></trkpt><trkpt lat="37.877253" lon="-121.932083"><ele>895.3</ele></trkpt><trkpt lat="37.877258" lon="-121.932106"><ele>895.1</ele></trkpt><trkpt lat="37.877274" lon="-121.932172"><ele>894.7</ele></trkpt><trkpt lat="37.877282" lon="-121.932218"><ele>894.4</ele></trkpt><trkpt lat="37.877289" lon="-121.932262"><ele>894.1</ele></trkpt><trkpt lat="37.877307" lon="-121.932330"><ele>893.6</ele></trkpt><trkpt lat="37.877322" lon="-121.932384"><ele>893.2</ele></trkpt><trkpt lat="37.877349" lon="-121.932470"><ele>892.6</ele></trkpt><trkpt lat="37.877365" lon="-121.932524"><ele>892.2</ele></trkpt><trkpt lat="37.877384" lon="-121.932588"><ele>891.8</ele></trkpt><trkpt lat="37.877390" lon="-121.932610"><ele>891.6</ele></trkpt><trkpt lat="37.877399" lon="-121.932642"><ele>891.4</ele></trkpt><trkpt lat="37.877418" lon="-121.932716"><ele>890.9</ele></trkpt><trkpt lat="37.877441" lon="-121.932804"><ele>890.2</ele></trkpt><trkpt lat="37.877452" lon="-121.932845"><ele>889.9</ele></trkpt><trkpt lat="37.877481" lon="-121.932909"><ele>889.5</ele></trkpt><trkpt lat="37.877535" lon="-121.933028"><ele>888.8</ele></trkpt><trkpt lat="37.877540" lon="-121.933035"><ele>888.7</ele></trkpt><trkpt lat="37.877570" lon="-121.933073"><ele>888.4</ele></trkpt><trkpt lat="37.877633" lon="-121.933155"><ele>887.8</ele></trkpt><trkpt lat="37.877662" lon="-121.933194"><ele>887.5</ele></trkpt><trkpt lat="37.877679" lon="-121.933218"><ele>887.3</ele></trkpt><trkpt lat="37.877719" lon="-121.933274"><ele>886.9</ele></trkpt><trkpt lat="37.877760" lon="-121.933349"><ele>886.4</ele></trkpt><trkpt lat="37.877785" lon="-121.933411"><ele>886.1</ele></trkpt><trkpt lat="37.877796" lon="-121.933440"><ele>886.0</ele></trkpt><trkpt lat="37.877815" lon="-121.933512"><ele>885.8</ele></trkpt><trkpt lat="37.877829" lon="-121.933589"><ele>885.6</ele></trkpt><trkpt lat="37.877848" lon="-121.933672"><ele>885.3</ele></trkpt><trkpt lat="37.877855" lon="-121.933706"><ele>885.3</ele></trkpt><trkpt lat="37.877872" lon="-121.933757"><ele>885.1</ele></trkpt><trkpt lat="37.877893" lon="-121.933807"><ele>885.0</ele></trkpt><trkpt lat="37.877941" lon="-121.933862"><ele>884.7</ele></trkpt><trkpt lat="37.877998" lon="-121.933905"><ele>884.5</ele></trkpt><trkpt lat="37.878161" lon="-121.933985"><ele>884.1</ele></trkpt><trkpt lat="37.878265" lon="-121.934016"><ele>884.0</ele></trkpt><trkpt lat="37.878291" lon="-121.934013"><ele>884.0</ele></trkpt><trkpt lat="37.878315" lon="-121.934005"><ele>884.0</ele></trkpt><trkpt lat="37.878341" lon="-121.933973"><ele>883.9</ele></trkpt><trkpt lat="37.878357" lon="-121.933932"><ele>883.9</ele></trkpt><trkpt lat="37.878379" lon="-121.933856"><ele>883.8</ele></trkpt><trkpt lat="37.878411" lon="-121.933800"><ele>883.7</ele></trkpt><trkpt lat="37.878421" lon="-121.933784"><ele>883.7</ele></trkpt><trkpt lat="37.878499" lon="-121.933682"><ele>883.6</ele></trkpt><trkpt lat="37.878548" lon="-121.933629"><ele>883.5</ele></trkpt><trkpt lat="37.878588" lon="-121.933648"><ele>883.4</ele></trkpt><trkpt lat="37.878628" lon="-121.933662"><ele>883.3</ele></trkpt><trkpt lat="37.878676" lon="-121.933673"><ele>883.2</ele></trkpt><trkpt lat="37.878721" lon="-121.933672"><ele>883.2</ele></trkpt><trkpt lat="37.878745" lon="-121.933665"><ele>883.1</ele></trkpt><trkpt lat="37.878759" lon="-121.933658"><ele>883.1</ele></trkpt><trkpt lat="37.878767" lon="-121.933645"><ele>883.1</ele></trkpt><trkpt lat="37.878777" lon="-121.933612"><ele>883.0</ele></trkpt><trkpt lat="37.878818" lon="-121.933701"><ele>882.9</ele></trkpt><trkpt lat="37.879236" lon="-121.934294"><ele>883.8</ele></trkpt><trkpt lat="37.879248" lon="-121.934307"><ele>883.9</ele></trkpt><trkpt lat="37.879313" lon="-121.934412"><ele>884.1</ele></trkpt><trkpt lat="37.879433" lon="-121.934585"><ele>884.4</ele></trkpt><trkpt lat="37.879512" lon="-121.934681"><ele>884.6</ele></trkpt><trkpt lat="37.879601" lon="-121.934762"><ele>884.8</ele></trkpt><trkpt lat="37.879723" lon="-121.934831"><ele>885.0</ele></trkpt><trkpt lat="37.879855" lon="-121.934852"><ele>885.2</ele></trkpt><trkpt lat="37.880106" lon="-121.934894"><ele>885.6</ele></trkpt><trkpt lat="37.880309" lon="-121.934869"><ele>885.3</ele></trkpt><trkpt lat="37.880404" lon="-121.934989"><ele>884.8</ele></trkpt><trkpt lat="37.880478" lon="-121.935186"><ele>884.2</ele></trkpt><trkpt lat="37.880587" lon="-121.935504"><ele>883.6</ele></trkpt><trkpt lat="37.880790" lon="-121.935615"><ele>883.3</ele></trkpt><trkpt lat="37.880912" lon="-121.935839"><ele>882.3</ele></trkpt><trkpt lat="37.880858" lon="-121.936190"><ele>879.4</ele></trkpt><trkpt lat="37.880959" lon="-121.936379"><ele>877.6</ele></trkpt><trkpt lat="37.881115" lon="-121.936577"><ele>875.0</ele></trkpt><trkpt lat="37.881237" lon="-121.936851"><ele>872.0</ele></trkpt><trkpt lat="37.881217" lon="-121.937306"><ele>867.8</ele></trkpt><trkpt lat="37.881210" lon="-121.937581"><ele>865.3</ele></trkpt><trkpt lat="37.881325" lon="-121.938010"><ele>860.6</ele></trkpt><trkpt lat="37.881494" lon="-121.938173"><ele>857.9</ele></trkpt><trkpt lat="37.881718" lon="-121.938182"><ele>853.6</ele></trkpt><trkpt lat="37.882029" lon="-121.938250"><ele>847.6</ele></trkpt><trkpt lat="37.882212" lon="-121.938311"><ele>844.8</ele></trkpt><trkpt lat="37.882314" lon="-121.938474"><ele>842.5</ele></trkpt><trkpt lat="37.882422" lon="-121.938654"><ele>840.0</ele></trkpt><trkpt lat="37.882578" lon="-121.938817"><ele>837.8</ele></trkpt><trkpt lat="37.882748" lon="-121.939043"><ele>835.2</ele></trkpt><trkpt lat="37.882762" lon="-121.939249"><ele>833.5</ele></trkpt><trkpt lat="37.882823" lon="-121.939644"><ele>830.0</ele></trkpt><trkpt lat="37.882856" lon="-121.939996"><ele>827.7</ele></trkpt><trkpt lat="37.882748" lon="-121.940751"><ele>825.7</ele></trkpt><trkpt lat="37.882795" lon="-121.940940"><ele>825.7</ele></trkpt><trkpt lat="37.882823" lon="-121.941290"><ele>825.9</ele></trkpt><trkpt lat="37.882803" lon="-121.941843"><ele>827.1</ele></trkpt><trkpt lat="37.882832" lon="-121.942146"><ele>827.9</ele></trkpt><trkpt lat="37.882915" lon="-121.942632"><ele>828.9</ele></trkpt><trkpt lat="37.882970" lon="-121.942799"><ele>828.7</ele></trkpt><trkpt lat="37.883048" lon="-121.942951"><ele>828.5</ele></trkpt><trkpt lat="37.883163" lon="-121.943106"><ele>828.2</ele></trkpt><trkpt lat="37.883261" lon="-121.943183"><ele>827.9</ele></trkpt><trkpt lat="37.883595" lon="-121.943342"><ele>826.9</ele></trkpt><trkpt lat="37.884145" lon="-121.943504"><ele>824.0</ele></trkpt><trkpt lat="37.884789" lon="-121.943844"><ele>817.1</ele></trkpt><trkpt lat="37.884834" lon="-121.944029"><ele>814.7</ele></trkpt><trkpt lat="37.885144" lon="-121.944703"><ele>805.4</ele></trkpt><trkpt lat="37.885245" lon="-121.945014"><ele>801.3</ele></trkpt><trkpt lat="37.885294" lon="-121.945119"><ele>799.4</ele></trkpt><trkpt lat="37.885407" lon="-121.945220"><ele>796.8</ele></trkpt><trkpt lat="37.885456" lon="-121.945313"><ele>795.1</ele></trkpt><trkpt lat="37.885449" lon="-121.945393"><ele>793.8</ele></trkpt><trkpt lat="37.885373" lon="-121.945511"><ele>791.5</ele></trkpt><trkpt lat="37.885226" lon="-121.945674"><ele>788.1</ele></trkpt><trkpt lat="37.885094" lon="-121.945887"><ele>784.3</ele></trkpt><trkpt lat="37.885016" lon="-121.946063"><ele>781.5</ele></trkpt><trkpt lat="37.884943" lon="-121.946342"><ele>777.5</ele></trkpt><trkpt lat="37.884915" lon="-121.946543"><ele>774.8</ele></trkpt><trkpt lat="37.884941" lon="-121.946614"><ele>773.7</ele></trkpt><trkpt lat="37.885047" lon="-121.946686"><ele>771.6</ele></trkpt><trkpt lat="37.885260" lon="-121.946768"><ele>767.9</ele></trkpt><trkpt lat="37.885331" lon="-121.946785"><ele>766.6</ele></trkpt><trkpt lat="37.885424" lon="-121.946766"><ele>765.0</ele></trkpt><trkpt lat="37.885475" lon="-121.946725"><ele>764.0</ele></trkpt><trkpt lat="37.885520" lon="-121.946657"><ele>763.0</ele></trkpt><trkpt lat="37.885595" lon="-121.946384"><ele>759.8</ele></trkpt><trkpt lat="37.885648" lon="-121.946295"><ele>758.6</ele></trkpt><trkpt lat="37.885698" lon="-121.946249"><ele>757.8</ele></trkpt><trkpt lat="37.885790" lon="-121.946223"><ele>756.5</ele></trkpt><trkpt lat="37.885866" lon="-121.946248"><ele>755.8</ele></trkpt><trkpt lat="37.885919" lon="-121.946302"><ele>755.2</ele></trkpt><trkpt lat="37.885945" lon="-121.946357"><ele>754.8</ele></trkpt><trkpt lat="37.885954" lon="-121.946453"><ele>754.2</ele></trkpt><trkpt lat="37.885942" lon="-121.946527"><ele>753.7</ele></trkpt><trkpt lat="37.885745" lon="-121.947010"><ele>749.7</ele></trkpt><trkpt lat="37.885685" lon="-121.947240"><ele>747.6</ele></trkpt><trkpt lat="37.885653" lon="-121.947307"><ele>746.9</ele></trkpt><trkpt lat="37.885599" lon="-121.947358"><ele>746.1</ele></trkpt><trkpt lat="37.885489" lon="-121.947370"><ele>744.9</ele></trkpt><trkpt lat="37.885130" lon="-121.947284"><ele>741.0</ele></trkpt><trkpt lat="37.885025" lon="-121.947276"><ele>739.9</ele></trkpt><trkpt lat="37.884590" lon="-121.947435"><ele>736.3</ele></trkpt><trkpt lat="37.884503" lon="-121.947457"><ele>735.5</ele></trkpt><trkpt lat="37.884413" lon="-121.947437"><ele>734.3</ele></trkpt><trkpt lat="37.884209" lon="-121.947266"><ele>731.1</ele></trkpt><trkpt lat="37.883920" lon="-121.946893"><ele>724.2</ele></trkpt><trkpt lat="37.883851" lon="-121.946874"><ele>722.8</ele></trkpt><trkpt lat="37.883791" lon="-121.946922"><ele>721.4</ele></trkpt><trkpt lat="37.883739" lon="-121.947049"><ele>719.1</ele></trkpt><trkpt lat="37.883683" lon="-121.947258"><ele>716.1</ele></trkpt><trkpt lat="37.883630" lon="-121.947373"><ele>714.4</ele></trkpt><trkpt lat="37.883311" lon="-121.947742"><ele>707.6</ele></trkpt><trkpt lat="37.883136" lon="-121.948055"><ele>702.7</ele></trkpt><trkpt lat="37.883083" lon="-121.948125"><ele>701.5</ele></trkpt><trkpt lat="37.883012" lon="-121.948161"><ele>700.3</ele></trkpt><trkpt lat="37.882902" lon="-121.948141"><ele>698.5</ele></trkpt><trkpt lat="37.882731" lon="-121.948054"><ele>695.6</ele></trkpt><trkpt lat="37.882628" lon="-121.947968"><ele>693.6</ele></trkpt><trkpt lat="37.882475" lon="-121.947739"><ele>689.9</ele></trkpt><trkpt lat="37.882354" lon="-121.947512"><ele>686.6</ele></trkpt><trkpt lat="37.882298" lon="-121.947452"><ele>685.5</ele></trkpt><trkpt lat="37.882263" lon="-121.947434"><ele>684.9</ele></trkpt><trkpt lat="37.882227" lon="-121.947436"><ele>684.3</ele></trkpt><trkpt lat="37.882210" lon="-121.947451"><ele>684.0</ele></trkpt><trkpt lat="37.882201" lon="-121.947476"><ele>683.7</ele></trkpt><trkpt lat="37.882167" lon="-121.947427"><ele>682.8</ele></trkpt><trkpt lat="37.882140" lon="-121.947422"><ele>682.3</ele></trkpt><trkpt lat="37.882117" lon="-121.947407"><ele>681.9</ele></trkpt><trkpt lat="37.882096" lon="-121.947385"><ele>681.4</ele></trkpt><trkpt lat="37.882067" lon="-121.947344"><ele>680.7</ele></trkpt><trkpt lat="37.882021" lon="-121.947251"><ele>679.2</ele></trkpt><trkpt lat="37.881992" lon="-121.947200"><ele>678.4</ele></trkpt><trkpt lat="37.881970" lon="-121.947129"><ele>677.3</ele></trkpt><trkpt lat="37.881954" lon="-121.947057"><ele>676.3</ele></trkpt><trkpt lat="37.881946" lon="-121.946980"><ele>675.3</ele></trkpt><trkpt lat="37.881933" lon="-121.946923"><ele>674.5</ele></trkpt><trkpt lat="37.881926" lon="-121.946893"><ele>673.9</ele></trkpt><trkpt lat="37.881915" lon="-121.946868"><ele>673.5</ele></trkpt><trkpt lat="37.881897" lon="-121.946845"><ele>672.9</ele></trkpt><trkpt lat="37.881872" lon="-121.946832"><ele>672.4</ele></trkpt><trkpt lat="37.881845" lon="-121.946824"><ele>671.8</ele></trkpt><trkpt lat="37.881798" lon="-121.946821"><ele>670.8</ele></trkpt><trkpt lat="37.881736" lon="-121.946834"><ele>669.5</ele></trkpt><trkpt lat="37.881679" lon="-121.946858"><ele>668.2</ele></trkpt><trkpt lat="37.881566" lon="-121.946942"><ele>665.5</ele></trkpt><trkpt lat="37.881453" lon="-121.947022"><ele>662.7</ele></trkpt><trkpt lat="37.881230" lon="-121.947205"><ele>655.8</ele></trkpt><trkpt lat="37.880946" lon="-121.947641"><ele>643.2</ele></trkpt><trkpt lat="37.880883" lon="-121.947801"><ele>638.8</ele></trkpt><trkpt lat="37.880827" lon="-121.948258"><ele>627.1</ele></trkpt><trkpt lat="37.880661" lon="-121.949006"><ele>607.4</ele></trkpt><trkpt lat="37.880593" lon="-121.949165"><ele>603.1</ele></trkpt><trkpt lat="37.880527" lon="-121.949271"><ele>599.8</ele></trkpt><trkpt lat="37.880471" lon="-121.949325"><ele>597.7</ele></trkpt><trkpt lat="37.880298" lon="-121.949414"><ele>592.0</ele></trkpt><trkpt lat="37.880226" lon="-121.949486"><ele>589.2</ele></trkpt><trkpt lat="37.880171" lon="-121.949641"><ele>585.0</ele></trkpt><trkpt lat="37.880160" lon="-121.949741"><ele>582.6</ele></trkpt><trkpt lat="37.880170" lon="-121.949829"><ele>580.4</ele></trkpt><trkpt lat="37.880202" lon="-121.949907"><ele>578.2</ele></trkpt><trkpt lat="37.880343" lon="-121.950140"><ele>570.8</ele></trkpt><trkpt lat="37.880359" lon="-121.950208"><ele>569.0</ele></trkpt><trkpt lat="37.880343" lon="-121.950297"><ele>566.7</ele></trkpt><trkpt lat="37.880281" lon="-121.950356"><ele>564.3</ele></trkpt><trkpt lat="37.880148" lon="-121.950410"><ele>561.1</ele></trkpt><trkpt lat="37.879924" lon="-121.950421"><ele>556.0</ele></trkpt><trkpt lat="37.879731" lon="-121.950391"><ele>551.6</ele></trkpt><trkpt lat="37.879665" lon="-121.950413"><ele>550.6</ele></trkpt><trkpt lat="37.879623" lon="-121.950451"><ele>549.7</ele></trkpt><trkpt lat="37.879482" lon="-121.950657"><ele>546.3</ele></trkpt><trkpt lat="37.879388" lon="-121.950761"><ele>544.3</ele></trkpt><trkpt lat="37.879296" lon="-121.950829"><ele>542.8</ele></trkpt><trkpt lat="37.879277" lon="-121.950812"><ele>542.5</ele></trkpt><trkpt lat="37.879259" lon="-121.950797"><ele>542.3</ele></trkpt><trkpt lat="37.879256" lon="-121.950737"><ele>541.7</ele></trkpt><trkpt lat="37.879322" lon="-121.950321"><ele>537.9</ele></trkpt><trkpt lat="37.879310" lon="-121.950200"><ele>537.0</ele></trkpt><trkpt lat="37.879247" lon="-121.949817"><ele>535.6</ele></trkpt><trkpt lat="37.879154" lon="-121.949680"><ele>534.9</ele></trkpt><trkpt lat="37.879134" lon="-121.949678"><ele>534.8</ele></trkpt><trkpt lat="37.879019" lon="-121.949678"><ele>534.7</ele></trkpt><trkpt lat="37.878969" lon="-121.949661"><ele>534.7</ele></trkpt><trkpt lat="37.878766" lon="-121.949520"><ele>534.8</ele></trkpt><trkpt lat="37.878671" lon="-121.949514"><ele>534.9</ele></trkpt><trkpt lat="37.878560" lon="-121.949582"><ele>534.8</ele></trkpt><trkpt lat="37.878475" lon="-121.949586"><ele>534.3</ele></trkpt><trkpt lat="37.878345" lon="-121.949544"><ele>533.6</ele></trkpt><trkpt lat="37.878203" lon="-121.949541"><ele>532.8</ele></trkpt><trkpt lat="37.878037" lon="-121.949580"><ele>531.8</ele></trkpt><trkpt lat="37.877932" lon="-121.949578"><ele>530.8</ele></trkpt><trkpt lat="37.877649" lon="-121.949531"><ele>528.0</ele></trkpt><trkpt lat="37.877512" lon="-121.949478"><ele>526.6</ele></trkpt><trkpt lat="37.877247" lon="-121.949927"><ele>522.0</ele></trkpt><trkpt lat="37.877091" lon="-121.950124"><ele>519.2</ele></trkpt><trkpt lat="37.876482" lon="-121.950819"><ele>507.4</ele></trkpt><trkpt lat="37.876294" lon="-121.951062"><ele>503.3</ele></trkpt><trkpt lat="37.876236" lon="-121.951238"><ele>501.0</ele></trkpt><trkpt lat="37.876222" lon="-121.951373"><ele>499.4</ele></trkpt><trkpt lat="37.876255" lon="-121.951959"><ele>492.0</ele></trkpt><trkpt lat="37.876245" lon="-121.952048"><ele>490.9</ele></trkpt><trkpt lat="37.876209" lon="-121.952163"><ele>489.3</ele></trkpt><trkpt lat="37.875886" lon="-121.952719"><ele>480.9</ele></trkpt><trkpt lat="37.875845" lon="-121.952856"><ele>479.1</ele></trkpt><trkpt lat="37.875737" lon="-121.953485"><ele>470.9</ele></trkpt><trkpt lat="37.875630" lon="-121.954000"><ele>463.9</ele></trkpt><trkpt lat="37.875571" lon="-121.954164"><ele>461.9</ele></trkpt><trkpt lat="37.875462" lon="-121.954372"><ele>459.9</ele></trkpt><trkpt lat="37.875326" lon="-121.954536"><ele>458.0</ele></trkpt><trkpt lat="37.875214" lon="-121.954630"><ele>456.6</ele></trkpt><trkpt lat="37.874975" lon="-121.955163"><ele>451.9</ele></trkpt><trkpt lat="37.874673" lon="-121.955654"><ele>445.0</ele></trkpt><trkpt lat="37.874604" lon="-121.955811"><ele>442.8</ele></trkpt><trkpt lat="37.874574" lon="-121.956010"><ele>439.9</ele></trkpt><trkpt lat="37.874592" lon="-121.956770"><ele>428.6</ele></trkpt><trkpt lat="37.874635" lon="-121.957104"><ele>423.3</ele></trkpt><trkpt lat="37.874848" lon="-121.958208"><ele>402.2</ele></trkpt><trkpt lat="37.874875" lon="-121.958522"><ele>396.1</ele></trkpt><trkpt lat="37.874978" lon="-121.959039"><ele>386.1</ele></trkpt><trkpt lat="37.875006" lon="-121.959271"><ele>381.5</ele></trkpt><trkpt lat="37.874923" lon="-121.959617"><ele>374.3</ele></trkpt><trkpt lat="37.874877" lon="-121.960421"><ele>358.7</ele></trkpt><trkpt lat="37.874888" lon="-121.960841"><ele>349.8</ele></trkpt><trkpt lat="37.874987" lon="-121.961573"><ele>333.7</ele></trkpt><trkpt lat="37.875036" lon="-121.961729"><ele>330.1</ele></trkpt><trkpt lat="37.875134" lon="-121.961814"><ele>327.2</ele></trkpt><trkpt lat="37.875720" lon="-121.962145"><ele>313.5</ele></trkpt><trkpt lat="37.875823" lon="-121.962203"><ele>311.5</ele></trkpt><trkpt lat="37.875992" lon="-121.962341"><ele>307.8</ele></trkpt><trkpt lat="37.876143" lon="-121.962574"><ele>304.6</ele></trkpt><trkpt lat="37.876316" lon="-121.962568"><ele>302.4</ele></trkpt><trkpt lat="37.876509" lon="-121.962556"><ele>300.0</ele></trkpt><trkpt lat="37.876690" lon="-121.962523"><ele>298.1</ele></trkpt><trkpt lat="37.876795" lon="-121.962439"><ele>296.7</ele></trkpt><trkpt lat="37.876876" lon="-121.962328"><ele>295.4</ele></trkpt><trkpt lat="37.876928" lon="-121.962193"><ele>294.2</ele></trkpt><trkpt lat="37.876948" lon="-121.962045"><ele>293.4</ele></trkpt><trkpt lat="37.876934" lon="-121.961896"><ele>292.5</ele></trkpt><trkpt lat="37.876906" lon="-121.961786"><ele>291.8</ele></trkpt><trkpt lat="37.876748" lon="-121.961576"><ele>290.2</ele></trkpt><trkpt lat="37.876727" lon="-121.961503"><ele>289.9</ele></trkpt><trkpt lat="37.876720" lon="-121.961417"><ele>289.6</ele></trkpt><trkpt lat="37.876731" lon="-121.961344"><ele>289.3</ele></trkpt><trkpt lat="37.876762" lon="-121.961283"><ele>289.0</ele></trkpt><trkpt lat="37.876810" lon="-121.961249"><ele>288.7</ele></trkpt><trkpt lat="37.876900" lon="-121.961238"><ele>288.3</ele></trkpt><trkpt lat="37.877091" lon="-121.961277"><ele>287.3</ele></trkpt><trkpt lat="37.877575" lon="-121.961418"><ele>284.4</ele></trkpt><trkpt lat="37.877675" lon="-121.961461"><ele>283.6</ele></trkpt><trkpt lat="37.877759" lon="-121.961529"><ele>282.9</ele></trkpt><trkpt lat="37.877820" lon="-121.961606"><ele>282.2</ele></trkpt><trkpt lat="37.878091" lon="-121.962164"><ele>278.6</ele></trkpt><trkpt lat="37.878181" lon="-121.962352"><ele>277.4</ele></trkpt><trkpt lat="37.878263" lon="-121.962558"><ele>276.2</ele></trkpt><trkpt lat="37.878381" lon="-121.962876"><ele>274.4</ele></trkpt><trkpt lat="37.878454" lon="-121.963028"><ele>273.4</ele></trkpt><trkpt lat="37.878546" lon="-121.963151"><ele>272.3</ele></trkpt><trkpt lat="37.878865" lon="-121.963462"><ele>268.9</ele></trkpt><trkpt lat="37.879003" lon="-121.963541"><ele>267.7</ele></trkpt><trkpt lat="37.879152" lon="-121.963570"><ele>266.5</ele></trkpt><trkpt lat="37.879193" lon="-121.963586"><ele>266.1</ele></trkpt><trkpt lat="37.879235" lon="-121.963613"><ele>265.7</ele></trkpt><trkpt lat="37.879285" lon="-121.963686"><ele>265.1</ele></trkpt><trkpt lat="37.879299" lon="-121.963790"><ele>264.5</ele></trkpt><trkpt lat="37.879275" lon="-121.963940"><ele>264.1</ele></trkpt><trkpt lat="37.879254" lon="-121.964147"><ele>263.6</ele></trkpt><trkpt lat="37.879270" lon="-121.964344"><ele>263.1</ele></trkpt><trkpt lat="37.879395" lon="-121.964730"><ele>261.3</ele></trkpt><trkpt lat="37.879431" lon="-121.964823"><ele>260.8</ele></trkpt><trkpt lat="37.879473" lon="-121.964884"><ele>260.4</ele></trkpt><trkpt lat="37.879550" lon="-121.964950"><ele>259.8</ele></trkpt><trkpt lat="37.879645" lon="-121.964981"><ele>259.2</ele></trkpt><trkpt lat="37.879729" lon="-121.964985"><ele>258.6</ele></trkpt><trkpt lat="37.880083" lon="-121.964957"><ele>256.2</ele></trkpt><trkpt lat="37.880152" lon="-121.964972"><ele>255.7</ele></trkpt><trkpt lat="37.880209" lon="-121.964999"><ele>255.6</ele></trkpt><trkpt lat="37.880241" lon="-121.965031"><ele>255.5</ele></trkpt><trkpt lat="37.880283" lon="-121.965149"><ele>255.3</ele></trkpt><trkpt lat="37.880288" lon="-121.965252"><ele>255.1</ele></trkpt><trkpt lat="37.880266" lon="-121.965363"><ele>254.9</ele></trkpt><trkpt lat="37.880226" lon="-121.965483"><ele>254.6</ele></trkpt><trkpt lat="37.880187" lon="-121.965626"><ele>254.4</ele></trkpt><trkpt lat="37.880175" lon="-121.965752"><ele>254.3</ele></trkpt><trkpt lat="37.880190" lon="-121.965873"><ele>254.2</ele></trkpt><trkpt lat="37.880238" lon="-121.965981"><ele>254.1</ele></trkpt><trkpt lat="37.880282" lon="-121.966043"><ele>254.0</ele></trkpt><trkpt lat="37.880363" lon="-121.966103"><ele>253.9</ele></trkpt><trkpt lat="37.880494" lon="-121.966155"><ele>253.1</ele></trkpt><trkpt lat="37.880674" lon="-121.966158"><ele>251.8</ele></trkpt><trkpt lat="37.880965" lon="-121.966098"><ele>249.7</ele></trkpt><trkpt lat="37.881046" lon="-121.966092"><ele>249.4</ele></trkpt><trkpt lat="37.881101" lon="-121.966106"><ele>249.1</ele></trkpt><trkpt lat="37.881143" lon="-121.966129"><ele>248.9</ele></trkpt><trkpt lat="37.881201" lon="-121.966223"><ele>248.5</ele></trkpt><trkpt lat="37.881220" lon="-121.966348"><ele>248.0</ele></trkpt><trkpt lat="37.881209" lon="-121.966451"><ele>247.7</ele></trkpt><trkpt lat="37.881181" lon="-121.966557"><ele>247.2</ele></trkpt><trkpt lat="37.881085" lon="-121.966796"><ele>246.0</ele></trkpt><trkpt lat="37.881052" lon="-121.966924"><ele>245.4</ele></trkpt><trkpt lat="37.881023" lon="-121.967147"><ele>244.4</ele></trkpt><trkpt lat="37.881028" lon="-121.967252"><ele>243.9</ele></trkpt><trkpt lat="37.881070" lon="-121.967589"><ele>242.2</ele></trkpt><trkpt lat="37.881131" lon="-121.968224"><ele>238.7</ele></trkpt><trkpt lat="37.881163" lon="-121.968336"><ele>238.0</ele></trkpt><trkpt lat="37.881200" lon="-121.968409"><ele>237.5</ele></trkpt><trkpt lat="37.881255" lon="-121.968464"><ele>237.0</ele></trkpt><trkpt lat="37.881309" lon="-121.968495"><ele>236.6</ele></trkpt><trkpt lat="37.881377" lon="-121.968507"><ele>236.1</ele></trkpt><trkpt lat="37.881454" lon="-121.968511"><ele>235.6</ele></trkpt><trkpt lat="37.881669" lon="-121.968509"><ele>234.1</ele></trkpt><trkpt lat="37.881740" lon="-121.968522"><ele>233.7</ele></trkpt><trkpt lat="37.881802" lon="-121.968556"><ele>233.1</ele></trkpt><trkpt lat="37.881864" lon="-121.968635"><ele>232.3</ele></trkpt><trkpt lat="37.881892" lon="-121.968705"><ele>231.7</ele></trkpt><trkpt lat="37.881901" lon="-121.968804"><ele>230.9</ele></trkpt><trkpt lat="37.881877" lon="-121.969490"><ele>226.7</ele></trkpt><trkpt lat="37.881896" lon="-121.969767"><ele>225.3</ele></trkpt><trkpt lat="37.881943" lon="-121.970058"><ele>223.5</ele></trkpt><trkpt lat="37.881950" lon="-121.970238"><ele>222.4</ele></trkpt><trkpt lat="37.881930" lon="-121.970393"><ele>221.4</ele></trkpt><trkpt lat="37.881860" lon="-121.970682"><ele>219.6</ele></trkpt><trkpt lat="37.881851" lon="-121.970745"><ele>219.2</ele></trkpt><trkpt lat="37.881861" lon="-121.970812"><ele>218.8</ele></trkpt><trkpt lat="37.881879" lon="-121.970874"><ele>218.5</ele></trkpt><trkpt lat="37.881911" lon="-121.970928"><ele>218.1</ele></trkpt><trkpt lat="37.882018" lon="-121.971032"><ele>217.1</ele></trkpt><trkpt lat="37.882176" lon="-121.971131"><ele>215.8</ele></trkpt><trkpt lat="37.882354" lon="-121.971210"><ele>214.4</ele></trkpt><trkpt lat="37.882582" lon="-121.971309"><ele>212.7</ele></trkpt><trkpt lat="37.882667" lon="-121.971378"><ele>212.4</ele></trkpt><trkpt lat="37.882722" lon="-121.971458"><ele>212.2</ele></trkpt><trkpt lat="37.882755" lon="-121.971549"><ele>212.0</ele></trkpt><trkpt lat="37.882763" lon="-121.971656"><ele>211.7</ele></trkpt><trkpt lat="37.882714" lon="-121.972257"><ele>210.0</ele></trkpt><trkpt lat="37.882713" lon="-121.972376"><ele>209.6</ele></trkpt><trkpt lat="37.882738" lon="-121.972506"><ele>209.2</ele></trkpt><trkpt lat="37.882787" lon="-121.972584"><ele>208.8</ele></trkpt><trkpt lat="37.882844" lon="-121.972635"><ele>208.3</ele></trkpt><trkpt lat="37.882954" lon="-121.972653"><ele>207.5</ele></trkpt><trkpt lat="37.883059" lon="-121.972620"><ele>206.7</ele></trkpt><trkpt lat="37.883263" lon="-121.972477"><ele>205.0</ele></trkpt><trkpt lat="37.883308" lon="-121.972467"><ele>204.5</ele></trkpt><trkpt lat="37.883349" lon="-121.972466"><ele>204.0</ele></trkpt><trkpt lat="37.883388" lon="-121.972483"><ele>203.6</ele></trkpt><trkpt lat="37.883414" lon="-121.972512"><ele>203.2</ele></trkpt><trkpt lat="37.883448" lon="-121.972579"><ele>202.5</ele></trkpt><trkpt lat="37.883462" lon="-121.972659"><ele>201.8</ele></trkpt><trkpt lat="37.883441" lon="-121.972857"><ele>200.1</ele></trkpt><trkpt lat="37.883388" lon="-121.973056"><ele>198.6</ele></trkpt><trkpt lat="37.883329" lon="-121.973204"><ele>197.4</ele></trkpt><trkpt lat="37.883185" lon="-121.973441"><ele>195.4</ele></trkpt><trkpt lat="37.883108" lon="-121.973590"><ele>194.0</ele></trkpt><trkpt lat="37.883049" lon="-121.973746"><ele>192.4</ele></trkpt><trkpt lat="37.883035" lon="-121.973897"><ele>191.0</ele></trkpt><trkpt lat="37.883041" lon="-121.974057"><ele>189.6</ele></trkpt><trkpt lat="37.883064" lon="-121.974317"><ele>187.2</ele></trkpt><trkpt lat="37.883120" lon="-121.974603"><ele>184.5</ele></trkpt><trkpt lat="37.883193" lon="-121.974784"><ele>182.7</ele></trkpt><trkpt lat="37.883418" lon="-121.975151"><ele>179.5</ele></trkpt><trkpt lat="37.883602" lon="-121.975447"><ele>177.3</ele></trkpt><trkpt lat="37.883715" lon="-121.975594"><ele>176.6</ele></trkpt><trkpt lat="37.884404" lon="-121.976305"><ele>172.6</ele></trkpt><trkpt lat="37.884526" lon="-121.976457"><ele>171.8</ele></trkpt><trkpt lat="37.884581" lon="-121.976529"><ele>171.5</ele></trkpt><trkpt lat="37.884886" lon="-121.977004"><ele>168.8</ele></trkpt><trkpt lat="37.885089" lon="-121.977354"><ele>166.6</ele></trkpt><trkpt lat="37.885309" lon="-121.977786"><ele>163.6</ele></trkpt><trkpt lat="37.885457" lon="-121.978029"><ele>162.2</ele></trkpt><trkpt lat="37.885792" lon="-121.978477"><ele>159.3</ele></trkpt><trkpt lat="37.885907" lon="-121.978591"><ele>158.2</ele></trkpt><trkpt lat="37.886055" lon="-121.978730"><ele>156.8</ele></trkpt><trkpt lat="37.886397" lon="-121.978890"><ele>154.7</ele></trkpt><trkpt lat="37.886484" lon="-121.978931"><ele>154.3</ele></trkpt><trkpt lat="37.886661" lon="-121.979087"><ele>153.2</ele></trkpt><trkpt lat="37.886723" lon="-121.979157"><ele>152.9</ele></trkpt><trkpt lat="37.886822" lon="-121.979269"><ele>152.5</ele></trkpt><trkpt lat="37.887076" lon="-121.979481"><ele>151.5</ele></trkpt><trkpt lat="37.887340" lon="-121.979780"><ele>150.3</ele></trkpt><trkpt lat="37.887537" lon="-121.980095"><ele>149.4</ele></trkpt><trkpt lat="37.887743" lon="-121.980244"><ele>149.0</ele></trkpt><trkpt lat="37.887925" lon="-121.980333"><ele>148.7</ele></trkpt><trkpt lat="37.888227" lon="-121.980449"><ele>147.6</ele></trkpt><trkpt lat="37.888478" lon="-121.980553"><ele>146.6</ele></trkpt><trkpt lat="37.888581" lon="-121.980612"><ele>146.1</ele></trkpt><trkpt lat="37.888937" lon="-121.980870"><ele>144.3</ele></trkpt><trkpt lat="37.889239" lon="-121.981128"><ele>142.9</ele></trkpt><trkpt lat="37.889454" lon="-121.981338"><ele>141.9</ele></trkpt><trkpt lat="37.889815" lon="-121.981720"><ele>140.3</ele></trkpt><trkpt lat="37.889981" lon="-121.981921"><ele>139.5</ele></trkpt><trkpt lat="37.890194" lon="-121.982243"><ele>138.5</ele></trkpt><trkpt lat="37.891064" lon="-121.983227"><ele>136.6</ele></trkpt><trkpt lat="37.891656" lon="-121.984016"><ele>134.3</ele></trkpt><trkpt lat="37.891771" lon="-121.984192"><ele>133.3</ele></trkpt><trkpt lat="37.891853" lon="-121.984392"><ele>132.2</ele></trkpt><trkpt lat="37.891924" lon="-121.984600"><ele>131.1</ele></trkpt><trkpt lat="37.892053" lon="-121.985270"><ele>128.2</ele></trkpt><trkpt lat="37.892078" lon="-121.985365"><ele>127.8</ele></trkpt><trkpt lat="37.892142" lon="-121.985465"><ele>127.2</ele></trkpt><trkpt lat="37.892209" lon="-121.985535"><ele>126.7</ele></trkpt><trkpt lat="37.892305" lon="-121.985592"><ele>126.0</ele></trkpt><trkpt lat="37.892444" lon="-121.985648"><ele>125.1</ele></trkpt><trkpt lat="37.892804" lon="-121.985707"><ele>122.9</ele></trkpt><trkpt lat="37.893014" lon="-121.985913"><ele>121.2</ele></trkpt><trkpt lat="37.893259" lon="-121.986228"><ele>119.5</ele></trkpt><trkpt lat="37.893384" lon="-121.986404"><ele>118.5</ele></trkpt><trkpt lat="37.893482" lon="-121.986640"><ele>117.9</ele></trkpt><trkpt lat="37.893554" lon="-121.986764"><ele>117.6</ele></trkpt><trkpt lat="37.893617" lon="-121.986858"><ele>117.3</ele></trkpt><trkpt lat="37.894091" lon="-121.987338"><ele>116.2</ele></trkpt><trkpt lat="37.894385" lon="-121.987722"><ele>115.7</ele></trkpt><trkpt lat="37.894631" lon="-121.987969"><ele>115.9</ele></trkpt><trkpt lat="37.894781" lon="-121.988084"><ele>116.3</ele></trkpt><trkpt lat="37.894869" lon="-121.988109"><ele>116.5</ele></trkpt><trkpt lat="37.895024" lon="-121.988138"><ele>116.8</ele></trkpt><trkpt lat="37.895471" lon="-121.988061"><ele>117.8</ele></trkpt><trkpt lat="37.895555" lon="-121.988073"><ele>118.0</ele></trkpt><trkpt lat="37.895748" lon="-121.988100"><ele>118.6</ele></trkpt><trkpt lat="37.895887" lon="-121.988179"><ele>119.0</ele></trkpt><trkpt lat="37.896015" lon="-121.988282"><ele>119.4</ele></trkpt><trkpt lat="37.896309" lon="-121.988639"><ele>120.2</ele></trkpt><trkpt lat="37.896425" lon="-121.988722"><ele>120.4</ele></trkpt><trkpt lat="37.896642" lon="-121.988790"><ele>120.8</ele></trkpt><trkpt lat="37.896764" lon="-121.988816"><ele>121.0</ele></trkpt><trkpt lat="37.896866" lon="-121.988836"><ele>121.1</ele></trkpt><trkpt lat="37.896958" lon="-121.988851"><ele>121.3</ele></trkpt><trkpt lat="37.897053" lon="-121.988855"><ele>121.3</ele></trkpt><trkpt lat="37.897145" lon="-121.988846"><ele>121.3</ele></trkpt><trkpt lat="37.897239" lon="-121.988816"><ele>121.3</ele></trkpt><trkpt lat="37.897322" lon="-121.988770"><ele>121.3</ele></trkpt><trkpt lat="37.897417" lon="-121.988699"><ele>121.3</ele></trkpt><trkpt lat="37.897515" lon="-121.988609"><ele>121.3</ele></trkpt><trkpt lat="37.897794" lon="-121.988321"><ele>120.8</ele></trkpt><trkpt lat="37.897876" lon="-121.988250"><ele>120.7</ele></trkpt><trkpt lat="37.897954" lon="-121.988201"><ele>120.6</ele></trkpt><trkpt lat="37.898042" lon="-121.988180"><ele>120.4</ele></trkpt><trkpt lat="37.898131" lon="-121.988189"><ele>120.2</ele></trkpt><trkpt lat="37.898217" lon="-121.988214"><ele>120.0</ele></trkpt><trkpt lat="37.898300" lon="-121.988271"><ele>119.8</ele></trkpt><trkpt lat="37.898366" lon="-121.988347"><ele>119.6</ele></trkpt><trkpt lat="37.898426" lon="-121.988454"><ele>119.3</ele></trkpt><trkpt lat="37.898475" lon="-121.988560"><ele>119.0</ele></trkpt><trkpt lat="37.898668" lon="-121.988982"><ele>117.9</ele></trkpt><trkpt lat="37.898758" lon="-121.989154"><ele>117.5</ele></trkpt><trkpt lat="37.898853" lon="-121.989319"><ele>117.0</ele></trkpt><trkpt lat="37.899165" lon="-121.989823"><ele>115.3</ele></trkpt><trkpt lat="37.899248" lon="-121.989967"><ele>114.7</ele></trkpt><trkpt lat="37.899325" lon="-121.990110"><ele>114.1</ele></trkpt><trkpt lat="37.899399" lon="-121.990256"><ele>113.6</ele></trkpt><trkpt lat="37.899771" lon="-121.991011"><ele>111.0</ele></trkpt><trkpt lat="37.900213" lon="-121.991908"><ele>107.8</ele></trkpt><trkpt lat="37.900280" lon="-121.992035"><ele>107.4</ele></trkpt><trkpt lat="37.900353" lon="-121.992162"><ele>106.9</ele></trkpt><trkpt lat="37.900424" lon="-121.992275"><ele>106.4</ele></trkpt><trkpt lat="37.900496" lon="-121.992371"><ele>106.0</ele></trkpt><trkpt lat="37.900572" lon="-121.992460"><ele>105.8</ele></trkpt><trkpt lat="37.900660" lon="-121.992536"><ele>105.6</ele></trkpt><trkpt lat="37.900756" lon="-121.992603"><ele>105.3</ele></trkpt><trkpt lat="37.900853" lon="-121.992659"><ele>105.1</ele></trkpt><trkpt lat="37.901187" lon="-121.992821"><ele>104.3</ele></trkpt><trkpt lat="37.901290" lon="-121.992875"><ele>104.0</ele></trkpt><trkpt lat="37.901389" lon="-121.992936"><ele>103.8</ele></trkpt><trkpt lat="37.901492" lon="-121.993003"><ele>103.5</ele></trkpt><trkpt lat="37.901744" lon="-121.993180"><ele>102.7</ele></trkpt><trkpt lat="37.901906" lon="-121.993311"><ele>102.1</ele></trkpt><trkpt lat="37.901975" lon="-121.993363"><ele>101.9</ele></trkpt><trkpt lat="37.902053" lon="-121.993403"><ele>101.7</ele></trkpt><trkpt lat="37.902146" lon="-121.993468"><ele>101.4</ele></trkpt><trkpt lat="37.902281" lon="-121.993564"><ele>100.9</ele></trkpt><trkpt lat="37.902394" lon="-121.993651"><ele>100.6</ele></trkpt><trkpt lat="37.902518" lon="-121.993730"><ele>100.3</ele></trkpt><trkpt lat="37.902572" lon="-121.993758"><ele>100.1</ele></trkpt><trkpt lat="37.902629" lon="-121.993787"><ele>100.0</ele></trkpt><trkpt lat="37.902738" lon="-121.993835"><ele>99.7</ele></trkpt><trkpt lat="37.902843" lon="-121.993870"><ele>99.5</ele></trkpt><trkpt lat="37.902957" lon="-121.993900"><ele>99.1</ele></trkpt><trkpt lat="37.903067" lon="-121.993918"><ele>98.5</ele></trkpt><trkpt lat="37.903183" lon="-121.993929"><ele>97.9</ele></trkpt><trkpt lat="37.903293" lon="-121.993932"><ele>97.4</ele></trkpt><trkpt lat="37.903481" lon="-121.993920"><ele>96.4</ele></trkpt><trkpt lat="37.903731" lon="-121.993905"><ele>95.0</ele></trkpt><trkpt lat="37.903793" lon="-121.993901"><ele>94.6</ele></trkpt><trkpt lat="37.903925" lon="-121.993903"><ele>93.9</ele></trkpt><trkpt lat="37.904039" lon="-121.993914"><ele>93.3</ele></trkpt><trkpt lat="37.904168" lon="-121.993936"><ele>92.7</ele></trkpt><trkpt lat="37.904285" lon="-121.993961"><ele>92.2</ele></trkpt><trkpt lat="37.904407" lon="-121.993995"><ele>91.6</ele></trkpt><trkpt lat="37.904540" lon="-121.994036"><ele>91.0</ele></trkpt><trkpt lat="37.904654" lon="-121.994082"><ele>90.5</ele></trkpt><trkpt lat="37.904772" lon="-121.994126"><ele>90.1</ele></trkpt><trkpt lat="37.904887" lon="-121.994185"><ele>89.6</ele></trkpt><trkpt lat="37.904952" lon="-121.994222"><ele>89.3</ele></trkpt><trkpt lat="37.905008" lon="-121.994254"><ele>89.1</ele></trkpt><trkpt lat="37.905136" lon="-121.994334"><ele>88.4</ele></trkpt><trkpt lat="37.905281" lon="-121.994434"><ele>87.7</ele></trkpt><trkpt lat="37.905379" lon="-121.994501"><ele>87.2</ele></trkpt><trkpt lat="37.905406" lon="-121.994519"><ele>87.0</ele></trkpt><trkpt lat="37.905548" lon="-121.994615"><ele>86.4</ele></trkpt><trkpt lat="37.905814" lon="-121.994795"><ele>85.4</ele></trkpt><trkpt lat="37.905905" lon="-121.994854"><ele>85.0</ele></trkpt><trkpt lat="37.906080" lon="-121.994968"><ele>84.6</ele></trkpt><trkpt lat="37.906605" lon="-121.995310"><ele>83.8</ele></trkpt><trkpt lat="37.906762" lon="-121.995413"><ele>83.4</ele></trkpt><trkpt lat="37.907134" lon="-121.995657"><ele>82.7</ele></trkpt><trkpt lat="37.907218" lon="-121.995711"><ele>82.6</ele></trkpt><trkpt lat="37.907365" lon="-121.995796"><ele>82.4</ele></trkpt><trkpt lat="37.907515" lon="-121.995849"><ele>82.3</ele></trkpt><trkpt lat="37.907634" lon="-121.995881"><ele>82.3</ele></trkpt><trkpt lat="37.907715" lon="-121.995905"><ele>82.3</ele></trkpt><trkpt lat="37.907792" lon="-121.995915"><ele>82.3</ele></trkpt><trkpt lat="37.907919" lon="-121.995911"><ele>82.3</ele></trkpt><trkpt lat="37.908065" lon="-121.995870"><ele>82.3</ele></trkpt><trkpt lat="37.908180" lon="-121.995838"><ele>82.3</ele></trkpt><trkpt lat="37.908289" lon="-121.995798"><ele>82.3</ele></trkpt><trkpt lat="37.908372" lon="-121.995766"><ele>82.3</ele></trkpt><trkpt lat="37.908629" lon="-121.995668"><ele>82.1</ele></trkpt><trkpt lat="37.908863" lon="-121.995580"><ele>81.9</ele></trkpt><trkpt lat="37.909089" lon="-121.995522"><ele>81.7</ele></trkpt><trkpt lat="37.909182" lon="-121.995519"><ele>81.7</ele></trkpt><trkpt lat="37.909270" lon="-121.995517"><ele>81.7</ele></trkpt><trkpt lat="37.909413" lon="-121.995538"><ele>81.7</ele></trkpt><trkpt lat="37.909558" lon="-121.995577"><ele>81.7</ele></trkpt><trkpt lat="37.910121" lon="-121.995782"><ele>81.3</ele></trkpt><trkpt lat="37.910458" lon="-121.995903"><ele>80.7</ele></trkpt><trkpt lat="37.910852" lon="-121.996061"><ele>80.2</ele></trkpt><trkpt lat="37.910865" lon="-121.996066"><ele>80.1</ele></trkpt><trkpt lat="37.911038" lon="-121.996148"><ele>79.9</ele></trkpt><trkpt lat="37.911130" lon="-121.996192"><ele>79.8</ele></trkpt><trkpt lat="37.911187" lon="-121.996224"><ele>79.8</ele></trkpt><trkpt lat="37.911565" lon="-121.996437"><ele>79.3</ele></trkpt><trkpt lat="37.911933" lon="-121.996673"><ele>78.2</ele></trkpt><trkpt lat="37.912349" lon="-121.996943"><ele>76.7</ele></trkpt><trkpt lat="37.912588" lon="-121.997169"><ele>75.7</ele></trkpt><trkpt lat="37.912802" lon="-121.997457"><ele>74.9</ele></trkpt><trkpt lat="37.912898" lon="-121.997632"><ele>74.4</ele></trkpt><trkpt lat="37.913062" lon="-121.998060"><ele>72.9</ele></trkpt><trkpt lat="37.913135" lon="-121.998335"><ele>72.1</ele></trkpt><trkpt lat="37.913196" lon="-121.998649"><ele>71.2</ele></trkpt><trkpt lat="37.913218" lon="-121.999089"><ele>70.1</ele></trkpt><trkpt lat="37.913220" lon="-121.999285"><ele>69.6</ele></trkpt><trkpt lat="37.913226" lon="-122.000098"><ele>68.0</ele></trkpt><trkpt lat="37.913241" lon="-122.001965"><ele>63.6</ele></trkpt><trkpt lat="37.913239" lon="-122.002174"><ele>63.2</ele></trkpt><trkpt lat="37.913232" lon="-122.002408"><ele>62.8</ele></trkpt><trkpt lat="37.913235" lon="-122.002695"><ele>62.6</ele></trkpt><trkpt lat="37.913241" lon="-122.002741"><ele>62.6</ele></trkpt><trkpt lat="37.913259" lon="-122.002814"><ele>62.6</ele></trkpt><trkpt lat="37.913252" lon="-122.003055"><ele>62.5</ele></trkpt><trkpt lat="37.913251" lon="-122.003176"><ele>62.2</ele></trkpt><trkpt lat="37.913250" lon="-122.003267"><ele>62.1</ele></trkpt><trkpt lat="37.913250" lon="-122.003380"><ele>61.9</ele></trkpt><trkpt lat="37.913249" lon="-122.003405"><ele>61.8</ele></trkpt><trkpt lat="37.913249" lon="-122.003458"><ele>61.7</ele></trkpt><trkpt lat="37.913248" lon="-122.003626"><ele>61.4</ele></trkpt><trkpt lat="37.913247" lon="-122.003818"><ele>61.2</ele></trkpt><trkpt lat="37.913246" lon="-122.003902"><ele>61.2</ele></trkpt><trkpt lat="37.913241" lon="-122.004761"><ele>60.6</ele></trkpt><trkpt lat="37.913246" lon="-122.004928"><ele>60.5</ele></trkpt><trkpt lat="37.913259" lon="-122.005064"><ele>60.4</ele></trkpt><trkpt lat="37.913278" lon="-122.005207"><ele>60.2</ele></trkpt><trkpt lat="37.913303" lon="-122.005336"><ele>60.1</ele></trkpt><trkpt lat="37.913334" lon="-122.005458"><ele>60.0</ele></trkpt><trkpt lat="37.913367" lon="-122.005568"><ele>59.9</ele></trkpt><trkpt lat="37.913407" lon="-122.005687"><ele>59.8</ele></trkpt><trkpt lat="37.913447" lon="-122.005798"><ele>59.6</ele></trkpt><trkpt lat="37.913485" lon="-122.005918"><ele>59.4</ele></trkpt><trkpt lat="37.913512" lon="-122.006031"><ele>59.2</ele></trkpt><trkpt lat="37.913529" lon="-122.006137"><ele>59.0</ele></trkpt><trkpt lat="37.913540" lon="-122.006248"><ele>58.8</ele></trkpt><trkpt lat="37.913545" lon="-122.006353"><ele>58.6</ele></trkpt><trkpt lat="37.913544" lon="-122.006606"><ele>58.4</ele></trkpt><trkpt lat="37.913542" lon="-122.007040"><ele>58.2</ele></trkpt><trkpt lat="37.913541" lon="-122.007150"><ele>58.2</ele></trkpt><trkpt lat="37.913605" lon="-122.007174"><ele>58.1</ele></trkpt><trkpt lat="37.913669" lon="-122.007201"><ele>58.1</ele></trkpt><trkpt lat="37.913730" lon="-122.007231"><ele>58.1</ele></trkpt><trkpt lat="37.913803" lon="-122.007273"><ele>58.0</ele></trkpt><trkpt lat="37.913866" lon="-122.007314"><ele>58.0</ele></trkpt><trkpt lat="37.913931" lon="-122.007357"><ele>57.9</ele></trkpt><trkpt lat="37.914002" lon="-122.007410"><ele>57.9</ele></trkpt><trkpt lat="37.914111" lon="-122.007498"><ele>57.9</ele></trkpt><trkpt lat="37.914132" lon="-122.007516"><ele>57.9</ele></trkpt><trkpt lat="37.914184" lon="-122.007562"><ele>57.9</ele></trkpt><trkpt lat="37.914285" lon="-122.007594"><ele>57.9</ele></trkpt><trkpt lat="37.914307" lon="-122.007589"><ele>57.9</ele></trkpt><trkpt lat="37.914332" lon="-122.007591"><ele>57.9</ele></trkpt><trkpt lat="37.914356" lon="-122.007602"><ele>57.9</ele></trkpt><trkpt lat="37.914379" lon="-122.007626"><ele>57.9</ele></trkpt><trkpt lat="37.914394" lon="-122.007655"><ele>57.9</ele></trkpt><trkpt lat="37.914401" lon="-122.007678"><ele>57.9</ele></trkpt><trkpt lat="37.914403" lon="-122.007707"><ele>57.9</ele></trkpt><trkpt lat="37.914399" lon="-122.007734"><ele>57.9</ele></trkpt><trkpt lat="37.914389" lon="-122.007764"><ele>57.9</ele></trkpt><trkpt lat="37.914373" lon="-122.007789"><ele>57.9</ele></trkpt><trkpt lat="37.914356" lon="-122.007804"><ele>57.9</ele></trkpt><trkpt lat="37.914333" lon="-122.007815"><ele>57.9</ele></trkpt><trkpt lat="37.914334" lon="-122.007956"><ele>57.8</ele></trkpt><trkpt lat="37.914337" lon="-122.008487"><ele>57.5</ele></trkpt><trkpt lat="37.914335" lon="-122.008874"><ele>56.9</ele></trkpt><trkpt lat="37.914332" lon="-122.010788"><ele>55.6</ele></trkpt><trkpt lat="37.914346" lon="-122.011677"><ele>54.9</ele></trkpt><trkpt lat="37.914328" lon="-122.011942"><ele>54.9</ele></trkpt><trkpt lat="37.914317" lon="-122.012157"><ele>54.9</ele></trkpt><trkpt lat="37.914319" lon="-122.012286"><ele>54.9</ele></trkpt><trkpt lat="37.914319" lon="-122.012652"><ele>55.1</ele></trkpt><trkpt lat="37.914296" lon="-122.012786"><ele>55.3</ele></trkpt><trkpt lat="37.914303" lon="-122.014608"><ele>55.4</ele></trkpt><trkpt lat="37.914317" lon="-122.015492"><ele>54.9</ele></trkpt><trkpt lat="37.914321" lon="-122.015783"><ele>54.6</ele></trkpt><trkpt lat="37.914328" lon="-122.016258"><ele>53.9</ele></trkpt><trkpt lat="37.914333" lon="-122.016370"><ele>53.7</ele></trkpt><trkpt lat="37.914399" lon="-122.016869"><ele>53.2</ele></trkpt><trkpt lat="37.914442" lon="-122.017149"><ele>53.1</ele></trkpt><trkpt lat="37.914471" lon="-122.017347"><ele>52.9</ele></trkpt><trkpt lat="37.914555" lon="-122.017872"><ele>52.2</ele></trkpt><trkpt lat="37.914637" lon="-122.018395"><ele>51.7</ele></trkpt><trkpt lat="37.914865" lon="-122.019457"><ele>51.0</ele></trkpt><trkpt lat="37.914886" lon="-122.019554"><ele>50.9</ele></trkpt><trkpt lat="37.914909" lon="-122.019697"><ele>50.8</ele></trkpt><trkpt lat="37.915180" lon="-122.021334"><ele>50.6</ele></trkpt><trkpt lat="37.915317" lon="-122.022270"><ele>50.3</ele></trkpt><trkpt lat="37.915395" lon="-122.022823"><ele>49.9</ele></trkpt><trkpt lat="37.915526" lon="-122.023531"><ele>49.4</ele></trkpt><trkpt lat="37.915667" lon="-122.024559"><ele>47.9</ele></trkpt><trkpt lat="37.915745" lon="-122.025078"><ele>47.2</ele></trkpt><trkpt lat="37.915750" lon="-122.025106"><ele>47.1</ele></trkpt><trkpt lat="37.915801" lon="-122.025401"><ele>46.8</ele></trkpt><trkpt lat="37.915811" lon="-122.025495"><ele>46.7</ele></trkpt><trkpt lat="37.915855" lon="-122.025675"><ele>46.6</ele></trkpt><trkpt lat="37.915889" lon="-122.025816"><ele>46.4</ele></trkpt><trkpt lat="37.915941" lon="-122.025926"><ele>46.3</ele></trkpt><trkpt lat="37.915971" lon="-122.026028"><ele>46.1</ele></trkpt><trkpt lat="37.916024" lon="-122.026163"><ele>45.8</ele></trkpt><trkpt lat="37.916751" lon="-122.027354"><ele>44.1</ele></trkpt><trkpt lat="37.916801" lon="-122.027435"><ele>44.0</ele></trkpt><trkpt lat="37.916849" lon="-122.027517"><ele>43.9</ele></trkpt><trkpt lat="37.917651" lon="-122.028885"><ele>42.7</ele></trkpt><trkpt lat="37.918105" lon="-122.029650"><ele>42.7</ele></trkpt><trkpt lat="37.919018" lon="-122.031184"><ele>43.1</ele></trkpt><trkpt lat="37.919182" lon="-122.031455"><ele>42.9</ele></trkpt><trkpt lat="37.919348" lon="-122.031724"><ele>42.8</ele></trkpt><trkpt lat="37.919505" lon="-122.031979"><ele>42.6</ele></trkpt><trkpt lat="37.919701" lon="-122.032316"><ele>42.3</ele></trkpt><trkpt lat="37.920070" lon="-122.032940"><ele>41.6</ele></trkpt><trkpt lat="37.920210" lon="-122.033166"><ele>41.1</ele></trkpt><trkpt lat="37.920282" lon="-122.033295"><ele>40.7</ele></trkpt><trkpt lat="37.920323" lon="-122.033371"><ele>40.5</ele></trkpt><trkpt lat="37.920626" lon="-122.033883"><ele>39.3</ele></trkpt><trkpt lat="37.920745" lon="-122.034100"><ele>38.8</ele></trkpt><trkpt lat="37.920787" lon="-122.034176"><ele>38.7</ele></trkpt><trkpt lat="37.920904" lon="-122.034381"><ele>38.2</ele></trkpt><trkpt lat="37.920951" lon="-122.034460"><ele>38.0</ele></trkpt><trkpt lat="37.921142" lon="-122.034768"><ele>37.4</ele></trkpt><trkpt lat="37.921433" lon="-122.035221"><ele>36.6</ele></trkpt><trkpt lat="37.921664" lon="-122.035508"><ele>36.2</ele></trkpt><trkpt lat="37.922245" lon="-122.036049"><ele>35.4</ele></trkpt><trkpt lat="37.922316" lon="-122.036115"><ele>35.4</ele></trkpt><trkpt lat="37.922604" lon="-122.036377"><ele>35.4</ele></trkpt><trkpt lat="37.922681" lon="-122.036447"><ele>35.4</ele></trkpt><trkpt lat="37.923745" lon="-122.037417"><ele>33.8</ele></trkpt><trkpt lat="37.923767" lon="-122.037437"><ele>33.8</ele></trkpt><trkpt lat="37.924107" lon="-122.037755"><ele>33.1</ele></trkpt><trkpt lat="37.924150" lon="-122.037796"><ele>33.0</ele></trkpt><trkpt lat="37.924226" lon="-122.037863"><ele>32.8</ele></trkpt><trkpt lat="37.925246" lon="-122.038763"><ele>30.6</ele></trkpt><trkpt lat="37.926611" lon="-122.039993"><ele>29.9</ele></trkpt><trkpt lat="37.926942" lon="-122.040335"><ele>29.9</ele></trkpt><trkpt lat="37.927062" lon="-122.040442"><ele>29.9</ele></trkpt><trkpt lat="37.927011" lon="-122.040564"><ele>29.9</ele></trkpt><trkpt lat="37.926930" lon="-122.040721"><ele>29.9</ele></trkpt><trkpt lat="37.926893" lon="-122.040804"><ele>29.9</ele></trkpt><trkpt lat="37.926837" lon="-122.040882"><ele>29.9</ele></trkpt><trkpt lat="37.926790" lon="-122.040936"><ele>29.9</ele></trkpt><trkpt lat="37.926693" lon="-122.040996"><ele>29.9</ele></trkpt><trkpt lat="37.925938" lon="-122.041398"><ele>29.4</ele></trkpt><trkpt lat="37.925837" lon="-122.041501"><ele>29.3</ele></trkpt><trkpt lat="37.925112" lon="-122.043338"><ele>28.7</ele></trkpt><trkpt lat="37.924259" lon="-122.045425"><ele>28.3</ele></trkpt><trkpt lat="37.924251" lon="-122.045442"><ele>28.3</ele></trkpt><trkpt lat="37.923877" lon="-122.046317"><ele>28.3</ele></trkpt><trkpt lat="37.923467" lon="-122.047175"><ele>28.8</ele></trkpt><trkpt lat="37.923352" lon="-122.047407"><ele>29.3</ele></trkpt><trkpt lat="37.923332" lon="-122.047536"><ele>29.5</ele></trkpt><trkpt lat="37.923366" lon="-122.048377"><ele>30.2</ele></trkpt><trkpt lat="37.923417" lon="-122.049613"><ele>30.7</ele></trkpt><trkpt lat="37.923426" lon="-122.049812"><ele>30.8</ele></trkpt><trkpt lat="37.923434" lon="-122.050288"><ele>30.8</ele></trkpt><trkpt lat="37.923416" lon="-122.050412"><ele>30.8</ele></trkpt><trkpt lat="37.923362" lon="-122.050561"><ele>30.7</ele></trkpt><trkpt lat="37.923272" lon="-122.050725"><ele>30.7</ele></trkpt><trkpt lat="37.923168" lon="-122.050893"><ele>30.6</ele></trkpt><trkpt lat="37.923102" lon="-122.051004"><ele>30.5</ele></trkpt><trkpt lat="37.922937" lon="-122.051291"><ele>30.5</ele></trkpt><trkpt lat="37.922625" lon="-122.051802"><ele>30.4</ele></trkpt><trkpt lat="37.922411" lon="-122.052167"><ele>30.2</ele></trkpt><trkpt lat="37.922386" lon="-122.052242"><ele>30.2</ele></trkpt><trkpt lat="37.922377" lon="-122.052293"><ele>30.3</ele></trkpt><trkpt lat="37.922378" lon="-122.052395"><ele>30.3</ele></trkpt><trkpt lat="37.922468" lon="-122.052991"><ele>30.5</ele></trkpt><trkpt lat="37.922472" lon="-122.053046"><ele>30.5</ele></trkpt><trkpt lat="37.922473" lon="-122.053086"><ele>30.5</ele></trkpt><trkpt lat="37.922513" lon="-122.053401"><ele>30.5</ele></trkpt><trkpt lat="37.922557" lon="-122.053696"><ele>30.6</ele></trkpt><trkpt lat="37.922655" lon="-122.054789"><ele>31.1</ele></trkpt><trkpt lat="37.922712" lon="-122.055280"><ele>31.9</ele></trkpt><trkpt lat="37.922713" lon="-122.055295"><ele>32.0</ele></trkpt><trkpt lat="37.922716" lon="-122.055324"><ele>32.0</ele></trkpt><trkpt lat="37.922726" lon="-122.055410"><ele>32.2</ele></trkpt><trkpt lat="37.922744" lon="-122.055581"><ele>32.4</ele></trkpt><trkpt lat="37.922745" lon="-122.055637"><ele>32.4</ele></trkpt><trkpt lat="37.922737" lon="-122.055694"><ele>32.5</ele></trkpt><trkpt lat="37.922718" lon="-122.055775"><ele>32.6</ele></trkpt><trkpt lat="37.922698" lon="-122.055827"><ele>32.6</ele></trkpt><trkpt lat="37.922676" lon="-122.055871"><ele>32.7</ele></trkpt><trkpt lat="37.922484" lon="-122.056131"><ele>32.9</ele></trkpt><trkpt lat="37.922457" lon="-122.056168"><ele>32.9</ele></trkpt><trkpt lat="37.922001" lon="-122.056817"><ele>32.5</ele></trkpt><trkpt lat="37.921962" lon="-122.056922"><ele>32.4</ele></trkpt><trkpt lat="37.921943" lon="-122.056996"><ele>32.4</ele></trkpt><trkpt lat="37.921933" lon="-122.057140"><ele>32.3</ele></trkpt><trkpt lat="37.921942" lon="-122.058091"><ele>31.6</ele></trkpt><trkpt lat="37.921938" lon="-122.058113"><ele>31.6</ele></trkpt><trkpt lat="37.921913" lon="-122.058259"><ele>31.5</ele></trkpt><trkpt lat="37.921885" lon="-122.058402"><ele>31.4</ele></trkpt><trkpt lat="37.921766" lon="-122.058920"><ele>30.8</ele></trkpt><trkpt lat="37.921754" lon="-122.059010"><ele>30.7</ele></trkpt><trkpt lat="37.921755" lon="-122.059583"><ele>30.5</ele></trkpt><trkpt lat="37.921759" lon="-122.060336"><ele>30.7</ele></trkpt><trkpt lat="37.921771" lon="-122.060653"><ele>30.8</ele></trkpt><trkpt lat="37.921777" lon="-122.060687"><ele>30.8</ele></trkpt><trkpt lat="37.921785" lon="-122.060735"><ele>30.8</ele></trkpt><trkpt lat="37.921646" lon="-122.060790"><ele>30.8</ele></trkpt><trkpt lat="37.921564" lon="-122.060820"><ele>30.8</ele></trkpt><trkpt lat="37.921464" lon="-122.060858"><ele>30.8</ele></trkpt><trkpt lat="37.921224" lon="-122.060949"><ele>30.7</ele></trkpt><trkpt lat="37.920459" lon="-122.061240"><ele>30.5</ele></trkpt><trkpt lat="37.920038" lon="-122.061425"><ele>30.5</ele></trkpt><trkpt lat="37.919806" lon="-122.061540"><ele>30.4</ele></trkpt><trkpt lat="37.919216" lon="-122.061833"><ele>29.8</ele></trkpt><trkpt lat="37.918518" lon="-122.062182"><ele>29.6</ele></trkpt><trkpt lat="37.918322" lon="-122.062282"><ele>29.6</ele></trkpt><trkpt lat="37.917262" lon="-122.062798"><ele>30.6</ele></trkpt><trkpt lat="37.916792" lon="-122.062985"><ele>31.7</ele></trkpt><trkpt lat="37.915959" lon="-122.063212"><ele>33.8</ele></trkpt><trkpt lat="37.915492" lon="-122.063295"><ele>35.0</ele></trkpt><trkpt lat="37.914843" lon="-122.063367"><ele>36.7</ele></trkpt><trkpt lat="37.914325" lon="-122.063397"><ele>37.8</ele></trkpt><trkpt lat="37.913344" lon="-122.063490"><ele>40.5</ele></trkpt><trkpt lat="37.912574" lon="-122.063566"><ele>41.7</ele></trkpt><trkpt lat="37.911911" lon="-122.063710"><ele>42.1</ele></trkpt><trkpt lat="37.911901" lon="-122.063711"><ele>42.1</ele></trkpt><trkpt lat="37.911833" lon="-122.063728"><ele>42.2</ele></trkpt><trkpt lat="37.911887" lon="-122.064036"><ele>42.5</ele></trkpt><trkpt lat="37.911905" lon="-122.064138"><ele>42.6</ele></trkpt><trkpt lat="37.911966" lon="-122.064419"><ele>42.7</ele></trkpt><trkpt lat="37.912022" lon="-122.064756"><ele>42.7</ele></trkpt><trkpt lat="37.912044" lon="-122.064887"><ele>42.7</ele></trkpt><trkpt lat="37.912062" lon="-122.065112"><ele>42.7</ele></trkpt><trkpt lat="37.912067" lon="-122.065281"><ele>42.7</ele></trkpt><trkpt lat="37.912063" lon="-122.065370"><ele>42.7</ele></trkpt><trkpt lat="37.912036" lon="-122.065536"><ele>42.7</ele></trkpt><trkpt lat="37.911894" lon="-122.065534"><ele>42.9</ele></trkpt><trkpt lat="37.911816" lon="-122.065527"><ele>43.1</ele></trkpt><trkpt lat="37.911652" lon="-122.065514"><ele>43.5</ele></trkpt><trkpt lat="37.911405" lon="-122.065493"><ele>44.0</ele></trkpt><trkpt lat="37.911309" lon="-122.065485"><ele>44.1</ele></trkpt><trkpt lat="37.911156" lon="-122.065473"><ele>44.2</ele></trkpt><trkpt lat="37.911121" lon="-122.065471"><ele>44.3</ele></trkpt><trkpt lat="37.910894" lon="-122.065458"><ele>44.6</ele></trkpt><trkpt lat="37.910636" lon="-122.065423"><ele>45.2</ele></trkpt><trkpt lat="37.910544" lon="-122.065410"><ele>45.4</ele></trkpt><trkpt lat="37.910376" lon="-122.065382"><ele>45.8</ele></trkpt><trkpt lat="37.910306" lon="-122.065371"><ele>46.0</ele></trkpt><trkpt lat="37.910155" lon="-122.065347"><ele>46.5</ele></trkpt><trkpt lat="37.910134" lon="-122.065343"><ele>46.6</ele></trkpt><trkpt lat="37.910048" lon="-122.065330"><ele>46.9</ele></trkpt><trkpt lat="37.909921" lon="-122.065311"><ele>47.3</ele></trkpt><trkpt lat="37.909894" lon="-122.065306"><ele>47.4</ele></trkpt><trkpt lat="37.909460" lon="-122.065341"><ele>48.4</ele></trkpt><trkpt lat="37.909435" lon="-122.065356"><ele>48.5</ele></trkpt><trkpt lat="37.908802" lon="-122.065682"><ele>50.3</ele></trkpt><trkpt lat="37.908520" lon="-122.065854"><ele>51.4</ele></trkpt><trkpt lat="37.908475" lon="-122.065882"><ele>51.6</ele></trkpt><trkpt lat="37.908229" lon="-122.066038"><ele>52.3</ele></trkpt><trkpt lat="37.907976" lon="-122.066237"><ele>52.6</ele></trkpt><trkpt lat="37.907807" lon="-122.066370"><ele>52.8</ele></trkpt><trkpt lat="37.907769" lon="-122.066399"><ele>52.8</ele></trkpt><trkpt lat="37.907669" lon="-122.066451"><ele>52.9</ele></trkpt><trkpt lat="37.907550" lon="-122.066478"><ele>52.9</ele></trkpt><trkpt lat="37.907530" lon="-122.066481"><ele>52.9</ele></trkpt><trkpt lat="37.907122" lon="-122.066496"><ele>53.3</ele></trkpt><trkpt lat="37.906927" lon="-122.066491"><ele>53.5</ele></trkpt><trkpt lat="37.906925" lon="-122.066591"><ele>53.6</ele></trkpt><trkpt lat="37.906922" lon="-122.066698"><ele>53.6</ele></trkpt><trkpt lat="37.906918" lon="-122.066746"><ele>53.6</ele></trkpt><trkpt lat="37.906909" lon="-122.066793"><ele>53.6</ele></trkpt><trkpt lat="37.906877" lon="-122.066859"><ele>53.6</ele></trkpt><trkpt lat="37.906833" lon="-122.066909"><ele>53.6</ele></trkpt><trkpt lat="37.906636" lon="-122.067032"><ele>53.6</ele></trkpt><trkpt lat="37.906379" lon="-122.067184"><ele>53.5</ele></trkpt><trkpt lat="37.906317" lon="-122.067221"><ele>53.5</ele></trkpt><trkpt lat="37.906344" lon="-122.067297"><ele>53.5</ele></trkpt><trkpt lat="37.906296" lon="-122.067327"><ele>53.4</ele></trkpt><trkpt lat="37.906287" lon="-122.067333"><ele>53.4</ele></trkpt><trkpt lat="37.906268" lon="-122.067283"><ele>53.4</ele></trkpt><trkpt lat="37.906161" lon="-122.067043"><ele>53.4</ele></trkpt><trkpt lat="37.906141" lon="-122.067009"><ele>53.4</ele></trkpt><trkpt lat="37.906124" lon="-122.066999"><ele>53.4</ele></trkpt><trkpt lat="37.906094" lon="-122.066991"><ele>53.5</ele></trkpt><trkpt lat="37.906057" lon="-122.067004"><ele>53.5</ele></trkpt><trkpt lat="37.905801" lon="-122.067156"><ele>53.6</ele></trkpt><trkpt lat="37.905725" lon="-122.067208"><ele>53.6</ele></trkpt><trkpt lat="37.905690" lon="-122.067227"><ele>53.6</ele></trkpt><trkpt lat="37.905645" lon="-122.067233"><ele>53.6</ele></trkpt><trkpt lat="37.905612" lon="-122.067223"><ele>53.6</ele></trkpt><trkpt lat="37.905595" lon="-122.067218"><ele>53.6</ele></trkpt><trkpt lat="37.905591" lon="-122.067214"><ele>53.6</ele></trkpt></trkseg></trk>
</gpx>