<?xml version="1.0" encoding="UTF-8"?>
<gpx version="1.1" creator="north-bay-planning" xmlns="http://www.topografix.com/GPX/1/1">
<metadata><name>Mount Tam by the ferries overnight day 2</name><desc>Day 2 Pantoll to Sausalito ferry</desc></metadata>
<wpt lat="37.903820" lon="-122.603640"><name>Pantoll hike-and-bike</name><desc>Walk-up, about $7 per person.</desc></wpt>
<trk><name>Day 2 Pantoll to Sausalito ferry</name><trkseg><trkpt lat="37.903990" lon="-122.603980"><ele>454.2</ele></trkpt><trkpt lat="37.903640" lon="-122.603980"><ele>452.0</ele></trkpt><trkpt lat="37.902930" lon="-122.604090"><ele>449.1</ele></trkpt><trkpt lat="37.902440" lon="-122.604120"><ele>445.8</ele></trkpt><trkpt lat="37.902160" lon="-122.604180"><ele>444.6</ele></trkpt><trkpt lat="37.901900" lon="-122.604200"><ele>443.7</ele></trkpt><trkpt lat="37.901580" lon="-122.604280"><ele>443.0</ele></trkpt><trkpt lat="37.901440" lon="-122.604240"><ele>442.8</ele></trkpt><trkpt lat="37.901160" lon="-122.604040"><ele>442.6</ele></trkpt><trkpt lat="37.901020" lon="-122.604010"><ele>442.6</ele></trkpt><trkpt lat="37.900910" lon="-122.604040"><ele>442.6</ele></trkpt><trkpt lat="37.900660" lon="-122.604210"><ele>442.5</ele></trkpt><trkpt lat="37.900410" lon="-122.604280"><ele>442.3</ele></trkpt><trkpt lat="37.900160" lon="-122.604240"><ele>442.1</ele></trkpt><trkpt lat="37.899980" lon="-122.604190"><ele>441.9</ele></trkpt><trkpt lat="37.899710" lon="-122.604070"><ele>441.6</ele></trkpt><trkpt lat="37.899600" lon="-122.604060"><ele>441.6</ele></trkpt><trkpt lat="37.899420" lon="-122.604080"><ele>441.5</ele></trkpt><trkpt lat="37.899030" lon="-122.604200"><ele>440.6</ele></trkpt><trkpt lat="37.898960" lon="-122.604200"><ele>440.4</ele></trkpt><trkpt lat="37.898860" lon="-122.604150"><ele>440.0</ele></trkpt><trkpt lat="37.898780" lon="-122.604060"><ele>439.7</ele></trkpt><trkpt lat="37.898690" lon="-122.603910"><ele>438.9</ele></trkpt><trkpt lat="37.898470" lon="-122.603600"><ele>436.8</ele></trkpt><trkpt lat="37.898420" lon="-122.603480"><ele>436.1</ele></trkpt><trkpt lat="37.898360" lon="-122.603220"><ele>434.3</ele></trkpt><trkpt lat="37.898300" lon="-122.603100"><ele>433.3</ele></trkpt><trkpt lat="37.898210" lon="-122.603020"><ele>432.4</ele></trkpt><trkpt lat="37.897940" lon="-122.602880"><ele>429.9</ele></trkpt><trkpt lat="37.897820" lon="-122.602780"><ele>428.6</ele></trkpt><trkpt lat="37.897750" lon="-122.602680"><ele>427.7</ele></trkpt><trkpt lat="37.897670" lon="-122.602430"><ele>425.4</ele></trkpt><trkpt lat="37.897650" lon="-122.602340"><ele>424.6</ele></trkpt><trkpt lat="37.897660" lon="-122.601880"><ele>420.2</ele></trkpt><trkpt lat="37.897630" lon="-122.601740"><ele>418.8</ele></trkpt><trkpt lat="37.897560" lon="-122.601590"><ele>417.2</ele></trkpt><trkpt lat="37.897360" lon="-122.601390"><ele>414.2</ele></trkpt><trkpt lat="37.897110" lon="-122.601480"><ele>411.3</ele></trkpt><trkpt lat="37.897010" lon="-122.601470"><ele>410.2</ele></trkpt><trkpt lat="37.896920" lon="-122.601430"><ele>409.1</ele></trkpt><trkpt lat="37.896640" lon="-122.601180"><ele>405.9</ele></trkpt><trkpt lat="37.896460" lon="-122.601040"><ele>404.1</ele></trkpt><trkpt lat="37.896340" lon="-122.600910"><ele>402.7</ele></trkpt><trkpt lat="37.896140" lon="-122.600560"><ele>399.4</ele></trkpt><trkpt lat="37.896050" lon="-122.600460"><ele>398.3</ele></trkpt><trkpt lat="37.895940" lon="-122.600400"><ele>397.1</ele></trkpt><trkpt lat="37.895670" lon="-122.600320"><ele>394.4</ele></trkpt><trkpt lat="37.895490" lon="-122.600220"><ele>392.6</ele></trkpt><trkpt lat="37.895380" lon="-122.600090"><ele>391.4</ele></trkpt><trkpt lat="37.895090" lon="-122.599830"><ele>388.7</ele></trkpt><trkpt lat="37.894850" lon="-122.599550"><ele>386.7</ele></trkpt><trkpt lat="37.894660" lon="-122.599400"><ele>385.2</ele></trkpt><trkpt lat="37.894390" lon="-122.599270"><ele>382.8</ele></trkpt><trkpt lat="37.894330" lon="-122.599220"><ele>382.2</ele></trkpt><trkpt lat="37.894300" lon="-122.599140"><ele>381.6</ele></trkpt><trkpt lat="37.894360" lon="-122.598920"><ele>380.2</ele></trkpt><trkpt lat="37.894360" lon="-122.598830"><ele>379.7</ele></trkpt><trkpt lat="37.894340" lon="-122.598790"><ele>379.4</ele></trkpt><trkpt lat="37.894280" lon="-122.598750"><ele>379.0</ele></trkpt><trkpt lat="37.894130" lon="-122.598740"><ele>377.9</ele></trkpt><trkpt lat="37.894050" lon="-122.598700"><ele>377.3</ele></trkpt><trkpt lat="37.894000" lon="-122.598680"><ele>377.0</ele></trkpt><trkpt lat="37.893930" lon="-122.598580"><ele>376.5</ele></trkpt><trkpt lat="37.893870" lon="-122.598360"><ele>375.7</ele></trkpt><trkpt lat="37.893810" lon="-122.598310"><ele>375.4</ele></trkpt><trkpt lat="37.893780" lon="-122.598300"><ele>375.3</ele></trkpt><trkpt lat="37.893710" lon="-122.598330"><ele>374.9</ele></trkpt><trkpt lat="37.893520" lon="-122.598460"><ele>373.8</ele></trkpt><trkpt lat="37.893380" lon="-122.598510"><ele>373.0</ele></trkpt><trkpt lat="37.893280" lon="-122.598460"><ele>372.4</ele></trkpt><trkpt lat="37.893090" lon="-122.598260"><ele>370.8</ele></trkpt><trkpt lat="37.892990" lon="-122.598210"><ele>369.9</ele></trkpt><trkpt lat="37.892950" lon="-122.598220"><ele>369.6</ele></trkpt><trkpt lat="37.892900" lon="-122.598280"><ele>369.0</ele></trkpt><trkpt lat="37.892720" lon="-122.598620"><ele>366.6</ele></trkpt><trkpt lat="37.892660" lon="-122.598680"><ele>366.1</ele></trkpt><trkpt lat="37.892560" lon="-122.598720"><ele>365.4</ele></trkpt><trkpt lat="37.892420" lon="-122.598670"><ele>364.4</ele></trkpt><trkpt lat="37.892330" lon="-122.598590"><ele>363.7</ele></trkpt><trkpt lat="37.891880" lon="-122.598120"><ele>359.7</ele></trkpt><trkpt lat="37.891720" lon="-122.598030"><ele>358.6</ele></trkpt><trkpt lat="37.891540" lon="-122.597970"><ele>357.3</ele></trkpt><trkpt lat="37.891480" lon="-122.598000"><ele>356.9</ele></trkpt><trkpt lat="37.891430" lon="-122.598070"><ele>356.3</ele></trkpt><trkpt lat="37.891420" lon="-122.598160"><ele>355.9</ele></trkpt><trkpt lat="37.891460" lon="-122.598380"><ele>354.8</ele></trkpt><trkpt lat="37.891430" lon="-122.598470"><ele>354.3</ele></trkpt><trkpt lat="37.891370" lon="-122.598510"><ele>353.9</ele></trkpt><trkpt lat="37.891300" lon="-122.598510"><ele>353.4</ele></trkpt><trkpt lat="37.891160" lon="-122.598470"><ele>352.9</ele></trkpt><trkpt lat="37.890910" lon="-122.598480"><ele>352.6</ele></trkpt><trkpt lat="37.890740" lon="-122.598400"><ele>352.4</ele></trkpt><trkpt lat="37.890500" lon="-122.598340"><ele>352.0</ele></trkpt><trkpt lat="37.889950" lon="-122.598360"><ele>350.9</ele></trkpt><trkpt lat="37.889510" lon="-122.598280"><ele>349.5</ele></trkpt><trkpt lat="37.889200" lon="-122.598280"><ele>348.3</ele></trkpt><trkpt lat="37.888960" lon="-122.598340"><ele>347.2</ele></trkpt><trkpt lat="37.888720" lon="-122.598300"><ele>346.0</ele></trkpt><trkpt lat="37.888560" lon="-122.598310"><ele>345.2</ele></trkpt><trkpt lat="37.888450" lon="-122.598280"><ele>344.4</ele></trkpt><trkpt lat="37.888390" lon="-122.598210"><ele>343.7</ele></trkpt><trkpt lat="37.888290" lon="-122.597970"><ele>342.0</ele></trkpt><trkpt lat="37.888280" lon="-122.597820"><ele>341.1</ele></trkpt><trkpt lat="37.888300" lon="-122.597560"><ele>339.1</ele></trkpt><trkpt lat="37.888380" lon="-122.597300"><ele>337.0</ele></trkpt><trkpt lat="37.888420" lon="-122.596970"><ele>334.5</ele></trkpt><trkpt lat="37.888370" lon="-122.596320"><ele>329.9</ele></trkpt><trkpt lat="37.888210" lon="-122.595800"><ele>325.6</ele></trkpt><trkpt lat="37.888200" lon="-122.595700"><ele>324.8</ele></trkpt><trkpt lat="37.888250" lon="-122.595650"><ele>324.2</ele></trkpt><trkpt lat="37.888470" lon="-122.595640"><ele>321.9</ele></trkpt><trkpt lat="37.888540" lon="-122.595590"><ele>321.1</ele></trkpt><trkpt lat="37.888640" lon="-122.595450"><ele>319.6</ele></trkpt><trkpt lat="37.888820" lon="-122.595240"><ele>317.5</ele></trkpt><trkpt lat="37.889040" lon="-122.595200"><ele>315.5</ele></trkpt><trkpt lat="37.889110" lon="-122.595160"><ele>314.9</ele></trkpt><trkpt lat="37.889180" lon="-122.595090"><ele>314.2</ele></trkpt><trkpt lat="37.889600" lon="-122.595000"><ele>311.1</ele></trkpt><trkpt lat="37.889620" lon="-122.594950"><ele>310.8</ele></trkpt><trkpt lat="37.889580" lon="-122.594910"><ele>310.4</ele></trkpt><trkpt lat="37.889080" lon="-122.594750"><ele>306.5</ele></trkpt><trkpt lat="37.888950" lon="-122.594660"><ele>305.2</ele></trkpt><trkpt lat="37.888890" lon="-122.594580"><ele>304.5</ele></trkpt><trkpt lat="37.888750" lon="-122.594520"><ele>303.2</ele></trkpt><trkpt lat="37.888560" lon="-122.594500"><ele>301.7</ele></trkpt><trkpt lat="37.888460" lon="-122.594570"><ele>300.8</ele></trkpt><trkpt lat="37.888360" lon="-122.594610"><ele>300.0</ele></trkpt><trkpt lat="37.888260" lon="-122.594610"><ele>299.3</ele></trkpt><trkpt lat="37.888190" lon="-122.594570"><ele>298.7</ele></trkpt><trkpt lat="37.888170" lon="-122.594500"><ele>298.2</ele></trkpt><trkpt lat="37.888150" lon="-122.594390"><ele>297.6</ele></trkpt><trkpt lat="37.888090" lon="-122.594260"><ele>296.8</ele></trkpt><trkpt lat="37.887690" lon="-122.593940"><ele>293.6</ele></trkpt><trkpt lat="37.887630" lon="-122.593830"><ele>292.9</ele></trkpt><trkpt lat="37.887600" lon="-122.593700"><ele>292.1</ele></trkpt><trkpt lat="37.887530" lon="-122.593590"><ele>291.4</ele></trkpt><trkpt lat="37.887450" lon="-122.593520"><ele>290.8</ele></trkpt><trkpt lat="37.887330" lon="-122.593450"><ele>290.2</ele></trkpt><trkpt lat="37.887100" lon="-122.593460"><ele>289.0</ele></trkpt><trkpt lat="37.886970" lon="-122.593500"><ele>288.4</ele></trkpt><trkpt lat="37.886740" lon="-122.593650"><ele>287.5</ele></trkpt><trkpt lat="37.886620" lon="-122.593650"><ele>287.1</ele></trkpt><trkpt lat="37.886490" lon="-122.593580"><ele>286.6</ele></trkpt><trkpt lat="37.886390" lon="-122.593590"><ele>286.5</ele></trkpt><trkpt lat="37.886170" lon="-122.593700"><ele>286.5</ele></trkpt><trkpt lat="37.886090" lon="-122.593790"><ele>286.5</ele></trkpt><trkpt lat="37.886010" lon="-122.593830"><ele>286.5</ele></trkpt><trkpt lat="37.885890" lon="-122.593840"><ele>286.6</ele></trkpt><trkpt lat="37.885810" lon="-122.593800"><ele>286.6</ele></trkpt><trkpt lat="37.885720" lon="-122.593700"><ele>286.7</ele></trkpt><trkpt lat="37.885600" lon="-122.593670"><ele>286.7</ele></trkpt><trkpt lat="37.885520" lon="-122.593620"><ele>286.8</ele></trkpt><trkpt lat="37.885430" lon="-122.593590"><ele>286.9</ele></trkpt><trkpt lat="37.885260" lon="-122.593620"><ele>286.9</ele></trkpt><trkpt lat="37.885150" lon="-122.593620"><ele>287.0</ele></trkpt><trkpt lat="37.884960" lon="-122.593690"><ele>287.1</ele></trkpt><trkpt lat="37.884870" lon="-122.593660"><ele>286.9</ele></trkpt><trkpt lat="37.884790" lon="-122.593580"><ele>286.6</ele></trkpt><trkpt lat="37.884670" lon="-122.593120"><ele>285.4</ele></trkpt><trkpt lat="37.884560" lon="-122.593000"><ele>284.7</ele></trkpt><trkpt lat="37.884430" lon="-122.592950"><ele>284.0</ele></trkpt><trkpt lat="37.884180" lon="-122.592780"><ele>282.5</ele></trkpt><trkpt lat="37.884040" lon="-122.592670"><ele>281.4</ele></trkpt><trkpt lat="37.883940" lon="-122.592570"><ele>280.5</ele></trkpt><trkpt lat="37.883870" lon="-122.592420"><ele>279.6</ele></trkpt><trkpt lat="37.883780" lon="-122.592170"><ele>278.0</ele></trkpt><trkpt lat="37.883510" lon="-122.591730"><ele>274.3</ele></trkpt><trkpt lat="37.883440" lon="-122.591690"><ele>273.5</ele></trkpt><trkpt lat="37.883340" lon="-122.591690"><ele>272.4</ele></trkpt><trkpt lat="37.883160" lon="-122.591820"><ele>270.2</ele></trkpt><trkpt lat="37.883120" lon="-122.591950"><ele>269.0</ele></trkpt><trkpt lat="37.883130" lon="-122.592130"><ele>267.5</ele></trkpt><trkpt lat="37.883120" lon="-122.592320"><ele>266.0</ele></trkpt><trkpt lat="37.883050" lon="-122.592480"><ele>264.5</ele></trkpt><trkpt lat="37.882990" lon="-122.592570"><ele>263.6</ele></trkpt><trkpt lat="37.882930" lon="-122.592600"><ele>263.2</ele></trkpt><trkpt lat="37.882770" lon="-122.592580"><ele>262.2</ele></trkpt><trkpt lat="37.882520" lon="-122.592640"><ele>260.7</ele></trkpt><trkpt lat="37.881990" lon="-122.592570"><ele>257.1</ele></trkpt><trkpt lat="37.881880" lon="-122.592590"><ele>256.3</ele></trkpt><trkpt lat="37.881770" lon="-122.592650"><ele>255.4</ele></trkpt><trkpt lat="37.881670" lon="-122.592730"><ele>254.4</ele></trkpt><trkpt lat="37.881580" lon="-122.592990"><ele>252.7</ele></trkpt><trkpt lat="37.881560" lon="-122.593270"><ele>250.9</ele></trkpt><trkpt lat="37.881500" lon="-122.593420"><ele>249.9</ele></trkpt><trkpt lat="37.881400" lon="-122.593560"><ele>248.7</ele></trkpt><trkpt lat="37.881250" lon="-122.593630"><ele>247.5</ele></trkpt><trkpt lat="37.881140" lon="-122.593720"><ele>246.6</ele></trkpt><trkpt lat="37.881100" lon="-122.593800"><ele>246.0</ele></trkpt><trkpt lat="37.881140" lon="-122.593950"><ele>245.1</ele></trkpt><trkpt lat="37.881120" lon="-122.593990"><ele>244.8</ele></trkpt><trkpt lat="37.881080" lon="-122.593980"><ele>244.5</ele></trkpt><trkpt lat="37.881030" lon="-122.593950"><ele>244.1</ele></trkpt><trkpt lat="37.880980" lon="-122.593840"><ele>243.0</ele></trkpt><trkpt lat="37.880960" lon="-122.593710"><ele>241.9</ele></trkpt><trkpt lat="37.880960" lon="-122.593600"><ele>240.9</ele></trkpt><trkpt lat="37.881040" lon="-122.593440"><ele>239.3</ele></trkpt><trkpt lat="37.881020" lon="-122.593380"><ele>238.8</ele></trkpt><trkpt lat="37.880980" lon="-122.593330"><ele>238.2</ele></trkpt><trkpt lat="37.880930" lon="-122.593330"><ele>237.7</ele></trkpt><trkpt lat="37.880780" lon="-122.593520"><ele>235.7</ele></trkpt><trkpt lat="37.880710" lon="-122.593570"><ele>234.9</ele></trkpt><trkpt lat="37.880530" lon="-122.593580"><ele>233.1</ele></trkpt><trkpt lat="37.880210" lon="-122.593690"><ele>229.9</ele></trkpt><trkpt lat="37.880010" lon="-122.593700"><ele>227.9</ele></trkpt><trkpt lat="37.879840" lon="-122.593750"><ele>225.9</ele></trkpt><trkpt lat="37.879690" lon="-122.593780"><ele>224.2</ele></trkpt><trkpt lat="37.879560" lon="-122.593750"><ele>222.7</ele></trkpt><trkpt lat="37.879350" lon="-122.593540"><ele>219.8</ele></trkpt><trkpt lat="37.879280" lon="-122.593510"><ele>219.0</ele></trkpt><trkpt lat="37.879100" lon="-122.593580"><ele>216.9</ele></trkpt><trkpt lat="37.879000" lon="-122.593590"><ele>215.9</ele></trkpt><trkpt lat="37.878840" lon="-122.593510"><ele>214.3</ele></trkpt><trkpt lat="37.878780" lon="-122.593420"><ele>213.5</ele></trkpt><trkpt lat="37.878750" lon="-122.593350"><ele>212.9</ele></trkpt><trkpt lat="37.878700" lon="-122.593290"><ele>212.3</ele></trkpt><trkpt lat="37.878610" lon="-122.593280"><ele>211.4</ele></trkpt><trkpt lat="37.878390" lon="-122.593340"><ele>209.3</ele></trkpt><trkpt lat="37.877690" lon="-122.593360"><ele>203.1</ele></trkpt><trkpt lat="37.877590" lon="-122.593320"><ele>202.2</ele></trkpt><trkpt lat="37.877550" lon="-122.593260"><ele>201.6</ele></trkpt><trkpt lat="37.877540" lon="-122.593160"><ele>201.0</ele></trkpt><trkpt lat="37.877560" lon="-122.593050"><ele>200.3</ele></trkpt><trkpt lat="37.877560" lon="-122.592930"><ele>199.5</ele></trkpt><trkpt lat="37.877530" lon="-122.592830"><ele>198.8</ele></trkpt><trkpt lat="37.877470" lon="-122.592780"><ele>198.3</ele></trkpt><trkpt lat="37.877410" lon="-122.592770"><ele>197.8</ele></trkpt><trkpt lat="37.877290" lon="-122.592790"><ele>196.8</ele></trkpt><trkpt lat="37.877220" lon="-122.592750"><ele>196.3</ele></trkpt><trkpt lat="37.877130" lon="-122.592670"><ele>195.5</ele></trkpt><trkpt lat="37.877060" lon="-122.592650"><ele>195.0</ele></trkpt><trkpt lat="37.876990" lon="-122.592700"><ele>194.4</ele></trkpt><trkpt lat="37.876920" lon="-122.592870"><ele>193.3</ele></trkpt><trkpt lat="37.876840" lon="-122.593210"><ele>191.0</ele></trkpt><trkpt lat="37.876790" lon="-122.593340"><ele>190.0</ele></trkpt><trkpt lat="37.876800" lon="-122.593470"><ele>189.1</ele></trkpt><trkpt lat="37.876770" lon="-122.593490"><ele>188.9</ele></trkpt><trkpt lat="37.876630" lon="-122.593140"><ele>186.6</ele></trkpt><trkpt lat="37.876500" lon="-122.592920"><ele>185.2</ele></trkpt><trkpt lat="37.876280" lon="-122.592680"><ele>183.1</ele></trkpt><trkpt lat="37.876000" lon="-122.592450"><ele>180.6</ele></trkpt><trkpt lat="37.875600" lon="-122.592200"><ele>177.4</ele></trkpt><trkpt lat="37.875600" lon="-122.592200"><ele>177.4</ele></trkpt><trkpt lat="37.875320" lon="-122.592070"><ele>174.9</ele></trkpt><trkpt lat="37.875090" lon="-122.591920"><ele>172.5</ele></trkpt><trkpt lat="37.874970" lon="-122.591810"><ele>171.2</ele></trkpt><trkpt lat="37.874730" lon="-122.591660"><ele>168.9</ele></trkpt><trkpt lat="37.874510" lon="-122.591600"><ele>167.0</ele></trkpt><trkpt lat="37.873690" lon="-122.591220"><ele>158.9</ele></trkpt><trkpt lat="37.873440" lon="-122.591020"><ele>156.3</ele></trkpt><trkpt lat="37.873260" lon="-122.590790"><ele>154.1</ele></trkpt><trkpt lat="37.872880" lon="-122.590790"><ele>151.5</ele></trkpt><trkpt lat="37.872430" lon="-122.590730"><ele>149.1</ele></trkpt><trkpt lat="37.871480" lon="-122.590480"><ele>144.5</ele></trkpt><trkpt lat="37.871100" lon="-122.590260"><ele>142.6</ele></trkpt><trkpt lat="37.870150" lon="-122.589820"><ele>138.9</ele></trkpt><trkpt lat="37.869690" lon="-122.589550"><ele>136.5</ele></trkpt><trkpt lat="37.869610" lon="-122.589520"><ele>136.1</ele></trkpt><trkpt lat="37.869550" lon="-122.589520"><ele>135.8</ele></trkpt><trkpt lat="37.869460" lon="-122.589560"><ele>135.3</ele></trkpt><trkpt lat="37.868180" lon="-122.588580"><ele>136.3</ele></trkpt><trkpt lat="37.868060" lon="-122.588370"><ele>136.9</ele></trkpt><trkpt lat="37.867890" lon="-122.587820"><ele>138.7</ele></trkpt><trkpt lat="37.867780" lon="-122.587700"><ele>139.2</ele></trkpt><trkpt lat="37.867470" lon="-122.587570"><ele>140.3</ele></trkpt><trkpt lat="37.866230" lon="-122.587280"><ele>141.3</ele></trkpt><trkpt lat="37.865580" lon="-122.586990"><ele>140.4</ele></trkpt><trkpt lat="37.865150" lon="-122.586840"><ele>139.7</ele></trkpt><trkpt lat="37.864830" lon="-122.586800"><ele>139.4</ele></trkpt><trkpt lat="37.864640" lon="-122.586700"><ele>138.6</ele></trkpt><trkpt lat="37.864560" lon="-122.586610"><ele>138.1</ele></trkpt><trkpt lat="37.864500" lon="-122.586520"><ele>137.7</ele></trkpt><trkpt lat="37.864360" lon="-122.586090"><ele>135.3</ele></trkpt><trkpt lat="37.864330" lon="-122.585940"><ele>134.3</ele></trkpt><trkpt lat="37.864300" lon="-122.585580"><ele>131.9</ele></trkpt><trkpt lat="37.864270" lon="-122.585480"><ele>131.1</ele></trkpt><trkpt lat="37.864070" lon="-122.585080"><ele>127.7</ele></trkpt><trkpt lat="37.864040" lon="-122.584880"><ele>125.6</ele></trkpt><trkpt lat="37.864070" lon="-122.584640"><ele>122.9</ele></trkpt><trkpt lat="37.864140" lon="-122.584370"><ele>119.7</ele></trkpt><trkpt lat="37.864180" lon="-122.584250"><ele>118.2</ele></trkpt><trkpt lat="37.864300" lon="-122.584070"><ele>115.4</ele></trkpt><trkpt lat="37.864720" lon="-122.583610"><ele>108.1</ele></trkpt><trkpt lat="37.864870" lon="-122.583350"><ele>105.0</ele></trkpt><trkpt lat="37.865160" lon="-122.582620"><ele>97.6</ele></trkpt><trkpt lat="37.865210" lon="-122.582380"><ele>95.2</ele></trkpt><trkpt lat="37.865210" lon="-122.582270"><ele>94.2</ele></trkpt><trkpt lat="37.865190" lon="-122.582160"><ele>93.1</ele></trkpt><trkpt lat="37.865140" lon="-122.582070"><ele>92.2</ele></trkpt><trkpt lat="37.864820" lon="-122.581690"><ele>88.5</ele></trkpt><trkpt lat="37.864580" lon="-122.581210"><ele>83.7</ele></trkpt><trkpt lat="37.864370" lon="-122.580900"><ele>80.2</ele></trkpt><trkpt lat="37.864310" lon="-122.580750"><ele>78.9</ele></trkpt><trkpt lat="37.864280" lon="-122.580510"><ele>76.9</ele></trkpt><trkpt lat="37.864290" lon="-122.580180"><ele>74.5</ele></trkpt><trkpt lat="37.864320" lon="-122.580020"><ele>73.3</ele></trkpt><trkpt lat="37.864370" lon="-122.579860"><ele>72.1</ele></trkpt><trkpt lat="37.864520" lon="-122.579470"><ele>68.5</ele></trkpt><trkpt lat="37.864530" lon="-122.579350"><ele>67.5</ele></trkpt><trkpt lat="37.864490" lon="-122.579200"><ele>66.2</ele></trkpt><trkpt lat="37.864420" lon="-122.579070"><ele>64.8</ele></trkpt><trkpt lat="37.864320" lon="-122.578960"><ele>63.3</ele></trkpt><trkpt lat="37.864090" lon="-122.578820"><ele>60.4</ele></trkpt><trkpt lat="37.863990" lon="-122.578730"><ele>59.2</ele></trkpt><trkpt lat="37.863910" lon="-122.578600"><ele>58.1</ele></trkpt><trkpt lat="37.863750" lon="-122.578240"><ele>55.3</ele></trkpt><trkpt lat="37.863620" lon="-122.578050"><ele>53.3</ele></trkpt><trkpt lat="37.863490" lon="-122.577920"><ele>51.6</ele></trkpt><trkpt lat="37.863230" lon="-122.577720"><ele>48.5</ele></trkpt><trkpt lat="37.863080" lon="-122.577570"><ele>46.5</ele></trkpt><trkpt lat="37.862930" lon="-122.577390"><ele>44.3</ele></trkpt><trkpt lat="37.862840" lon="-122.577220"><ele>42.2</ele></trkpt><trkpt lat="37.862790" lon="-122.577020"><ele>39.8</ele></trkpt><trkpt lat="37.862800" lon="-122.576850"><ele>37.9</ele></trkpt><trkpt lat="37.862850" lon="-122.576610"><ele>35.1</ele></trkpt><trkpt lat="37.862900" lon="-122.576500"><ele>33.6</ele></trkpt><trkpt lat="37.862980" lon="-122.576380"><ele>31.8</ele></trkpt><trkpt lat="37.863120" lon="-122.576270"><ele>29.3</ele></trkpt><trkpt lat="37.863240" lon="-122.576230"><ele>27.5</ele></trkpt><trkpt lat="37.863340" lon="-122.576220"><ele>26.1</ele></trkpt><trkpt lat="37.863340" lon="-122.576130"><ele>25.1</ele></trkpt><trkpt lat="37.863300" lon="-122.576110"><ele>24.5</ele></trkpt><trkpt lat="37.863280" lon="-122.576040"><ele>23.6</ele></trkpt><trkpt lat="37.863250" lon="-122.575860"><ele>21.5</ele></trkpt><trkpt lat="37.863280" lon="-122.575710"><ele>19.8</ele></trkpt><trkpt lat="37.863360" lon="-122.575720"><ele>18.8</ele></trkpt><trkpt lat="37.863410" lon="-122.575690"><ele>18.0</ele></trkpt><trkpt lat="37.863400" lon="-122.575660"><ele>17.7</ele></trkpt><trkpt lat="37.863320" lon="-122.575590"><ele>16.4</ele></trkpt><trkpt lat="37.863300" lon="-122.575510"><ele>15.6</ele></trkpt><trkpt lat="37.863400" lon="-122.575440"><ele>14.1</ele></trkpt><trkpt lat="37.863480" lon="-122.575440"><ele>13.1</ele></trkpt><trkpt lat="37.863490" lon="-122.575420"><ele>13.0</ele></trkpt><trkpt lat="37.863450" lon="-122.575390"><ele>12.5</ele></trkpt><trkpt lat="37.863450" lon="-122.575330"><ele>12.0</ele></trkpt><trkpt lat="37.863410" lon="-122.575310"><ele>11.6</ele></trkpt><trkpt lat="37.863480" lon="-122.575280"><ele>10.9</ele></trkpt><trkpt lat="37.863550" lon="-122.575230"><ele>10.1</ele></trkpt><trkpt lat="37.864520" lon="-122.574660"><ele>8.4</ele></trkpt><trkpt lat="37.864720" lon="-122.574510"><ele>8.9</ele></trkpt><trkpt lat="37.864830" lon="-122.574480"><ele>9.6</ele></trkpt><trkpt lat="37.864790" lon="-122.574370"><ele>10.2</ele></trkpt><trkpt lat="37.864700" lon="-122.574310"><ele>10.8</ele></trkpt><trkpt lat="37.864620" lon="-122.574190"><ele>11.6</ele></trkpt><trkpt lat="37.864600" lon="-122.574110"><ele>12.0</ele></trkpt><trkpt lat="37.864510" lon="-122.574050"><ele>12.8</ele></trkpt><trkpt lat="37.864210" lon="-122.573740"><ele>15.9</ele></trkpt><trkpt lat="37.863910" lon="-122.573470"><ele>18.7</ele></trkpt><trkpt lat="37.863670" lon="-122.573060"><ele>22.0</ele></trkpt><trkpt lat="37.863690" lon="-122.573060"><ele>22.1</ele></trkpt><trkpt lat="37.863780" lon="-122.573130"><ele>23.0</ele></trkpt><trkpt lat="37.863950" lon="-122.573240"><ele>24.7</ele></trkpt><trkpt lat="37.864050" lon="-122.573240"><ele>25.5</ele></trkpt><trkpt lat="37.864090" lon="-122.573300"><ele>25.9</ele></trkpt><trkpt lat="37.864190" lon="-122.573310"><ele>26.7</ele></trkpt><trkpt lat="37.864340" lon="-122.573360"><ele>27.8</ele></trkpt><trkpt lat="37.864430" lon="-122.573420"><ele>28.6</ele></trkpt><trkpt lat="37.864500" lon="-122.573430"><ele>29.1</ele></trkpt><trkpt lat="37.864620" lon="-122.573380"><ele>29.9</ele></trkpt><trkpt lat="37.864710" lon="-122.573380"><ele>30.5</ele></trkpt><trkpt lat="37.864770" lon="-122.573350"><ele>30.9</ele></trkpt><trkpt lat="37.864850" lon="-122.573360"><ele>31.4</ele></trkpt><trkpt lat="37.864900" lon="-122.573350"><ele>31.7</ele></trkpt><trkpt lat="37.864930" lon="-122.573250"><ele>32.2</ele></trkpt><trkpt lat="37.864990" lon="-122.573180"><ele>32.8</ele></trkpt><trkpt lat="37.865050" lon="-122.573170"><ele>33.3</ele></trkpt><trkpt lat="37.865230" lon="-122.573180"><ele>34.9</ele></trkpt><trkpt lat="37.865340" lon="-122.573130"><ele>35.9</ele></trkpt><trkpt lat="37.865480" lon="-122.573150"><ele>37.2</ele></trkpt><trkpt lat="37.865540" lon="-122.573120"><ele>37.8</ele></trkpt><trkpt lat="37.865760" lon="-122.572840"><ele>40.9</ele></trkpt><trkpt lat="37.865750" lon="-122.572810"><ele>41.2</ele></trkpt><trkpt lat="37.865720" lon="-122.572830"><ele>41.6</ele></trkpt><trkpt lat="37.865540" lon="-122.573000"><ele>43.9</ele></trkpt><trkpt lat="37.865280" lon="-122.572990"><ele>46.5</ele></trkpt><trkpt lat="37.865140" lon="-122.572850"><ele>48.3</ele></trkpt><trkpt lat="37.865040" lon="-122.572660"><ele>50.8</ele></trkpt><trkpt lat="37.864970" lon="-122.572580"><ele>52.1</ele></trkpt><trkpt lat="37.864820" lon="-122.572520"><ele>54.2</ele></trkpt><trkpt lat="37.864660" lon="-122.572520"><ele>56.4</ele></trkpt><trkpt lat="37.864590" lon="-122.572540"><ele>57.2</ele></trkpt><trkpt lat="37.864580" lon="-122.572530"><ele>57.4</ele></trkpt><trkpt lat="37.864580" lon="-122.572500"><ele>57.7</ele></trkpt><trkpt lat="37.864630" lon="-122.572410"><ele>58.7</ele></trkpt><trkpt lat="37.864670" lon="-122.572270"><ele>60.1</ele></trkpt><trkpt lat="37.864700" lon="-122.572250"><ele>60.5</ele></trkpt><trkpt lat="37.864820" lon="-122.572200"><ele>62.0</ele></trkpt><trkpt lat="37.864850" lon="-122.572110"><ele>62.8</ele></trkpt><trkpt lat="37.864920" lon="-122.572050"><ele>63.6</ele></trkpt><trkpt lat="37.865010" lon="-122.571920"><ele>64.8</ele></trkpt><trkpt lat="37.865200" lon="-122.571710"><ele>67.1</ele></trkpt><trkpt lat="37.865240" lon="-122.571640"><ele>67.9</ele></trkpt><trkpt lat="37.865290" lon="-122.571490"><ele>69.3</ele></trkpt><trkpt lat="37.865300" lon="-122.571500"><ele>69.5</ele></trkpt><trkpt lat="37.865270" lon="-122.571720"><ele>71.5</ele></trkpt><trkpt lat="37.865260" lon="-122.571860"><ele>72.7</ele></trkpt><trkpt lat="37.865280" lon="-122.571920"><ele>73.3</ele></trkpt><trkpt lat="37.865350" lon="-122.572010"><ele>74.3</ele></trkpt><trkpt lat="37.865400" lon="-122.572030"><ele>74.8</ele></trkpt><trkpt lat="37.865440" lon="-122.572010"><ele>75.2</ele></trkpt><trkpt lat="37.865500" lon="-122.571860"><ele>76.4</ele></trkpt><trkpt lat="37.865460" lon="-122.571780"><ele>77.1</ele></trkpt><trkpt lat="37.865460" lon="-122.571710"><ele>77.7</ele></trkpt><trkpt lat="37.865590" lon="-122.571400"><ele>80.4</ele></trkpt><trkpt lat="37.865630" lon="-122.571270"><ele>81.5</ele></trkpt><trkpt lat="37.865640" lon="-122.571060"><ele>83.2</ele></trkpt><trkpt lat="37.865590" lon="-122.570920"><ele>84.4</ele></trkpt><trkpt lat="37.865620" lon="-122.570900"><ele>84.7</ele></trkpt><trkpt lat="37.865650" lon="-122.570930"><ele>85.0</ele></trkpt><trkpt lat="37.865800" lon="-122.571270"><ele>87.4</ele></trkpt><trkpt lat="37.865960" lon="-122.571420"><ele>89.1</ele></trkpt><trkpt lat="37.865970" lon="-122.571400"><ele>89.2</ele></trkpt><trkpt lat="37.865930" lon="-122.571320"><ele>89.9</ele></trkpt><trkpt lat="37.865880" lon="-122.571090"><ele>91.6</ele></trkpt><trkpt lat="37.865830" lon="-122.570780"><ele>93.8</ele></trkpt><trkpt lat="37.865840" lon="-122.570750"><ele>94.0</ele></trkpt><trkpt lat="37.865860" lon="-122.570760"><ele>94.2</ele></trkpt><trkpt lat="37.865920" lon="-122.570880"><ele>95.1</ele></trkpt><trkpt lat="37.866040" lon="-122.571040"><ele>96.6</ele></trkpt><trkpt lat="37.866090" lon="-122.571060"><ele>97.1</ele></trkpt><trkpt lat="37.866140" lon="-122.571060"><ele>97.5</ele></trkpt><trkpt lat="37.866190" lon="-122.571020"><ele>98.0</ele></trkpt><trkpt lat="37.866220" lon="-122.570960"><ele>98.4</ele></trkpt><trkpt lat="37.866220" lon="-122.570700"><ele>100.1</ele></trkpt><trkpt lat="37.866230" lon="-122.570620"><ele>100.6</ele></trkpt><trkpt lat="37.866260" lon="-122.570560"><ele>101.0</ele></trkpt><trkpt lat="37.866310" lon="-122.570480"><ele>101.7</ele></trkpt><trkpt lat="37.866250" lon="-122.570490"><ele>102.1</ele></trkpt><trkpt lat="37.866200" lon="-122.570470"><ele>102.5</ele></trkpt><trkpt lat="37.866130" lon="-122.570160"><ele>104.4</ele></trkpt><trkpt lat="37.866080" lon="-122.570050"><ele>105.1</ele></trkpt><trkpt lat="37.865970" lon="-122.569880"><ele>106.6</ele></trkpt><trkpt lat="37.865960" lon="-122.569790"><ele>107.3</ele></trkpt><trkpt lat="37.865960" lon="-122.569680"><ele>108.2</ele></trkpt><trkpt lat="37.866080" lon="-122.569550"><ele>109.9</ele></trkpt><trkpt lat="37.866180" lon="-122.569400"><ele>111.5</ele></trkpt><trkpt lat="37.866230" lon="-122.569290"><ele>112.4</ele></trkpt><trkpt lat="37.866250" lon="-122.569100"><ele>113.5</ele></trkpt><trkpt lat="37.866290" lon="-122.569010"><ele>114.1</ele></trkpt><trkpt lat="37.866360" lon="-122.568930"><ele>114.8</ele></trkpt><trkpt lat="37.866450" lon="-122.568850"><ele>115.6</ele></trkpt><trkpt lat="37.866630" lon="-122.568650"><ele>117.5</ele></trkpt><trkpt lat="37.866730" lon="-122.568640"><ele>118.3</ele></trkpt><trkpt lat="37.866890" lon="-122.568700"><ele>119.6</ele></trkpt><trkpt lat="37.867070" lon="-122.568710"><ele>121.1</ele></trkpt><trkpt lat="37.867130" lon="-122.568690"><ele>121.7</ele></trkpt><trkpt lat="37.867170" lon="-122.568650"><ele>122.1</ele></trkpt><trkpt lat="37.867250" lon="-122.568320"><ele>124.6</ele></trkpt><trkpt lat="37.867300" lon="-122.568250"><ele>125.2</ele></trkpt><trkpt lat="37.867370" lon="-122.568200"><ele>126.0</ele></trkpt><trkpt lat="37.867450" lon="-122.568190"><ele>126.8</ele></trkpt><trkpt lat="37.867520" lon="-122.568160"><ele>127.5</ele></trkpt><trkpt lat="37.867620" lon="-122.568090"><ele>128.6</ele></trkpt><trkpt lat="37.867630" lon="-122.568100"><ele>128.7</ele></trkpt><trkpt lat="37.867610" lon="-122.568150"><ele>129.1</ele></trkpt><trkpt lat="37.867500" lon="-122.568320"><ele>130.9</ele></trkpt><trkpt lat="37.867480" lon="-122.568380"><ele>131.5</ele></trkpt><trkpt lat="37.867480" lon="-122.568610"><ele>133.6</ele></trkpt><trkpt lat="37.867520" lon="-122.568850"><ele>135.8</ele></trkpt><trkpt lat="37.867610" lon="-122.569010"><ele>137.6</ele></trkpt><trkpt lat="37.867690" lon="-122.569040"><ele>138.6</ele></trkpt><trkpt lat="37.867840" lon="-122.569080"><ele>140.4</ele></trkpt><trkpt lat="37.868090" lon="-122.569030"><ele>143.4</ele></trkpt><trkpt lat="37.868160" lon="-122.569000"><ele>144.2</ele></trkpt><trkpt lat="37.868370" lon="-122.568770"><ele>147.3</ele></trkpt><trkpt lat="37.868570" lon="-122.568600"><ele>149.7</ele></trkpt><trkpt lat="37.868760" lon="-122.568570"><ele>151.5</ele></trkpt><trkpt lat="37.868810" lon="-122.568570"><ele>151.9</ele></trkpt><trkpt lat="37.868890" lon="-122.568600"><ele>152.7</ele></trkpt><trkpt lat="37.868830" lon="-122.568520"><ele>153.5</ele></trkpt><trkpt lat="37.868830" lon="-122.568440"><ele>154.0</ele></trkpt><trkpt lat="37.868900" lon="-122.568240"><ele>155.6</ele></trkpt><trkpt lat="37.868940" lon="-122.567420"><ele>162.1</ele></trkpt><trkpt lat="37.869000" lon="-122.567240"><ele>163.8</ele></trkpt><trkpt lat="37.869110" lon="-122.567110"><ele>165.5</ele></trkpt><trkpt lat="37.869170" lon="-122.567070"><ele>166.3</ele></trkpt><trkpt lat="37.869330" lon="-122.567070"><ele>168.3</ele></trkpt><trkpt lat="37.869540" lon="-122.567000"><ele>170.9</ele></trkpt><trkpt lat="37.869550" lon="-122.567000"><ele>171.0</ele></trkpt><trkpt lat="37.869870" lon="-122.567020"><ele>175.9</ele></trkpt><trkpt lat="37.869950" lon="-122.566990"><ele>177.2</ele></trkpt><trkpt lat="37.870190" lon="-122.566960"><ele>181.0</ele></trkpt><trkpt lat="37.870380" lon="-122.566920"><ele>184.0</ele></trkpt><trkpt lat="37.870450" lon="-122.566920"><ele>185.1</ele></trkpt><trkpt lat="37.870610" lon="-122.566980"><ele>187.8</ele></trkpt><trkpt lat="37.870760" lon="-122.566980"><ele>190.0</ele></trkpt><trkpt lat="37.870910" lon="-122.567020"><ele>192.3</ele></trkpt><trkpt lat="37.871320" lon="-122.567100"><ele>198.0</ele></trkpt><trkpt lat="37.871500" lon="-122.567190"><ele>200.3</ele></trkpt><trkpt lat="37.871560" lon="-122.567180"><ele>201.0</ele></trkpt><trkpt lat="37.871600" lon="-122.567150"><ele>201.5</ele></trkpt><trkpt lat="37.871640" lon="-122.567010"><ele>202.9</ele></trkpt><trkpt lat="37.871680" lon="-122.566970"><ele>203.5</ele></trkpt><trkpt lat="37.871810" lon="-122.566920"><ele>205.2</ele></trkpt><trkpt lat="37.871950" lon="-122.566820"><ele>207.1</ele></trkpt><trkpt lat="37.872130" lon="-122.566680"><ele>209.5</ele></trkpt><trkpt lat="37.872190" lon="-122.566570"><ele>210.7</ele></trkpt><trkpt lat="37.872230" lon="-122.566550"><ele>211.2</ele></trkpt><trkpt lat="37.872270" lon="-122.566540"><ele>211.7</ele></trkpt><trkpt lat="37.872320" lon="-122.566560"><ele>212.3</ele></trkpt><trkpt lat="37.872330" lon="-122.566620"><ele>212.8</ele></trkpt><trkpt lat="37.872360" lon="-122.566670"><ele>213.4</ele></trkpt><trkpt lat="37.872470" lon="-122.566730"><ele>214.8</ele></trkpt><trkpt lat="37.872460" lon="-122.566770"><ele>215.1</ele></trkpt><trkpt lat="37.872360" lon="-122.566800"><ele>216.1</ele></trkpt><trkpt lat="37.872270" lon="-122.566870"><ele>217.2</ele></trkpt><trkpt lat="37.872220" lon="-122.566970"><ele>218.1</ele></trkpt><trkpt lat="37.872190" lon="-122.567080"><ele>219.0</ele></trkpt><trkpt lat="37.872210" lon="-122.567370"><ele>221.2</ele></trkpt><trkpt lat="37.872310" lon="-122.567760"><ele>223.9</ele></trkpt><trkpt lat="37.872500" lon="-122.568040"><ele>226.6</ele></trkpt><trkpt lat="37.872540" lon="-122.568050"><ele>227.0</ele></trkpt><trkpt lat="37.872540" lon="-122.568020"><ele>227.3</ele></trkpt><trkpt lat="37.872500" lon="-122.567930"><ele>228.0</ele></trkpt><trkpt lat="37.872470" lon="-122.567840"><ele>228.8</ele></trkpt><trkpt lat="37.872490" lon="-122.567650"><ele>230.2</ele></trkpt><trkpt lat="37.872570" lon="-122.567510"><ele>230.8</ele></trkpt><trkpt lat="37.872630" lon="-122.567470"><ele>231.1</ele></trkpt><trkpt lat="37.872750" lon="-122.567460"><ele>231.6</ele></trkpt><trkpt lat="37.872930" lon="-122.567510"><ele>232.4</ele></trkpt><trkpt lat="37.873220" lon="-122.567450"><ele>232.7</ele></trkpt><trkpt lat="37.873330" lon="-122.567370"><ele>232.8</ele></trkpt><trkpt lat="37.873390" lon="-122.567280"><ele>232.8</ele></trkpt><trkpt lat="37.873520" lon="-122.567180"><ele>233.1</ele></trkpt><trkpt lat="37.873700" lon="-122.566950"><ele>233.9</ele></trkpt><trkpt lat="37.873870" lon="-122.566850"><ele>234.4</ele></trkpt><trkpt lat="37.874160" lon="-122.566730"><ele>234.4</ele></trkpt><trkpt lat="37.874250" lon="-122.566670"><ele>234.4</ele></trkpt><trkpt lat="37.874750" lon="-122.566270"><ele>232.1</ele></trkpt><trkpt lat="37.875040" lon="-122.565990"><ele>230.4</ele></trkpt><trkpt lat="37.875550" lon="-122.565580"><ele>227.1</ele></trkpt><trkpt lat="37.875790" lon="-122.565350"><ele>224.9</ele></trkpt><trkpt lat="37.875840" lon="-122.565280"><ele>224.3</ele></trkpt><trkpt lat="37.876050" lon="-122.564930"><ele>221.2</ele></trkpt><trkpt lat="37.876160" lon="-122.564800"><ele>219.6</ele></trkpt><trkpt lat="37.876230" lon="-122.564750"><ele>218.7</ele></trkpt><trkpt lat="37.876320" lon="-122.564740"><ele>217.8</ele></trkpt><trkpt lat="37.876470" lon="-122.564890"><ele>215.7</ele></trkpt><trkpt lat="37.876640" lon="-122.565030"><ele>213.8</ele></trkpt><trkpt lat="37.876720" lon="-122.565150"><ele>212.7</ele></trkpt><trkpt lat="37.876900" lon="-122.565340"><ele>210.5</ele></trkpt><trkpt lat="37.877040" lon="-122.565430"><ele>209.3</ele></trkpt><trkpt lat="37.877170" lon="-122.565550"><ele>208.0</ele></trkpt><trkpt lat="37.877280" lon="-122.565540"><ele>207.1</ele></trkpt><trkpt lat="37.877430" lon="-122.565460"><ele>205.9</ele></trkpt><trkpt lat="37.877570" lon="-122.565490"><ele>205.0</ele></trkpt><trkpt lat="37.877680" lon="-122.565650"><ele>204.0</ele></trkpt><trkpt lat="37.877720" lon="-122.565620"><ele>203.7</ele></trkpt><trkpt lat="37.877670" lon="-122.565470"><ele>202.9</ele></trkpt><trkpt lat="37.877660" lon="-122.565290"><ele>202.1</ele></trkpt><trkpt lat="37.877610" lon="-122.565120"><ele>201.3</ele></trkpt><trkpt lat="37.877510" lon="-122.564900"><ele>200.1</ele></trkpt><trkpt lat="37.877350" lon="-122.564650"><ele>199.0</ele></trkpt><trkpt lat="37.877460" lon="-122.564600"><ele>198.5</ele></trkpt><trkpt lat="37.877500" lon="-122.564530"><ele>198.3</ele></trkpt><trkpt lat="37.877530" lon="-122.564040"><ele>197.6</ele></trkpt><trkpt lat="37.877520" lon="-122.563880"><ele>197.7</ele></trkpt><trkpt lat="37.877300" lon="-122.563480"><ele>198.2</ele></trkpt><trkpt lat="37.877280" lon="-122.563260"><ele>198.6</ele></trkpt><trkpt lat="37.877310" lon="-122.563070"><ele>198.9</ele></trkpt><trkpt lat="37.877350" lon="-122.562970"><ele>199.3</ele></trkpt><trkpt lat="37.877370" lon="-122.562890"><ele>199.6</ele></trkpt><trkpt lat="37.877360" lon="-122.562540"><ele>201.0</ele></trkpt><trkpt lat="37.877330" lon="-122.562450"><ele>201.4</ele></trkpt><trkpt lat="37.877440" lon="-122.562510"><ele>202.2</ele></trkpt><trkpt lat="37.877490" lon="-122.562510"><ele>202.6</ele></trkpt><trkpt lat="37.877500" lon="-122.562480"><ele>202.8</ele></trkpt><trkpt lat="37.877440" lon="-122.562330"><ele>204.0</ele></trkpt><trkpt lat="37.877380" lon="-122.562230"><ele>204.8</ele></trkpt><trkpt lat="37.877360" lon="-122.562060"><ele>206.0</ele></trkpt><trkpt lat="37.877300" lon="-122.561940"><ele>207.0</ele></trkpt><trkpt lat="37.877350" lon="-122.561620"><ele>209.4</ele></trkpt><trkpt lat="37.877310" lon="-122.561300"><ele>211.8</ele></trkpt><trkpt lat="37.877260" lon="-122.561090"><ele>213.3</ele></trkpt><trkpt lat="37.877180" lon="-122.560970"><ele>214.3</ele></trkpt><trkpt lat="37.877160" lon="-122.560820"><ele>215.4</ele></trkpt><trkpt lat="37.877190" lon="-122.560740"><ele>216.0</ele></trkpt><trkpt lat="37.877260" lon="-122.560490"><ele>217.3</ele></trkpt><trkpt lat="37.877240" lon="-122.560390"><ele>217.8</ele></trkpt><trkpt lat="37.877190" lon="-122.560310"><ele>218.3</ele></trkpt><trkpt lat="37.877080" lon="-122.560180"><ele>219.3</ele></trkpt><trkpt lat="37.877020" lon="-122.560150"><ele>219.6</ele></trkpt><trkpt lat="37.876930" lon="-122.560020"><ele>220.0</ele></trkpt><trkpt lat="37.876960" lon="-122.559840"><ele>220.5</ele></trkpt><trkpt lat="37.877070" lon="-122.559810"><ele>220.9</ele></trkpt><trkpt lat="37.877180" lon="-122.559950"><ele>221.4</ele></trkpt><trkpt lat="37.877260" lon="-122.559980"><ele>221.7</ele></trkpt><trkpt lat="37.877370" lon="-122.559960"><ele>222.2</ele></trkpt><trkpt lat="37.877540" lon="-122.559860"><ele>222.9</ele></trkpt><trkpt lat="37.877690" lon="-122.559850"><ele>223.5</ele></trkpt><trkpt lat="37.877760" lon="-122.559870"><ele>223.8</ele></trkpt><trkpt lat="37.877850" lon="-122.560170"><ele>224.6</ele></trkpt><trkpt lat="37.877950" lon="-122.560250"><ele>225.0</ele></trkpt><trkpt lat="37.878060" lon="-122.560270"><ele>225.4</ele></trkpt><trkpt lat="37.878290" lon="-122.560180"><ele>226.2</ele></trkpt><trkpt lat="37.878420" lon="-122.560200"><ele>226.7</ele></trkpt><trkpt lat="37.878610" lon="-122.560130"><ele>227.2</ele></trkpt><trkpt lat="37.878750" lon="-122.560010"><ele>227.5</ele></trkpt><trkpt lat="37.878890" lon="-122.559720"><ele>227.9</ele></trkpt><trkpt lat="37.879070" lon="-122.559430"><ele>228.9</ele></trkpt><trkpt lat="37.879180" lon="-122.559350"><ele>229.3</ele></trkpt><trkpt lat="37.879420" lon="-122.558980"><ele>229.4</ele></trkpt><trkpt lat="37.879560" lon="-122.558720"><ele>229.0</ele></trkpt><trkpt lat="37.879570" lon="-122.558720"><ele>229.0</ele></trkpt><trkpt lat="37.879640" lon="-122.558520"><ele>228.4</ele></trkpt><trkpt lat="37.879740" lon="-122.558340"><ele>227.8</ele></trkpt><trkpt lat="37.879940" lon="-122.558260"><ele>226.9</ele></trkpt><trkpt lat="37.880130" lon="-122.558250"><ele>226.2</ele></trkpt><trkpt lat="37.880320" lon="-122.558350"><ele>225.4</ele></trkpt><trkpt lat="37.880420" lon="-122.558390"><ele>225.0</ele></trkpt><trkpt lat="37.880520" lon="-122.558380"><ele>224.6</ele></trkpt><trkpt lat="37.880680" lon="-122.558270"><ele>224.1</ele></trkpt><trkpt lat="37.880940" lon="-122.558220"><ele>223.3</ele></trkpt><trkpt lat="37.881020" lon="-122.558050"><ele>222.9</ele></trkpt><trkpt lat="37.881120" lon="-122.557980"><ele>222.5</ele></trkpt><trkpt lat="37.881290" lon="-122.558010"><ele>221.9</ele></trkpt><trkpt lat="37.881480" lon="-122.557980"><ele>221.3</ele></trkpt><trkpt lat="37.881610" lon="-122.557920"><ele>221.3</ele></trkpt><trkpt lat="37.881750" lon="-122.557770"><ele>221.3</ele></trkpt><trkpt lat="37.881920" lon="-122.557490"><ele>221.2</ele></trkpt><trkpt lat="37.882040" lon="-122.557080"><ele>220.8</ele></trkpt><trkpt lat="37.882140" lon="-122.556890"><ele>220.5</ele></trkpt><trkpt lat="37.882240" lon="-122.556760"><ele>220.0</ele></trkpt><trkpt lat="37.882290" lon="-122.556610"><ele>219.6</ele></trkpt><trkpt lat="37.882280" lon="-122.556400"><ele>219.0</ele></trkpt><trkpt lat="37.882320" lon="-122.556240"><ele>218.5</ele></trkpt><trkpt lat="37.882220" lon="-122.555950"><ele>217.5</ele></trkpt><trkpt lat="37.882240" lon="-122.555880"><ele>217.3</ele></trkpt><trkpt lat="37.882270" lon="-122.555840"><ele>217.1</ele></trkpt><trkpt lat="37.882330" lon="-122.555710"><ele>216.6</ele></trkpt><trkpt lat="37.882350" lon="-122.555610"><ele>216.3</ele></trkpt><trkpt lat="37.882290" lon="-122.555500"><ele>215.8</ele></trkpt><trkpt lat="37.882190" lon="-122.555230"><ele>214.7</ele></trkpt><trkpt lat="37.882060" lon="-122.555060"><ele>213.8</ele></trkpt><trkpt lat="37.881980" lon="-122.555010"><ele>213.2</ele></trkpt><trkpt lat="37.881750" lon="-122.554960"><ele>211.8</ele></trkpt><trkpt lat="37.881550" lon="-122.554760"><ele>210.2</ele></trkpt><trkpt lat="37.881510" lon="-122.554680"><ele>209.7</ele></trkpt><trkpt lat="37.881410" lon="-122.554680"><ele>209.1</ele></trkpt><trkpt lat="37.881250" lon="-122.554650"><ele>208.1</ele></trkpt><trkpt lat="37.881110" lon="-122.554690"><ele>207.4</ele></trkpt><trkpt lat="37.881010" lon="-122.554690"><ele>207.0</ele></trkpt><trkpt lat="37.880770" lon="-122.554610"><ele>206.2</ele></trkpt><trkpt lat="37.880650" lon="-122.554670"><ele>205.8</ele></trkpt><trkpt lat="37.880550" lon="-122.554680"><ele>205.3</ele></trkpt><trkpt lat="37.880390" lon="-122.554620"><ele>204.3</ele></trkpt><trkpt lat="37.880260" lon="-122.554610"><ele>203.6</ele></trkpt><trkpt lat="37.880230" lon="-122.554650"><ele>203.3</ele></trkpt><trkpt lat="37.880220" lon="-122.554730"><ele>203.0</ele></trkpt><trkpt lat="37.880340" lon="-122.555020"><ele>201.6</ele></trkpt><trkpt lat="37.880360" lon="-122.555130"><ele>201.2</ele></trkpt><trkpt lat="37.880350" lon="-122.555160"><ele>201.0</ele></trkpt><trkpt lat="37.880300" lon="-122.555190"><ele>200.7</ele></trkpt><trkpt lat="37.880170" lon="-122.555170"><ele>200.1</ele></trkpt><trkpt lat="37.880080" lon="-122.555120"><ele>199.6</ele></trkpt><trkpt lat="37.879760" lon="-122.555030"><ele>198.1</ele></trkpt><trkpt lat="37.879600" lon="-122.554960"><ele>197.4</ele></trkpt><trkpt lat="37.879530" lon="-122.554960"><ele>197.1</ele></trkpt><trkpt lat="37.879520" lon="-122.554930"><ele>197.0</ele></trkpt><trkpt lat="37.879720" lon="-122.554840"><ele>196.2</ele></trkpt><trkpt lat="37.879720" lon="-122.554810"><ele>196.1</ele></trkpt><trkpt lat="37.879570" lon="-122.554770"><ele>195.5</ele></trkpt><trkpt lat="37.879440" lon="-122.554780"><ele>194.9</ele></trkpt><trkpt lat="37.879370" lon="-122.554710"><ele>194.4</ele></trkpt><trkpt lat="37.879410" lon="-122.554640"><ele>194.1</ele></trkpt><trkpt lat="37.879410" lon="-122.554520"><ele>193.6</ele></trkpt><trkpt lat="37.879210" lon="-122.554140"><ele>192.9</ele></trkpt><trkpt lat="37.879210" lon="-122.553990"><ele>193.1</ele></trkpt><trkpt lat="37.879230" lon="-122.553930"><ele>193.2</ele></trkpt><trkpt lat="37.879110" lon="-122.553860"><ele>193.4</ele></trkpt><trkpt lat="37.878960" lon="-122.553620"><ele>193.9</ele></trkpt><trkpt lat="37.878850" lon="-122.553570"><ele>194.2</ele></trkpt><trkpt lat="37.878760" lon="-122.553590"><ele>194.4</ele></trkpt><trkpt lat="37.878600" lon="-122.553720"><ele>194.9</ele></trkpt><trkpt lat="37.878530" lon="-122.553760"><ele>195.1</ele></trkpt><trkpt lat="37.878410" lon="-122.553740"><ele>195.5</ele></trkpt><trkpt lat="37.878290" lon="-122.553660"><ele>196.0</ele></trkpt><trkpt lat="37.878150" lon="-122.553630"><ele>196.5</ele></trkpt><trkpt lat="37.878080" lon="-122.553640"><ele>196.8</ele></trkpt><trkpt lat="37.878020" lon="-122.553660"><ele>197.2</ele></trkpt><trkpt lat="37.877780" lon="-122.553820"><ele>199.1</ele></trkpt><trkpt lat="37.877670" lon="-122.553810"><ele>199.8</ele></trkpt><trkpt lat="37.877570" lon="-122.553760"><ele>200.6</ele></trkpt><trkpt lat="37.877520" lon="-122.553700"><ele>201.1</ele></trkpt><trkpt lat="37.877390" lon="-122.553460"><ele>202.8</ele></trkpt><trkpt lat="37.877230" lon="-122.553320"><ele>204.2</ele></trkpt><trkpt lat="37.877020" lon="-122.553210"><ele>205.2</ele></trkpt><trkpt lat="37.876980" lon="-122.553160"><ele>205.5</ele></trkpt><trkpt lat="37.876880" lon="-122.552890"><ele>206.5</ele></trkpt><trkpt lat="37.876860" lon="-122.552860"><ele>206.7</ele></trkpt><trkpt lat="37.876700" lon="-122.552760"><ele>207.4</ele></trkpt><trkpt lat="37.876610" lon="-122.552670"><ele>207.8</ele></trkpt><trkpt lat="37.876600" lon="-122.552530"><ele>208.3</ele></trkpt><trkpt lat="37.876720" lon="-122.552290"><ele>209.1</ele></trkpt><trkpt lat="37.876730" lon="-122.552230"><ele>209.3</ele></trkpt><trkpt lat="37.876690" lon="-122.552150"><ele>209.5</ele></trkpt><trkpt lat="37.876510" lon="-122.552120"><ele>210.1</ele></trkpt><trkpt lat="37.876470" lon="-122.552100"><ele>210.3</ele></trkpt><trkpt lat="37.876440" lon="-122.552050"><ele>210.5</ele></trkpt><trkpt lat="37.876390" lon="-122.551800"><ele>211.7</ele></trkpt><trkpt lat="37.876340" lon="-122.551720"><ele>212.2</ele></trkpt><trkpt lat="37.876230" lon="-122.551680"><ele>212.9</ele></trkpt><trkpt lat="37.875910" lon="-122.551660"><ele>215.6</ele></trkpt><trkpt lat="37.875750" lon="-122.551720"><ele>217.4</ele></trkpt><trkpt lat="37.875670" lon="-122.551680"><ele>218.3</ele></trkpt><trkpt lat="37.875610" lon="-122.551550"><ele>219.6</ele></trkpt><trkpt lat="37.875580" lon="-122.551510"><ele>220.0</ele></trkpt><trkpt lat="37.875460" lon="-122.551510"><ele>221.3</ele></trkpt><trkpt lat="37.875260" lon="-122.551680"><ele>223.9</ele></trkpt><trkpt lat="37.875190" lon="-122.551760"><ele>224.9</ele></trkpt><trkpt lat="37.875150" lon="-122.551830"><ele>225.7</ele></trkpt><trkpt lat="37.875040" lon="-122.552150"><ele>228.4</ele></trkpt><trkpt lat="37.874990" lon="-122.552200"><ele>229.0</ele></trkpt><trkpt lat="37.874930" lon="-122.552220"><ele>229.6</ele></trkpt><trkpt lat="37.874740" lon="-122.552230"><ele>231.4</ele></trkpt><trkpt lat="37.874580" lon="-122.552340"><ele>233.2</ele></trkpt><trkpt lat="37.874500" lon="-122.552340"><ele>234.0</ele></trkpt><trkpt lat="37.874450" lon="-122.552310"><ele>234.6</ele></trkpt><trkpt lat="37.874320" lon="-122.552170"><ele>236.3</ele></trkpt><trkpt lat="37.874150" lon="-122.551890"><ele>237.5</ele></trkpt><trkpt lat="37.874100" lon="-122.551850"><ele>237.8</ele></trkpt><trkpt lat="37.873890" lon="-122.551810"><ele>238.6</ele></trkpt><trkpt lat="37.873760" lon="-122.551740"><ele>238.9</ele></trkpt><trkpt lat="37.873710" lon="-122.551670"><ele>239.0</ele></trkpt><trkpt lat="37.873610" lon="-122.551460"><ele>239.3</ele></trkpt><trkpt lat="37.873570" lon="-122.551420"><ele>239.4</ele></trkpt><trkpt lat="37.873450" lon="-122.551350"><ele>239.6</ele></trkpt><trkpt lat="37.873180" lon="-122.551110"><ele>239.8</ele></trkpt><trkpt lat="37.873120" lon="-122.551090"><ele>239.8</ele></trkpt><trkpt lat="37.873080" lon="-122.551090"><ele>239.8</ele></trkpt><trkpt lat="37.873030" lon="-122.551130"><ele>239.9</ele></trkpt><trkpt lat="37.872890" lon="-122.551490"><ele>241.2</ele></trkpt><trkpt lat="37.872560" lon="-122.551770"><ele>243.2</ele></trkpt><trkpt lat="37.872270" lon="-122.551980"><ele>245.1</ele></trkpt><trkpt lat="37.872220" lon="-122.552050"><ele>245.5</ele></trkpt><trkpt lat="37.872220" lon="-122.552060"><ele>245.5</ele></trkpt><trkpt lat="37.872150" lon="-122.552190"><ele>246.0</ele></trkpt><trkpt lat="37.872090" lon="-122.552250"><ele>246.3</ele></trkpt><trkpt lat="37.871900" lon="-122.552400"><ele>247.2</ele></trkpt><trkpt lat="37.871690" lon="-122.552760"><ele>248.4</ele></trkpt><trkpt lat="37.871580" lon="-122.552830"><ele>248.8</ele></trkpt><trkpt lat="37.871480" lon="-122.552830"><ele>249.2</ele></trkpt><trkpt lat="37.871420" lon="-122.552780"><ele>249.4</ele></trkpt><trkpt lat="37.871380" lon="-122.552720"><ele>249.6</ele></trkpt><trkpt lat="37.871360" lon="-122.552640"><ele>249.8</ele></trkpt><trkpt lat="37.871340" lon="-122.552400"><ele>250.5</ele></trkpt><trkpt lat="37.871290" lon="-122.552060"><ele>251.0</ele></trkpt><trkpt lat="37.871230" lon="-122.551950"><ele>250.8</ele></trkpt><trkpt lat="37.871160" lon="-122.551860"><ele>250.7</ele></trkpt><trkpt lat="37.871060" lon="-122.551850"><ele>250.5</ele></trkpt><trkpt lat="37.870870" lon="-122.551940"><ele>250.2</ele></trkpt><trkpt lat="37.870600" lon="-122.552100"><ele>249.9</ele></trkpt><trkpt lat="37.870520" lon="-122.552090"><ele>249.8</ele></trkpt><trkpt lat="37.870490" lon="-122.552050"><ele>249.7</ele></trkpt><trkpt lat="37.870460" lon="-122.551950"><ele>249.6</ele></trkpt><trkpt lat="37.870460" lon="-122.551810"><ele>249.9</ele></trkpt><trkpt lat="37.870490" lon="-122.551560"><ele>250.3</ele></trkpt><trkpt lat="37.870540" lon="-122.551290"><ele>250.8</ele></trkpt><trkpt lat="37.870550" lon="-122.551140"><ele>251.0</ele></trkpt><trkpt lat="37.870530" lon="-122.550830"><ele>251.5</ele></trkpt><trkpt lat="37.870480" lon="-122.550710"><ele>251.7</ele></trkpt><trkpt lat="37.870450" lon="-122.550680"><ele>251.7</ele></trkpt><trkpt lat="37.870420" lon="-122.550660"><ele>251.8</ele></trkpt><trkpt lat="37.870320" lon="-122.550670"><ele>251.8</ele></trkpt><trkpt lat="37.870180" lon="-122.550710"><ele>251.8</ele></trkpt><trkpt lat="37.870070" lon="-122.550770"><ele>251.8</ele></trkpt><trkpt lat="37.869660" lon="-122.551150"><ele>253.1</ele></trkpt><trkpt lat="37.869470" lon="-122.551370"><ele>254.1</ele></trkpt><trkpt lat="37.869380" lon="-122.551360"><ele>254.4</ele></trkpt><trkpt lat="37.869250" lon="-122.551240"><ele>255.1</ele></trkpt><trkpt lat="37.869110" lon="-122.551180"><ele>255.7</ele></trkpt><trkpt lat="37.869090" lon="-122.551100"><ele>255.9</ele></trkpt><trkpt lat="37.869090" lon="-122.551050"><ele>256.1</ele></trkpt><trkpt lat="37.869220" lon="-122.550790"><ele>256.8</ele></trkpt><trkpt lat="37.869320" lon="-122.550370"><ele>257.8</ele></trkpt><trkpt lat="37.869420" lon="-122.550120"><ele>258.5</ele></trkpt><trkpt lat="37.869470" lon="-122.549630"><ele>260.3</ele></trkpt><trkpt lat="37.869510" lon="-122.549560"><ele>260.8</ele></trkpt><trkpt lat="37.869550" lon="-122.549330"><ele>262.0</ele></trkpt><trkpt lat="37.869530" lon="-122.549240"><ele>262.5</ele></trkpt><trkpt lat="37.869430" lon="-122.549090"><ele>263.3</ele></trkpt><trkpt lat="37.869280" lon="-122.549060"><ele>263.8</ele></trkpt><trkpt lat="37.869200" lon="-122.549090"><ele>264.1</ele></trkpt><trkpt lat="37.869120" lon="-122.549160"><ele>264.4</ele></trkpt><trkpt lat="37.869080" lon="-122.549260"><ele>264.7</ele></trkpt><trkpt lat="37.869050" lon="-122.549670"><ele>267.3</ele></trkpt><trkpt lat="37.869000" lon="-122.549790"><ele>268.2</ele></trkpt><trkpt lat="37.868820" lon="-122.550030"><ele>270.3</ele></trkpt><trkpt lat="37.868610" lon="-122.550230"><ele>272.4</ele></trkpt><trkpt lat="37.868500" lon="-122.550300"><ele>273.3</ele></trkpt><trkpt lat="37.868340" lon="-122.550380"><ele>274.3</ele></trkpt><trkpt lat="37.868300" lon="-122.550430"><ele>274.5</ele></trkpt><trkpt lat="37.868250" lon="-122.550540"><ele>275.0</ele></trkpt><trkpt lat="37.868140" lon="-122.551040"><ele>277.1</ele></trkpt><trkpt lat="37.868000" lon="-122.551290"><ele>278.6</ele></trkpt><trkpt lat="37.867920" lon="-122.551370"><ele>279.3</ele></trkpt><trkpt lat="37.867580" lon="-122.551630"><ele>281.7</ele></trkpt><trkpt lat="37.867510" lon="-122.551650"><ele>282.2</ele></trkpt><trkpt lat="37.867450" lon="-122.551640"><ele>282.6</ele></trkpt><trkpt lat="37.867380" lon="-122.551570"><ele>282.8</ele></trkpt><trkpt lat="37.867350" lon="-122.551490"><ele>282.6</ele></trkpt><trkpt lat="37.867330" lon="-122.551370"><ele>282.4</ele></trkpt><trkpt lat="37.867320" lon="-122.550450"><ele>280.1</ele></trkpt><trkpt lat="37.867230" lon="-122.550230"><ele>279.5</ele></trkpt><trkpt lat="37.867210" lon="-122.550120"><ele>279.4</ele></trkpt><trkpt lat="37.867210" lon="-122.550020"><ele>279.4</ele></trkpt><trkpt lat="37.867350" lon="-122.549770"><ele>279.2</ele></trkpt><trkpt lat="37.867390" lon="-122.549640"><ele>279.2</ele></trkpt><trkpt lat="37.867410" lon="-122.549510"><ele>279.2</ele></trkpt><trkpt lat="37.867410" lon="-122.549410"><ele>279.2</ele></trkpt><trkpt lat="37.867320" lon="-122.549190"><ele>279.2</ele></trkpt><trkpt lat="37.867210" lon="-122.549020"><ele>279.2</ele></trkpt><trkpt lat="37.867090" lon="-122.548760"><ele>279.5</ele></trkpt><trkpt lat="37.867030" lon="-122.548940"><ele>279.7</ele></trkpt><trkpt lat="37.867000" lon="-122.549840"><ele>282.3</ele></trkpt><trkpt lat="37.867030" lon="-122.550150"><ele>283.7</ele></trkpt><trkpt lat="37.867100" lon="-122.550350"><ele>284.7</ele></trkpt><trkpt lat="37.867180" lon="-122.550540"><ele>286.3</ele></trkpt><trkpt lat="37.867200" lon="-122.550710"><ele>287.8</ele></trkpt><trkpt lat="37.867180" lon="-122.550900"><ele>289.5</ele></trkpt><trkpt lat="37.867050" lon="-122.551320"><ele>292.9</ele></trkpt><trkpt lat="37.867020" lon="-122.551610"><ele>294.9</ele></trkpt><trkpt lat="37.867020" lon="-122.552100"><ele>298.3</ele></trkpt><trkpt lat="37.867060" lon="-122.552270"><ele>299.6</ele></trkpt><trkpt lat="37.867020" lon="-122.552350"><ele>300.3</ele></trkpt><trkpt lat="37.866990" lon="-122.552350"><ele>300.6</ele></trkpt><trkpt lat="37.866930" lon="-122.552290"><ele>301.2</ele></trkpt><trkpt lat="37.866900" lon="-122.552210"><ele>301.8</ele></trkpt><trkpt lat="37.866790" lon="-122.552100"><ele>302.9</ele></trkpt><trkpt lat="37.866680" lon="-122.552070"><ele>303.9</ele></trkpt><trkpt lat="37.866560" lon="-122.552080"><ele>304.9</ele></trkpt><trkpt lat="37.866310" lon="-122.552170"><ele>306.5</ele></trkpt><trkpt lat="37.866200" lon="-122.552530"><ele>308.4</ele></trkpt><trkpt lat="37.866110" lon="-122.552630"><ele>307.6</ele></trkpt><trkpt lat="37.865700" lon="-122.552860"><ele>304.3</ele></trkpt><trkpt lat="37.865240" lon="-122.553060"><ele>300.7</ele></trkpt><trkpt lat="37.864280" lon="-122.553370"><ele>292.4</ele></trkpt><trkpt lat="37.863390" lon="-122.553520"><ele>284.3</ele></trkpt><trkpt lat="37.862220" lon="-122.554040"><ele>276.0</ele></trkpt><trkpt lat="37.860110" lon="-122.554930"><ele>271.2</ele></trkpt><trkpt lat="37.859730" lon="-122.555130"><ele>270.4</ele></trkpt><trkpt lat="37.859460" lon="-122.554610"><ele>269.2</ele></trkpt><trkpt lat="37.859220" lon="-122.554200"><ele>267.4</ele></trkpt><trkpt lat="37.858640" lon="-122.554000"><ele>261.3</ele></trkpt><trkpt lat="37.857810" lon="-122.553900"><ele>251.7</ele></trkpt><trkpt lat="37.857660" lon="-122.553860"><ele>250.0</ele></trkpt><trkpt lat="37.857550" lon="-122.553770"><ele>248.7</ele></trkpt><trkpt lat="37.857030" lon="-122.553100"><ele>239.5</ele></trkpt><trkpt lat="37.856690" lon="-122.552900"><ele>234.7</ele></trkpt><trkpt lat="37.856450" lon="-122.552840"><ele>231.8</ele></trkpt><trkpt lat="37.855920" lon="-122.552930"><ele>225.6</ele></trkpt><trkpt lat="37.855510" lon="-122.553110"><ele>222.2</ele></trkpt><trkpt lat="37.854840" lon="-122.553300"><ele>217.7</ele></trkpt><trkpt lat="37.854310" lon="-122.553490"><ele>215.0</ele></trkpt><trkpt lat="37.853890" lon="-122.553870"><ele>210.9</ele></trkpt><trkpt lat="37.853730" lon="-122.554090"><ele>208.8</ele></trkpt><trkpt lat="37.853570" lon="-122.554410"><ele>206.1</ele></trkpt><trkpt lat="37.853480" lon="-122.554470"><ele>205.2</ele></trkpt><trkpt lat="37.851850" lon="-122.554760"><ele>187.6</ele></trkpt><trkpt lat="37.851700" lon="-122.554850"><ele>186.5</ele></trkpt><trkpt lat="37.851590" lon="-122.554990"><ele>185.6</ele></trkpt><trkpt lat="37.851490" lon="-122.555250"><ele>184.2</ele></trkpt><trkpt lat="37.851290" lon="-122.555560"><ele>182.5</ele></trkpt><trkpt lat="37.850820" lon="-122.555960"><ele>178.8</ele></trkpt><trkpt lat="37.850360" lon="-122.556320"><ele>174.9</ele></trkpt><trkpt lat="37.850140" lon="-122.556410"><ele>172.9</ele></trkpt><trkpt lat="37.850130" lon="-122.556410"><ele>172.8</ele></trkpt><trkpt lat="37.850100" lon="-122.556420"><ele>172.5</ele></trkpt><trkpt lat="37.849980" lon="-122.556410"><ele>171.4</ele></trkpt><trkpt lat="37.849920" lon="-122.556380"><ele>170.7</ele></trkpt><trkpt lat="37.849900" lon="-122.556200"><ele>169.3</ele></trkpt><trkpt lat="37.849960" lon="-122.555390"><ele>161.9</ele></trkpt><trkpt lat="37.850150" lon="-122.554850"><ele>155.8</ele></trkpt><trkpt lat="37.850220" lon="-122.554510"><ele>151.4</ele></trkpt><trkpt lat="37.850210" lon="-122.554090"><ele>146.1</ele></trkpt><trkpt lat="37.850170" lon="-122.553880"><ele>143.4</ele></trkpt><trkpt lat="37.849920" lon="-122.553670"><ele>138.6</ele></trkpt><trkpt lat="37.849700" lon="-122.553320"><ele>133.5</ele></trkpt><trkpt lat="37.849430" lon="-122.553090"><ele>129.1</ele></trkpt><trkpt lat="37.849340" lon="-122.552970"><ele>127.5</ele></trkpt><trkpt lat="37.849110" lon="-122.552460"><ele>121.6</ele></trkpt><trkpt lat="37.848710" lon="-122.551750"><ele>113.3</ele></trkpt><trkpt lat="37.848660" lon="-122.551610"><ele>111.9</ele></trkpt><trkpt lat="37.848740" lon="-122.551360"><ele>109.2</ele></trkpt><trkpt lat="37.848750" lon="-122.551220"><ele>107.7</ele></trkpt><trkpt lat="37.848720" lon="-122.551160"><ele>106.9</ele></trkpt><trkpt lat="37.848690" lon="-122.551110"><ele>106.3</ele></trkpt><trkpt lat="37.848570" lon="-122.551070"><ele>104.6</ele></trkpt><trkpt lat="37.848390" lon="-122.551110"><ele>102.1</ele></trkpt><trkpt lat="37.848260" lon="-122.551090"><ele>100.4</ele></trkpt><trkpt lat="37.848180" lon="-122.551000"><ele>99.0</ele></trkpt><trkpt lat="37.848140" lon="-122.550910"><ele>98.0</ele></trkpt><trkpt lat="37.848050" lon="-122.550440"><ele>92.2</ele></trkpt><trkpt lat="37.848050" lon="-122.550000"><ele>86.7</ele></trkpt><trkpt lat="37.848140" lon="-122.549600"><ele>81.6</ele></trkpt><trkpt lat="37.848230" lon="-122.548990"><ele>73.9</ele></trkpt><trkpt lat="37.848310" lon="-122.548620"><ele>69.4</ele></trkpt><trkpt lat="37.848430" lon="-122.547930"><ele>62.0</ele></trkpt><trkpt lat="37.848820" lon="-122.546890"><ele>48.5</ele></trkpt><trkpt lat="37.848930" lon="-122.546380"><ele>43.9</ele></trkpt><trkpt lat="37.849010" lon="-122.545880"><ele>40.1</ele></trkpt><trkpt lat="37.849480" lon="-122.545310"><ele>35.2</ele></trkpt><trkpt lat="37.849510" lon="-122.545180"><ele>34.5</ele></trkpt><trkpt lat="37.849520" lon="-122.544700"><ele>32.7</ele></trkpt><trkpt lat="37.849480" lon="-122.544500"><ele>32.0</ele></trkpt><trkpt lat="37.849350" lon="-122.544200"><ele>31.0</ele></trkpt><trkpt lat="37.849280" lon="-122.543920"><ele>30.0</ele></trkpt><trkpt lat="37.849340" lon="-122.543140"><ele>29.3</ele></trkpt><trkpt lat="37.849270" lon="-122.542820"><ele>28.9</ele></trkpt><trkpt lat="37.849170" lon="-122.542550"><ele>28.5</ele></trkpt><trkpt lat="37.849130" lon="-122.542320"><ele>28.4</ele></trkpt><trkpt lat="37.849130" lon="-122.541460"><ele>30.0</ele></trkpt><trkpt lat="37.849180" lon="-122.540950"><ele>32.2</ele></trkpt><trkpt lat="37.849300" lon="-122.540620"><ele>33.7</ele></trkpt><trkpt lat="37.849490" lon="-122.540200"><ele>35.0</ele></trkpt><trkpt lat="37.849800" lon="-122.539750"><ele>35.9</ele></trkpt><trkpt lat="37.850260" lon="-122.539190"><ele>36.1</ele></trkpt><trkpt lat="37.850770" lon="-122.538680"><ele>34.5</ele></trkpt><trkpt lat="37.850980" lon="-122.538580"><ele>33.8</ele></trkpt><trkpt lat="37.851310" lon="-122.538530"><ele>33.4</ele></trkpt><trkpt lat="37.851850" lon="-122.538570"><ele>33.0</ele></trkpt><trkpt lat="37.852160" lon="-122.538570"><ele>33.4</ele></trkpt><trkpt lat="37.852440" lon="-122.538720"><ele>34.5</ele></trkpt><trkpt lat="37.853170" lon="-122.539020"><ele>37.5</ele></trkpt><trkpt lat="37.853560" lon="-122.539220"><ele>39.4</ele></trkpt><trkpt lat="37.854100" lon="-122.539580"><ele>41.1</ele></trkpt><trkpt lat="37.854460" lon="-122.539710"><ele>42.1</ele></trkpt><trkpt lat="37.854700" lon="-122.539750"><ele>42.3</ele></trkpt><trkpt lat="37.854930" lon="-122.539700"><ele>42.1</ele></trkpt><trkpt lat="37.855320" lon="-122.539520"><ele>41.8</ele></trkpt><trkpt lat="37.855560" lon="-122.539450"><ele>41.5</ele></trkpt><trkpt lat="37.856160" lon="-122.539360"><ele>42.1</ele></trkpt><trkpt lat="37.856460" lon="-122.539240"><ele>42.6</ele></trkpt><trkpt lat="37.857410" lon="-122.539010"><ele>47.8</ele></trkpt><trkpt lat="37.857630" lon="-122.538870"><ele>50.0</ele></trkpt><trkpt lat="37.860893" lon="-122.545726"><ele>82.0</ele></trkpt><trkpt lat="37.860909" lon="-122.545716"><ele>82.1</ele></trkpt><trkpt lat="37.860922" lon="-122.545698"><ele>82.1</ele></trkpt><trkpt lat="37.860938" lon="-122.545671"><ele>82.1</ele></trkpt><trkpt lat="37.861010" lon="-122.545530"><ele>82.3</ele></trkpt><trkpt lat="37.861080" lon="-122.545422"><ele>82.3</ele></trkpt><trkpt lat="37.861122" lon="-122.545375"><ele>82.2</ele></trkpt><trkpt lat="37.861482" lon="-122.545065"><ele>81.9</ele></trkpt><trkpt lat="37.861542" lon="-122.545003"><ele>81.7</ele></trkpt><trkpt lat="37.861579" lon="-122.544948"><ele>81.5</ele></trkpt><trkpt lat="37.861594" lon="-122.544878"><ele>81.4</ele></trkpt><trkpt lat="37.861593" lon="-122.544817"><ele>81.2</ele></trkpt><trkpt lat="37.861585" lon="-122.544765"><ele>81.1</ele></trkpt><trkpt lat="37.861558" lon="-122.544717"><ele>81.0</ele></trkpt><trkpt lat="37.861529" lon="-122.544686"><ele>80.9</ele></trkpt><trkpt lat="37.861487" lon="-122.544667"><ele>80.8</ele></trkpt><trkpt lat="37.861440" lon="-122.544660"><ele>80.6</ele></trkpt><trkpt lat="37.861294" lon="-122.544675"><ele>80.1</ele></trkpt><trkpt lat="37.861193" lon="-122.544677"><ele>79.7</ele></trkpt><trkpt lat="37.861139" lon="-122.544669"><ele>79.5</ele></trkpt><trkpt lat="37.861087" lon="-122.544651"><ele>79.3</ele></trkpt><trkpt lat="37.860924" lon="-122.544558"><ele>78.6</ele></trkpt><trkpt lat="37.860783" lon="-122.544451"><ele>78.0</ele></trkpt><trkpt lat="37.860605" lon="-122.544293"><ele>77.2</ele></trkpt><trkpt lat="37.860223" lon="-122.543894"><ele>74.8</ele></trkpt><trkpt lat="37.859847" lon="-122.543445"><ele>71.5</ele></trkpt><trkpt lat="37.859763" lon="-122.543319"><ele>70.6</ele></trkpt><trkpt lat="37.859701" lon="-122.543220"><ele>69.9</ele></trkpt><trkpt lat="37.859637" lon="-122.543095"><ele>69.2</ele></trkpt><trkpt lat="37.859353" lon="-122.542466"><ele>66.1</ele></trkpt><trkpt lat="37.859290" lon="-122.542355"><ele>65.4</ele></trkpt><trkpt lat="37.859239" lon="-122.542271"><ele>64.8</ele></trkpt><trkpt lat="37.859153" lon="-122.542170"><ele>64.0</ele></trkpt><trkpt lat="37.858966" lon="-122.541972"><ele>62.5</ele></trkpt><trkpt lat="37.858877" lon="-122.541865"><ele>61.8</ele></trkpt><trkpt lat="37.858663" lon="-122.541559"><ele>60.1</ele></trkpt><trkpt lat="37.858570" lon="-122.541430"><ele>59.4</ele></trkpt><trkpt lat="37.858332" lon="-122.541129"><ele>57.9</ele></trkpt><trkpt lat="37.858200" lon="-122.540950"><ele>56.9</ele></trkpt><trkpt lat="37.858147" lon="-122.540856"><ele>56.4</ele></trkpt><trkpt lat="37.858088" lon="-122.540711"><ele>55.6</ele></trkpt><trkpt lat="37.858012" lon="-122.540523"><ele>54.7</ele></trkpt><trkpt lat="37.857972" lon="-122.540443"><ele>54.2</ele></trkpt><trkpt lat="37.857912" lon="-122.540351"><ele>53.7</ele></trkpt><trkpt lat="37.857811" lon="-122.540229"><ele>52.9</ele></trkpt><trkpt lat="37.857730" lon="-122.540122"><ele>52.3</ele></trkpt><trkpt lat="37.857684" lon="-122.540044"><ele>51.8</ele></trkpt><trkpt lat="37.857645" lon="-122.539966"><ele>51.4</ele></trkpt><trkpt lat="37.857621" lon="-122.539877"><ele>51.2</ele></trkpt><trkpt lat="37.857603" lon="-122.539782"><ele>50.9</ele></trkpt><trkpt lat="37.857586" lon="-122.539674"><ele>50.7</ele></trkpt><trkpt lat="37.857568" lon="-122.539566"><ele>50.4</ele></trkpt><trkpt lat="37.857547" lon="-122.539465"><ele>50.1</ele></trkpt><trkpt lat="37.857521" lon="-122.539359"><ele>49.8</ele></trkpt><trkpt lat="37.857488" lon="-122.539243"><ele>49.4</ele></trkpt><trkpt lat="37.857448" lon="-122.539108"><ele>48.9</ele></trkpt><trkpt lat="37.857412" lon="-122.538995"><ele>48.4</ele></trkpt><trkpt lat="37.857471" lon="-122.538964"><ele>48.1</ele></trkpt><trkpt lat="37.857526" lon="-122.538929"><ele>47.9</ele></trkpt><trkpt lat="37.857583" lon="-122.538885"><ele>47.6</ele></trkpt><trkpt lat="37.857636" lon="-122.538838"><ele>47.3</ele></trkpt><trkpt lat="37.857701" lon="-122.538767"><ele>47.4</ele></trkpt><trkpt lat="37.857769" lon="-122.538689"><ele>47.6</ele></trkpt><trkpt lat="37.857835" lon="-122.538603"><ele>47.8</ele></trkpt><trkpt lat="37.858026" lon="-122.538342"><ele>48.5</ele></trkpt><trkpt lat="37.858099" lon="-122.538247"><ele>48.9</ele></trkpt><trkpt lat="37.858167" lon="-122.538163"><ele>49.2</ele></trkpt><trkpt lat="37.858230" lon="-122.538091"><ele>49.5</ele></trkpt><trkpt lat="37.858300" lon="-122.538017"><ele>49.8</ele></trkpt><trkpt lat="37.858378" lon="-122.537943"><ele>50.1</ele></trkpt><trkpt lat="37.858456" lon="-122.537879"><ele>50.5</ele></trkpt><trkpt lat="37.858539" lon="-122.537817"><ele>50.9</ele></trkpt><trkpt lat="37.858630" lon="-122.537754"><ele>51.3</ele></trkpt><trkpt lat="37.858730" lon="-122.537690"><ele>51.8</ele></trkpt><trkpt lat="37.859154" lon="-122.537413"><ele>53.8</ele></trkpt><trkpt lat="37.859614" lon="-122.537106"><ele>56.6</ele></trkpt><trkpt lat="37.859709" lon="-122.537038"><ele>57.4</ele></trkpt><trkpt lat="37.859794" lon="-122.536965"><ele>58.1</ele></trkpt><trkpt lat="37.859867" lon="-122.536892"><ele>58.5</ele></trkpt><trkpt lat="37.859945" lon="-122.536809"><ele>58.7</ele></trkpt><trkpt lat="37.860018" lon="-122.536725"><ele>58.8</ele></trkpt><trkpt lat="37.860101" lon="-122.536630"><ele>58.9</ele></trkpt><trkpt lat="37.860190" lon="-122.536531"><ele>59.0</ele></trkpt><trkpt lat="37.860328" lon="-122.536379"><ele>59.3</ele></trkpt><trkpt lat="37.860360" lon="-122.536345"><ele>59.4</ele></trkpt><trkpt lat="37.860549" lon="-122.536165"><ele>59.8</ele></trkpt><trkpt lat="37.860755" lon="-122.535969"><ele>59.9</ele></trkpt><trkpt lat="37.860840" lon="-122.535885"><ele>59.7</ele></trkpt><trkpt lat="37.860939" lon="-122.535781"><ele>59.5</ele></trkpt><trkpt lat="37.861031" lon="-122.535678"><ele>59.3</ele></trkpt><trkpt lat="37.861128" lon="-122.535567"><ele>59.0</ele></trkpt><trkpt lat="37.861222" lon="-122.535465"><ele>58.7</ele></trkpt><trkpt lat="37.861317" lon="-122.535367"><ele>58.3</ele></trkpt><trkpt lat="37.861368" lon="-122.535320"><ele>58.1</ele></trkpt><trkpt lat="37.861414" lon="-122.535279"><ele>58.0</ele></trkpt><trkpt lat="37.861467" lon="-122.535237"><ele>57.8</ele></trkpt><trkpt lat="37.861522" lon="-122.535196"><ele>57.6</ele></trkpt><trkpt lat="37.861581" lon="-122.535160"><ele>57.3</ele></trkpt><trkpt lat="37.861651" lon="-122.535124"><ele>57.0</ele></trkpt><trkpt lat="37.861826" lon="-122.535029"><ele>56.2</ele></trkpt><trkpt lat="37.861968" lon="-122.534927"><ele>55.5</ele></trkpt><trkpt lat="37.862069" lon="-122.534845"><ele>54.8</ele></trkpt><trkpt lat="37.862160" lon="-122.534741"><ele>54.0</ele></trkpt><trkpt lat="37.862235" lon="-122.534644"><ele>53.2</ele></trkpt><trkpt lat="37.862297" lon="-122.534553"><ele>52.6</ele></trkpt><trkpt lat="37.862364" lon="-122.534441"><ele>51.8</ele></trkpt><trkpt lat="37.862428" lon="-122.534341"><ele>51.3</ele></trkpt><trkpt lat="37.862502" lon="-122.534249"><ele>50.8</ele></trkpt><trkpt lat="37.862575" lon="-122.534173"><ele>50.4</ele></trkpt><trkpt lat="37.862660" lon="-122.534099"><ele>49.9</ele></trkpt><trkpt lat="37.862754" lon="-122.534032"><ele>49.4</ele></trkpt><trkpt lat="37.862838" lon="-122.533984"><ele>49.0</ele></trkpt><trkpt lat="37.862942" lon="-122.533938"><ele>48.6</ele></trkpt><trkpt lat="37.863436" lon="-122.533704"><ele>46.5</ele></trkpt><trkpt lat="37.863562" lon="-122.533653"><ele>45.9</ele></trkpt><trkpt lat="37.863900" lon="-122.533543"><ele>44.2</ele></trkpt><trkpt lat="37.864044" lon="-122.533481"><ele>43.3</ele></trkpt><trkpt lat="37.864163" lon="-122.533412"><ele>42.4</ele></trkpt><trkpt lat="37.864416" lon="-122.533226"><ele>41.2</ele></trkpt><trkpt lat="37.864515" lon="-122.533166"><ele>41.4</ele></trkpt><trkpt lat="37.864617" lon="-122.533124"><ele>41.5</ele></trkpt><trkpt lat="37.864776" lon="-122.533062"><ele>41.7</ele></trkpt><trkpt lat="37.864878" lon="-122.533018"><ele>41.5</ele></trkpt><trkpt lat="37.865089" lon="-122.532911"><ele>40.3</ele></trkpt><trkpt lat="37.865204" lon="-122.532840"><ele>39.6</ele></trkpt><trkpt lat="37.865302" lon="-122.532762"><ele>39.0</ele></trkpt><trkpt lat="37.865375" lon="-122.532679"><ele>38.5</ele></trkpt><trkpt lat="37.865450" lon="-122.532574"><ele>38.0</ele></trkpt><trkpt lat="37.865673" lon="-122.532206"><ele>36.3</ele></trkpt><trkpt lat="37.865763" lon="-122.532078"><ele>35.6</ele></trkpt><trkpt lat="37.865909" lon="-122.531894"><ele>34.5</ele></trkpt><trkpt lat="37.866001" lon="-122.531760"><ele>33.8</ele></trkpt><trkpt lat="37.866166" lon="-122.531540"><ele>32.7</ele></trkpt><trkpt lat="37.866232" lon="-122.531474"><ele>32.4</ele></trkpt><trkpt lat="37.866300" lon="-122.531425"><ele>32.0</ele></trkpt><trkpt lat="37.866373" lon="-122.531386"><ele>31.7</ele></trkpt><trkpt lat="37.866591" lon="-122.531293"><ele>30.0</ele></trkpt><trkpt lat="37.866681" lon="-122.531241"><ele>28.9</ele></trkpt><trkpt lat="37.866799" lon="-122.531152"><ele>27.5</ele></trkpt><trkpt lat="37.866910" lon="-122.531039"><ele>25.9</ele></trkpt><trkpt lat="37.867030" lon="-122.530892"><ele>24.7</ele></trkpt><trkpt lat="37.867128" lon="-122.530760"><ele>24.0</ele></trkpt><trkpt lat="37.867599" lon="-122.530084"><ele>20.6</ele></trkpt><trkpt lat="37.867704" lon="-122.529962"><ele>20.0</ele></trkpt><trkpt lat="37.867925" lon="-122.529757"><ele>18.9</ele></trkpt><trkpt lat="37.867999" lon="-122.529665"><ele>18.5</ele></trkpt><trkpt lat="37.868072" lon="-122.529548"><ele>18.1</ele></trkpt><trkpt lat="37.868258" lon="-122.529193"><ele>16.2</ele></trkpt><trkpt lat="37.868328" lon="-122.529089"><ele>15.6</ele></trkpt><trkpt lat="37.868425" lon="-122.528979"><ele>14.9</ele></trkpt><trkpt lat="37.868599" lon="-122.528804"><ele>13.9</ele></trkpt><trkpt lat="37.868807" lon="-122.528602"><ele>12.7</ele></trkpt><trkpt lat="37.868932" lon="-122.528490"><ele>12.0</ele></trkpt><trkpt lat="37.869069" lon="-122.528359"><ele>11.2</ele></trkpt><trkpt lat="37.869209" lon="-122.528213"><ele>10.4</ele></trkpt><trkpt lat="37.869388" lon="-122.528001"><ele>9.3</ele></trkpt><trkpt lat="37.869476" lon="-122.527886"><ele>8.8</ele></trkpt><trkpt lat="37.869544" lon="-122.527798"><ele>8.3</ele></trkpt><trkpt lat="37.869866" lon="-122.527393"><ele>7.4</ele></trkpt><trkpt lat="37.870050" lon="-122.527166"><ele>7.4</ele></trkpt><trkpt lat="37.870140" lon="-122.527070"><ele>7.6</ele></trkpt><trkpt lat="37.870222" lon="-122.527005"><ele>7.8</ele></trkpt><trkpt lat="37.870304" lon="-122.526953"><ele>8.1</ele></trkpt><trkpt lat="37.870409" lon="-122.526901"><ele>8.3</ele></trkpt><trkpt lat="37.870522" lon="-122.526853"><ele>8.5</ele></trkpt><trkpt lat="37.870932" lon="-122.526683"><ele>8.8</ele></trkpt><trkpt lat="37.871356" lon="-122.526495"><ele>9.4</ele></trkpt><trkpt lat="37.872011" lon="-122.526191"><ele>10.0</ele></trkpt><trkpt lat="37.872387" lon="-122.526039"><ele>9.5</ele></trkpt><trkpt lat="37.872935" lon="-122.525832"><ele>8.5</ele></trkpt><trkpt lat="37.873005" lon="-122.525818"><ele>8.4</ele></trkpt><trkpt lat="37.873060" lon="-122.525819"><ele>8.3</ele></trkpt><trkpt lat="37.873120" lon="-122.525833"><ele>8.2</ele></trkpt><trkpt lat="37.873394" lon="-122.525913"><ele>8.1</ele></trkpt><trkpt lat="37.873510" lon="-122.525941"><ele>8.0</ele></trkpt><trkpt lat="37.873689" lon="-122.525971"><ele>7.9</ele></trkpt><trkpt lat="37.873841" lon="-122.525995"><ele>7.8</ele></trkpt><trkpt lat="37.873962" lon="-122.526004"><ele>7.7</ele></trkpt><trkpt lat="37.874058" lon="-122.526000"><ele>7.7</ele></trkpt><trkpt lat="37.874231" lon="-122.525985"><ele>7.7</ele></trkpt><trkpt lat="37.874314" lon="-122.525983"><ele>7.8</ele></trkpt><trkpt lat="37.874379" lon="-122.525985"><ele>7.9</ele></trkpt><trkpt lat="37.874800" lon="-122.526056"><ele>8.2</ele></trkpt><trkpt lat="37.874892" lon="-122.526064"><ele>8.2</ele></trkpt><trkpt lat="37.874984" lon="-122.526069"><ele>8.2</ele></trkpt><trkpt lat="37.875073" lon="-122.526060"><ele>8.2</ele></trkpt><trkpt lat="37.875162" lon="-122.526045"><ele>8.2</ele></trkpt><trkpt lat="37.875401" lon="-122.525970"><ele>8.2</ele></trkpt><trkpt lat="37.875593" lon="-122.525905"><ele>8.2</ele></trkpt><trkpt lat="37.875675" lon="-122.525889"><ele>8.2</ele></trkpt><trkpt lat="37.875758" lon="-122.525887"><ele>8.2</ele></trkpt><trkpt lat="37.875851" lon="-122.525895"><ele>8.2</ele></trkpt><trkpt lat="37.875923" lon="-122.525923"><ele>8.2</ele></trkpt><trkpt lat="37.876010" lon="-122.525963"><ele>8.2</ele></trkpt><trkpt lat="37.876132" lon="-122.526047"><ele>8.2</ele></trkpt><trkpt lat="37.876245" lon="-122.526138"><ele>8.2</ele></trkpt><trkpt lat="37.876420" lon="-122.526297"><ele>7.8</ele></trkpt><trkpt lat="37.876518" lon="-122.526377"><ele>7.5</ele></trkpt><trkpt lat="37.876594" lon="-122.526418"><ele>7.3</ele></trkpt><trkpt lat="37.876664" lon="-122.526438"><ele>7.2</ele></trkpt><trkpt lat="37.876758" lon="-122.526443"><ele>6.9</ele></trkpt><trkpt lat="37.876862" lon="-122.526444"><ele>6.6</ele></trkpt><trkpt lat="37.876992" lon="-122.526434"><ele>6.1</ele></trkpt><trkpt lat="37.877058" lon="-122.526488"><ele>5.9</ele></trkpt><trkpt lat="37.877174" lon="-122.526428"><ele>5.5</ele></trkpt><trkpt lat="37.877288" lon="-122.526362"><ele>5.0</ele></trkpt><trkpt lat="37.877372" lon="-122.526283"><ele>4.7</ele></trkpt><trkpt lat="37.877461" lon="-122.526177"><ele>4.3</ele></trkpt><trkpt lat="37.877515" lon="-122.526086"><ele>4.0</ele></trkpt><trkpt lat="37.877588" lon="-122.525933"><ele>3.5</ele></trkpt><trkpt lat="37.877650" lon="-122.525784"><ele>3.1</ele></trkpt><trkpt lat="37.877681" lon="-122.525669"><ele>2.9</ele></trkpt><trkpt lat="37.877691" lon="-122.525581"><ele>2.8</ele></trkpt><trkpt lat="37.877695" lon="-122.525473"><ele>2.6</ele></trkpt><trkpt lat="37.877620" lon="-122.525037"><ele>2.1</ele></trkpt><trkpt lat="37.877630" lon="-122.524897"><ele>2.1</ele></trkpt><trkpt lat="37.877755" lon="-122.524516"><ele>2.1</ele></trkpt><trkpt lat="37.877855" lon="-122.524062"><ele>2.1</ele></trkpt><trkpt lat="37.877939" lon="-122.523883"><ele>2.2</ele></trkpt><trkpt lat="37.878026" lon="-122.523755"><ele>2.2</ele></trkpt><trkpt lat="37.878104" lon="-122.523670"><ele>2.3</ele></trkpt><trkpt lat="37.878188" lon="-122.523601"><ele>2.4</ele></trkpt><trkpt lat="37.878282" lon="-122.523543"><ele>2.4</ele></trkpt><trkpt lat="37.878398" lon="-122.523525"><ele>2.5</ele></trkpt><trkpt lat="37.878474" lon="-122.523529"><ele>2.6</ele></trkpt><trkpt lat="37.878598" lon="-122.523543"><ele>2.7</ele></trkpt><trkpt lat="37.878675" lon="-122.523545"><ele>2.8</ele></trkpt><trkpt lat="37.878797" lon="-122.523534"><ele>3.0</ele></trkpt><trkpt lat="37.878924" lon="-122.523509"><ele>3.0</ele></trkpt><trkpt lat="37.879015" lon="-122.523489"><ele>2.9</ele></trkpt><trkpt lat="37.879101" lon="-122.523457"><ele>2.8</ele></trkpt><trkpt lat="37.879210" lon="-122.523379"><ele>2.6</ele></trkpt><trkpt lat="37.879372" lon="-122.523249"><ele>2.4</ele></trkpt><trkpt lat="37.879435" lon="-122.523171"><ele>2.4</ele></trkpt><trkpt lat="37.879437" lon="-122.523126"><ele>2.4</ele></trkpt><trkpt lat="37.879441" lon="-122.523038"><ele>2.4</ele></trkpt><trkpt lat="37.879474" lon="-122.522959"><ele>2.4</ele></trkpt><trkpt lat="37.879520" lon="-122.522908"><ele>2.4</ele></trkpt><trkpt lat="37.879580" lon="-122.522886"><ele>2.4</ele></trkpt><trkpt lat="37.879691" lon="-122.522857"><ele>2.4</ele></trkpt><trkpt lat="37.879698" lon="-122.522838"><ele>2.4</ele></trkpt><trkpt lat="37.879765" lon="-122.522778"><ele>2.4</ele></trkpt><trkpt lat="37.880358" lon="-122.522236"><ele>2.3</ele></trkpt><trkpt lat="37.880541" lon="-122.522062"><ele>2.2</ele></trkpt><trkpt lat="37.880597" lon="-122.521996"><ele>2.1</ele></trkpt><trkpt lat="37.880883" lon="-122.521584"><ele>2.1</ele></trkpt><trkpt lat="37.881506" lon="-122.520647"><ele>2.6</ele></trkpt><trkpt lat="37.881538" lon="-122.520592"><ele>2.5</ele></trkpt><trkpt lat="37.881558" lon="-122.520545"><ele>2.5</ele></trkpt><trkpt lat="37.881567" lon="-122.520494"><ele>2.5</ele></trkpt><trkpt lat="37.881562" lon="-122.520406"><ele>2.4</ele></trkpt><trkpt lat="37.881563" lon="-122.520361"><ele>2.4</ele></trkpt><trkpt lat="37.881573" lon="-122.520309"><ele>2.4</ele></trkpt><trkpt lat="37.881589" lon="-122.520263"><ele>2.4</ele></trkpt><trkpt lat="37.881649" lon="-122.520152"><ele>2.3</ele></trkpt><trkpt lat="37.881791" lon="-122.520022"><ele>2.2</ele></trkpt><trkpt lat="37.881819" lon="-122.519976"><ele>2.2</ele></trkpt><trkpt lat="37.881877" lon="-122.519873"><ele>2.1</ele></trkpt><trkpt lat="37.881893" lon="-122.519829"><ele>2.1</ele></trkpt><trkpt lat="37.881940" lon="-122.519653"><ele>2.1</ele></trkpt><trkpt lat="37.881968" lon="-122.519576"><ele>2.1</ele></trkpt><trkpt lat="37.882118" lon="-122.519326"><ele>2.1</ele></trkpt><trkpt lat="37.882275" lon="-122.519068"><ele>1.9</ele></trkpt><trkpt lat="37.882298" lon="-122.519034"><ele>1.8</ele></trkpt><trkpt lat="37.882327" lon="-122.519003"><ele>1.8</ele></trkpt><trkpt lat="37.882350" lon="-122.518992"><ele>1.8</ele></trkpt><trkpt lat="37.882384" lon="-122.518982"><ele>1.7</ele></trkpt><trkpt lat="37.882426" lon="-122.518982"><ele>1.7</ele></trkpt><trkpt lat="37.882462" lon="-122.518992"><ele>1.6</ele></trkpt><trkpt lat="37.882510" lon="-122.518998"><ele>1.6</ele></trkpt><trkpt lat="37.882549" lon="-122.518993"><ele>1.5</ele></trkpt><trkpt lat="37.882598" lon="-122.518970"><ele>1.5</ele></trkpt><trkpt lat="37.882625" lon="-122.518954"><ele>1.5</ele></trkpt><trkpt lat="37.882680" lon="-122.518910"><ele>1.4</ele></trkpt><trkpt lat="37.882508" lon="-122.518687"><ele>1.1</ele></trkpt><trkpt lat="37.882230" lon="-122.518328"><ele>0.8</ele></trkpt><trkpt lat="37.882013" lon="-122.518028"><ele>0.6</ele></trkpt><trkpt lat="37.881799" lon="-122.517737"><ele>0.4</ele></trkpt><trkpt lat="37.881214" lon="-122.516975"><ele>0.8</ele></trkpt><trkpt lat="37.880170" lon="-122.515620"><ele>3.0</ele></trkpt><trkpt lat="37.879836" lon="-122.515185"><ele>3.5</ele></trkpt><trkpt lat="37.879797" lon="-122.515140"><ele>3.6</ele></trkpt><trkpt lat="37.879768" lon="-122.515116"><ele>3.6</ele></trkpt><trkpt lat="37.879733" lon="-122.515099"><ele>3.7</ele></trkpt><trkpt lat="37.879676" lon="-122.515081"><ele>3.7</ele></trkpt><trkpt lat="37.879647" lon="-122.515077"><ele>3.7</ele></trkpt><trkpt lat="37.879560" lon="-122.514962"><ele>3.7</ele></trkpt><trkpt lat="37.879447" lon="-122.514812"><ele>3.7</ele></trkpt><trkpt lat="37.879446" lon="-122.514779"><ele>3.7</ele></trkpt><trkpt lat="37.879441" lon="-122.514751"><ele>3.7</ele></trkpt><trkpt lat="37.879426" lon="-122.514705"><ele>3.7</ele></trkpt><trkpt lat="37.879408" lon="-122.514661"><ele>3.7</ele></trkpt><trkpt lat="37.879385" lon="-122.514620"><ele>3.6</ele></trkpt><trkpt lat="37.879358" lon="-122.514577"><ele>3.5</ele></trkpt><trkpt lat="37.879330" lon="-122.514539"><ele>3.5</ele></trkpt><trkpt lat="37.879095" lon="-122.514230"><ele>2.9</ele></trkpt><trkpt lat="37.878977" lon="-122.514078"><ele>2.8</ele></trkpt><trkpt lat="37.878852" lon="-122.513924"><ele>2.9</ele></trkpt><trkpt lat="37.878678" lon="-122.513703"><ele>3.0</ele></trkpt><trkpt lat="37.878518" lon="-122.513496"><ele>3.3</ele></trkpt><trkpt lat="37.878330" lon="-122.513251"><ele>3.6</ele></trkpt><trkpt lat="37.878049" lon="-122.512883"><ele>3.8</ele></trkpt><trkpt lat="37.877704" lon="-122.512432"><ele>4.1</ele></trkpt><trkpt lat="37.876709" lon="-122.511137"><ele>4.1</ele></trkpt><trkpt lat="37.876262" lon="-122.510556"><ele>2.9</ele></trkpt><trkpt lat="37.875831" lon="-122.509993"><ele>2.2</ele></trkpt><trkpt lat="37.875296" lon="-122.509298"><ele>1.5</ele></trkpt><trkpt lat="37.874505" lon="-122.508269"><ele>3.6</ele></trkpt><trkpt lat="37.874123" lon="-122.507767"><ele>4.0</ele></trkpt><trkpt lat="37.873844" lon="-122.507403"><ele>4.0</ele></trkpt><trkpt lat="37.873790" lon="-122.507330"><ele>4.0</ele></trkpt><trkpt lat="37.873752" lon="-122.507276"><ele>4.0</ele></trkpt><trkpt lat="37.873717" lon="-122.507222"><ele>4.0</ele></trkpt><trkpt lat="37.873683" lon="-122.507170"><ele>4.0</ele></trkpt><trkpt lat="37.873649" lon="-122.507122"><ele>4.0</ele></trkpt><trkpt lat="37.873611" lon="-122.507072"><ele>4.0</ele></trkpt><trkpt lat="37.873577" lon="-122.507029"><ele>4.0</ele></trkpt><trkpt lat="37.873545" lon="-122.506990"><ele>4.0</ele></trkpt><trkpt lat="37.873511" lon="-122.506949"><ele>4.0</ele></trkpt><trkpt lat="37.873475" lon="-122.506910"><ele>4.0</ele></trkpt><trkpt lat="37.873444" lon="-122.506876"><ele>4.0</ele></trkpt><trkpt lat="37.873416" lon="-122.506844"><ele>4.0</ele></trkpt><trkpt lat="37.873387" lon="-122.506810"><ele>4.0</ele></trkpt><trkpt lat="37.873345" lon="-122.506755"><ele>3.9</ele></trkpt><trkpt lat="37.873297" lon="-122.506685"><ele>3.9</ele></trkpt><trkpt lat="37.873227" lon="-122.506571"><ele>3.8</ele></trkpt><trkpt lat="37.873191" lon="-122.506508"><ele>3.8</ele></trkpt><trkpt lat="37.872768" lon="-122.505719"><ele>3.7</ele></trkpt><trkpt lat="37.872740" lon="-122.505680"><ele>3.7</ele></trkpt><trkpt lat="37.872683" lon="-122.505600"><ele>3.8</ele></trkpt><trkpt lat="37.872598" lon="-122.505455"><ele>4.0</ele></trkpt><trkpt lat="37.872449" lon="-122.505200"><ele>4.5</ele></trkpt><trkpt lat="37.872112" lon="-122.504728"><ele>5.6</ele></trkpt><trkpt lat="37.871775" lon="-122.504334"><ele>6.2</ele></trkpt><trkpt lat="37.871671" lon="-122.504225"><ele>6.3</ele></trkpt><trkpt lat="37.871618" lon="-122.504168"><ele>6.4</ele></trkpt><trkpt lat="37.871254" lon="-122.503899"><ele>6.4</ele></trkpt><trkpt lat="37.870937" lon="-122.503717"><ele>6.0</ele></trkpt><trkpt lat="37.870815" lon="-122.503651"><ele>5.8</ele></trkpt><trkpt lat="37.870780" lon="-122.503638"><ele>5.7</ele></trkpt><trkpt lat="37.870709" lon="-122.503611"><ele>5.6</ele></trkpt><trkpt lat="37.870645" lon="-122.503580"><ele>5.5</ele></trkpt><trkpt lat="37.870587" lon="-122.503556"><ele>5.3</ele></trkpt><trkpt lat="37.870549" lon="-122.503540"><ele>5.2</ele></trkpt><trkpt lat="37.870414" lon="-122.503480"><ele>4.9</ele></trkpt><trkpt lat="37.869954" lon="-122.503277"><ele>3.8</ele></trkpt><trkpt lat="37.869743" lon="-122.503174"><ele>3.3</ele></trkpt><trkpt lat="37.869493" lon="-122.503055"><ele>3.0</ele></trkpt><trkpt lat="37.869361" lon="-122.502985"><ele>2.9</ele></trkpt><trkpt lat="37.869316" lon="-122.502957"><ele>2.8</ele></trkpt><trkpt lat="37.869286" lon="-122.502955"><ele>2.8</ele></trkpt><trkpt lat="37.869210" lon="-122.502914"><ele>2.8</ele></trkpt><trkpt lat="37.869089" lon="-122.502837"><ele>2.7</ele></trkpt><trkpt lat="37.869014" lon="-122.502784"><ele>2.6</ele></trkpt><trkpt lat="37.868990" lon="-122.502757"><ele>2.5</ele></trkpt><trkpt lat="37.868945" lon="-122.502724"><ele>2.5</ele></trkpt><trkpt lat="37.868774" lon="-122.502600"><ele>2.3</ele></trkpt><trkpt lat="37.868724" lon="-122.502556"><ele>2.2</ele></trkpt><trkpt lat="37.868657" lon="-122.502503"><ele>2.1</ele></trkpt><trkpt lat="37.868611" lon="-122.502459"><ele>2.1</ele></trkpt><trkpt lat="37.868455" lon="-122.502324"><ele>2.1</ele></trkpt><trkpt lat="37.868202" lon="-122.502086"><ele>2.1</ele></trkpt><trkpt lat="37.868063" lon="-122.501935"><ele>2.1</ele></trkpt><trkpt lat="37.867959" lon="-122.501813"><ele>2.1</ele></trkpt><trkpt lat="37.867928" lon="-122.501776"><ele>2.1</ele></trkpt><trkpt lat="37.867707" lon="-122.501534"><ele>2.1</ele></trkpt><trkpt lat="37.867370" lon="-122.501191"><ele>2.1</ele></trkpt><trkpt lat="37.867023" lon="-122.500854"><ele>2.1</ele></trkpt><trkpt lat="37.866984" lon="-122.500811"><ele>2.1</ele></trkpt><trkpt lat="37.866946" lon="-122.500769"><ele>2.1</ele></trkpt><trkpt lat="37.866956" lon="-122.500755"><ele>2.1</ele></trkpt><trkpt lat="37.867126" lon="-122.500529"><ele>2.1</ele></trkpt><trkpt lat="37.867033" lon="-122.500424"><ele>2.1</ele></trkpt><trkpt lat="37.866948" lon="-122.500328"><ele>2.1</ele></trkpt><trkpt lat="37.866813" lon="-122.500180"><ele>2.1</ele></trkpt><trkpt lat="37.866667" lon="-122.500019"><ele>2.1</ele></trkpt><trkpt lat="37.866256" lon="-122.499594"><ele>2.3</ele></trkpt><trkpt lat="37.866217" lon="-122.499554"><ele>2.4</ele></trkpt><trkpt lat="37.865706" lon="-122.499006"><ele>3.1</ele></trkpt><trkpt lat="37.865134" lon="-122.498393"><ele>4.1</ele></trkpt><trkpt lat="37.865122" lon="-122.498381"><ele>4.1</ele></trkpt><trkpt lat="37.864985" lon="-122.498372"><ele>4.2</ele></trkpt><trkpt lat="37.864953" lon="-122.498365"><ele>4.2</ele></trkpt><trkpt lat="37.864924" lon="-122.498345"><ele>4.2</ele></trkpt><trkpt lat="37.864879" lon="-122.498310"><ele>4.2</ele></trkpt><trkpt lat="37.864704" lon="-122.498101"><ele>4.3</ele></trkpt><trkpt lat="37.864504" lon="-122.497872"><ele>4.3</ele></trkpt><trkpt lat="37.864234" lon="-122.497555"><ele>4.0</ele></trkpt><trkpt lat="37.864217" lon="-122.497429"><ele>3.8</ele></trkpt><trkpt lat="37.864293" lon="-122.497329"><ele>3.7</ele></trkpt><trkpt lat="37.864312" lon="-122.497304"><ele>3.7</ele></trkpt><trkpt lat="37.864466" lon="-122.497099"><ele>3.9</ele></trkpt><trkpt lat="37.864493" lon="-122.497062"><ele>3.9</ele></trkpt><trkpt lat="37.864515" lon="-122.497035"><ele>4.0</ele></trkpt><trkpt lat="37.864374" lon="-122.496864"><ele>4.2</ele></trkpt><trkpt lat="37.863883" lon="-122.496271"><ele>4.0</ele></trkpt><trkpt lat="37.863876" lon="-122.496262"><ele>4.0</ele></trkpt><trkpt lat="37.863601" lon="-122.495927"><ele>4.2</ele></trkpt><trkpt lat="37.863586" lon="-122.495912"><ele>4.2</ele></trkpt><trkpt lat="37.863544" lon="-122.495871"><ele>4.3</ele></trkpt><trkpt lat="37.863496" lon="-122.495836"><ele>4.3</ele></trkpt><trkpt lat="37.863473" lon="-122.495803"><ele>4.3</ele></trkpt><trkpt lat="37.862735" lon="-122.494898"><ele>4.9</ele></trkpt><trkpt lat="37.862642" lon="-122.494782"><ele>5.0</ele></trkpt><trkpt lat="37.862578" lon="-122.494703"><ele>5.1</ele></trkpt><trkpt lat="37.862532" lon="-122.494650"><ele>5.2</ele></trkpt><trkpt lat="37.862466" lon="-122.494563"><ele>5.3</ele></trkpt><trkpt lat="37.862434" lon="-122.494503"><ele>5.4</ele></trkpt><trkpt lat="37.862390" lon="-122.494425"><ele>5.5</ele></trkpt><trkpt lat="37.862341" lon="-122.494296"><ele>5.7</ele></trkpt><trkpt lat="37.862300" lon="-122.494274"><ele>5.8</ele></trkpt><trkpt lat="37.862276" lon="-122.494252"><ele>5.9</ele></trkpt><trkpt lat="37.862253" lon="-122.494217"><ele>6.0</ele></trkpt><trkpt lat="37.862226" lon="-122.494157"><ele>6.1</ele></trkpt><trkpt lat="37.862180" lon="-122.494022"><ele>6.4</ele></trkpt><trkpt lat="37.862129" lon="-122.493856"><ele>6.7</ele></trkpt><trkpt lat="37.862087" lon="-122.493734"><ele>6.8</ele></trkpt><trkpt lat="37.862048" lon="-122.493657"><ele>6.9</ele></trkpt><trkpt lat="37.862010" lon="-122.493616"><ele>6.9</ele></trkpt><trkpt lat="37.861990" lon="-122.493585"><ele>7.0</ele></trkpt><trkpt lat="37.861932" lon="-122.493616"><ele>7.1</ele></trkpt><trkpt lat="37.861835" lon="-122.493674"><ele>7.2</ele></trkpt><trkpt lat="37.861832" lon="-122.493598"><ele>7.2</ele></trkpt><trkpt lat="37.861830" lon="-122.493511"><ele>7.3</ele></trkpt><trkpt lat="37.861806" lon="-122.492460"><ele>9.2</ele></trkpt><trkpt lat="37.861801" lon="-122.492251"><ele>9.6</ele></trkpt><trkpt lat="37.861799" lon="-122.492148"><ele>9.8</ele></trkpt><trkpt lat="37.861798" lon="-122.492110"><ele>9.8</ele></trkpt><trkpt lat="37.861793" lon="-122.491913"><ele>9.9</ele></trkpt><trkpt lat="37.861792" lon="-122.491890"><ele>9.9</ele></trkpt><trkpt lat="37.861785" lon="-122.491761"><ele>9.9</ele></trkpt><trkpt lat="37.861773" lon="-122.491590"><ele>10.0</ele></trkpt><trkpt lat="37.861758" lon="-122.491438"><ele>10.0</ele></trkpt><trkpt lat="37.861756" lon="-122.491417"><ele>9.9</ele></trkpt><trkpt lat="37.861739" lon="-122.491279"><ele>9.6</ele></trkpt><trkpt lat="37.861716" lon="-122.491123"><ele>9.3</ele></trkpt><trkpt lat="37.861690" lon="-122.490963"><ele>8.9</ele></trkpt><trkpt lat="37.861679" lon="-122.490909"><ele>8.8</ele></trkpt><trkpt lat="37.861668" lon="-122.490852"><ele>8.7</ele></trkpt><trkpt lat="37.861659" lon="-122.490807"><ele>8.6</ele></trkpt><trkpt lat="37.861625" lon="-122.490652"><ele>8.3</ele></trkpt><trkpt lat="37.861587" lon="-122.490494"><ele>8.0</ele></trkpt><trkpt lat="37.861552" lon="-122.490333"><ele>7.7</ele></trkpt><trkpt lat="37.861512" lon="-122.490192"><ele>7.4</ele></trkpt><trkpt lat="37.861462" lon="-122.490051"><ele>7.1</ele></trkpt><trkpt lat="37.861402" lon="-122.489904"><ele>6.8</ele></trkpt><trkpt lat="37.861342" lon="-122.489766"><ele>6.6</ele></trkpt><trkpt lat="37.861259" lon="-122.489583"><ele>6.2</ele></trkpt><trkpt lat="37.861246" lon="-122.489532"><ele>6.1</ele></trkpt><trkpt lat="37.861253" lon="-122.489434"><ele>5.8</ele></trkpt><trkpt lat="37.861205" lon="-122.489335"><ele>5.5</ele></trkpt><trkpt lat="37.861152" lon="-122.489229"><ele>5.1</ele></trkpt><trkpt lat="37.861101" lon="-122.489123"><ele>4.8</ele></trkpt><trkpt lat="37.861034" lon="-122.488985"><ele>4.4</ele></trkpt><trkpt lat="37.860978" lon="-122.488869"><ele>4.1</ele></trkpt><trkpt lat="37.860853" lon="-122.488613"><ele>3.4</ele></trkpt><trkpt lat="37.860826" lon="-122.488557"><ele>3.3</ele></trkpt><trkpt lat="37.860778" lon="-122.488454"><ele>3.0</ele></trkpt><trkpt lat="37.860433" lon="-122.487725"><ele>2.4</ele></trkpt><trkpt lat="37.860400" lon="-122.487653"><ele>2.4</ele></trkpt><trkpt lat="37.860363" lon="-122.487572"><ele>2.3</ele></trkpt><trkpt lat="37.860236" lon="-122.487295"><ele>2.2</ele></trkpt><trkpt lat="37.860155" lon="-122.487116"><ele>2.1</ele></trkpt><trkpt lat="37.860074" lon="-122.486937"><ele>2.1</ele></trkpt><trkpt lat="37.860021" lon="-122.486821"><ele>2.1</ele></trkpt><trkpt lat="37.859982" lon="-122.486727"><ele>2.1</ele></trkpt><trkpt lat="37.859955" lon="-122.486666"><ele>2.1</ele></trkpt><trkpt lat="37.859742" lon="-122.486189"><ele>2.1</ele></trkpt><trkpt lat="37.859648" lon="-122.485975"><ele>2.1</ele></trkpt><trkpt lat="37.859623" lon="-122.485917"><ele>2.1</ele></trkpt><trkpt lat="37.859587" lon="-122.485836"><ele>2.1</ele></trkpt><trkpt lat="37.859551" lon="-122.485760"><ele>2.1</ele></trkpt><trkpt lat="37.859431" lon="-122.485511"><ele>2.1</ele></trkpt><trkpt lat="37.859282" lon="-122.485201"><ele>2.3</ele></trkpt><trkpt lat="37.859196" lon="-122.485020"><ele>2.5</ele></trkpt><trkpt lat="37.859159" lon="-122.484941"><ele>2.6</ele></trkpt><trkpt lat="37.859126" lon="-122.484867"><ele>2.7</ele></trkpt><trkpt lat="37.858952" lon="-122.484469"><ele>3.1</ele></trkpt><trkpt lat="37.858937" lon="-122.484433"><ele>3.1</ele></trkpt><trkpt lat="37.858901" lon="-122.484349"><ele>3.2</ele></trkpt><trkpt lat="37.858868" lon="-122.484271"><ele>3.3</ele></trkpt><trkpt lat="37.858835" lon="-122.484189"><ele>3.4</ele></trkpt><trkpt lat="37.858803" lon="-122.484105"><ele>3.5</ele></trkpt><trkpt lat="37.858772" lon="-122.484019"><ele>3.6</ele></trkpt><trkpt lat="37.858744" lon="-122.483939"><ele>3.8</ele></trkpt><trkpt lat="37.858566" lon="-122.483430"><ele>4.6</ele></trkpt><trkpt lat="37.858531" lon="-122.483329"><ele>4.8</ele></trkpt><trkpt lat="37.858499" lon="-122.483238"><ele>5.0</ele></trkpt><trkpt lat="37.858474" lon="-122.483163"><ele>5.1</ele></trkpt><trkpt lat="37.858441" lon="-122.483060"><ele>5.3</ele></trkpt><trkpt lat="37.858422" lon="-122.482983"><ele>5.5</ele></trkpt><trkpt lat="37.858405" lon="-122.482910"><ele>5.6</ele></trkpt><trkpt lat="37.858387" lon="-122.482837"><ele>5.8</ele></trkpt><trkpt lat="37.858379" lon="-122.482808"><ele>5.9</ele></trkpt><trkpt lat="37.858366" lon="-122.482763"><ele>6.1</ele></trkpt><trkpt lat="37.858339" lon="-122.482680"><ele>6.3</ele></trkpt><trkpt lat="37.858310" lon="-122.482598"><ele>6.5</ele></trkpt><trkpt lat="37.858249" lon="-122.482424"><ele>7.1</ele></trkpt><trkpt lat="37.858218" lon="-122.482349"><ele>7.3</ele></trkpt><trkpt lat="37.858183" lon="-122.482278"><ele>7.5</ele></trkpt><trkpt lat="37.858146" lon="-122.482211"><ele>7.7</ele></trkpt><trkpt lat="37.858025" lon="-122.482006"><ele>8.2</ele></trkpt><trkpt lat="37.857972" lon="-122.481917"><ele>8.5</ele></trkpt><trkpt lat="37.857919" lon="-122.481833"><ele>8.7</ele></trkpt><trkpt lat="37.857865" lon="-122.481754"><ele>8.9</ele></trkpt><trkpt lat="37.857805" lon="-122.481672"><ele>9.0</ele></trkpt><trkpt lat="37.857741" lon="-122.481588"><ele>9.1</ele></trkpt><trkpt lat="37.857677" lon="-122.481506"><ele>9.2</ele></trkpt><trkpt lat="37.857529" lon="-122.481323"><ele>9.4</ele></trkpt><trkpt lat="37.857463" lon="-122.481236"><ele>9.5</ele></trkpt><trkpt lat="37.857455" lon="-122.481227"><ele>9.5</ele></trkpt><trkpt lat="37.857378" lon="-122.481122"><ele>9.6</ele></trkpt><trkpt lat="37.857304" lon="-122.481016"><ele>9.6</ele></trkpt><trkpt lat="37.857213" lon="-122.480887"><ele>9.7</ele></trkpt><trkpt lat="37.857109" lon="-122.480733"><ele>9.8</ele></trkpt><trkpt lat="37.857024" lon="-122.480604"><ele>9.8</ele></trkpt><trkpt lat="37.856978" lon="-122.480533"><ele>9.8</ele></trkpt><trkpt lat="37.856937" lon="-122.480470"><ele>9.8</ele></trkpt><trkpt lat="37.856772" lon="-122.480216"><ele>9.7</ele></trkpt><trkpt lat="37.856737" lon="-122.480166"><ele>9.6</ele></trkpt><trkpt lat="37.856698" lon="-122.480115"><ele>9.6</ele></trkpt><trkpt lat="37.856661" lon="-122.480071"><ele>9.5</ele></trkpt><trkpt lat="37.856621" lon="-122.480032"><ele>9.5</ele></trkpt><trkpt lat="37.856575" lon="-122.479997"><ele>9.4</ele></trkpt><trkpt lat="37.856528" lon="-122.479967"><ele>9.4</ele></trkpt><trkpt lat="37.856461" lon="-122.479928"><ele>9.3</ele></trkpt><trkpt lat="37.856429" lon="-122.479908"><ele>9.2</ele></trkpt><trkpt lat="37.856400" lon="-122.479890"><ele>9.2</ele></trkpt><trkpt lat="37.855976" lon="-122.479596"><ele>8.6</ele></trkpt><trkpt lat="37.855915" lon="-122.479554"><ele>8.6</ele></trkpt><trkpt lat="37.855874" lon="-122.479526"><ele>8.5</ele></trkpt><trkpt lat="37.855879" lon="-122.479425"><ele>8.5</ele></trkpt><trkpt lat="37.855820" lon="-122.479385"><ele>8.5</ele></trkpt><trkpt lat="37.855828" lon="-122.479371"><ele>8.5</ele></trkpt><trkpt lat="37.855830" lon="-122.479000"><ele>8.5</ele></trkpt></trkseg></trk>
</gpx>