<?xml version="1.0" encoding="UTF-8"?>
<gpx version="1.1" creator="north-bay-planning" xmlns="http://www.topografix.com/GPX/1/1">
<metadata><name>Sibley ridge overnight day 1</name><desc>Day 1 Richmond to Sibley</desc></metadata>
<wpt lat="37.850080" lon="-122.196860"><name>Sibley Backpack Camp</name><desc>Reserve on ReserveAmerica 2+ business days ahead. No water.</desc></wpt>
<trk><name>Day 1 Richmond to Sibley</name><trkseg><trkpt lat="37.931470" lon="-122.354560"><ele>8.8</ele></trkpt><trkpt lat="37.931480" lon="-122.350450"><ele>10.7</ele></trkpt><trkpt lat="37.931510" lon="-122.348140"><ele>12.1</ele></trkpt><trkpt lat="37.931040" lon="-122.347910"><ele>12.5</ele></trkpt><trkpt lat="37.930850" lon="-122.347910"><ele>12.5</ele></trkpt><trkpt lat="37.930870" lon="-122.347850"><ele>12.5</ele></trkpt><trkpt lat="37.930850" lon="-122.347740"><ele>12.5</ele></trkpt><trkpt lat="37.930750" lon="-122.347670"><ele>12.5</ele></trkpt><trkpt lat="37.930830" lon="-122.347600"><ele>12.5</ele></trkpt><trkpt lat="37.931060" lon="-122.347610"><ele>12.5</ele></trkpt><trkpt lat="37.931820" lon="-122.347880"><ele>12.5</ele></trkpt><trkpt lat="37.932180" lon="-122.347910"><ele>12.5</ele></trkpt><trkpt lat="37.932740" lon="-122.347910"><ele>12.5</ele></trkpt><trkpt lat="37.933060" lon="-122.347890"><ele>12.6</ele></trkpt><trkpt lat="37.933830" lon="-122.347640"><ele>13.1</ele></trkpt><trkpt lat="37.934060" lon="-122.347600"><ele>13.3</ele></trkpt><trkpt lat="37.934130" lon="-122.347570"><ele>13.4</ele></trkpt><trkpt lat="37.934120" lon="-122.346600"><ele>13.7</ele></trkpt><trkpt lat="37.932680" lon="-122.346600"><ele>13.5</ele></trkpt><trkpt lat="37.932580" lon="-122.346560"><ele>13.5</ele></trkpt><trkpt lat="37.932370" lon="-122.346950"><ele>13.3</ele></trkpt><trkpt lat="37.932110" lon="-122.347480"><ele>13.1</ele></trkpt><trkpt lat="37.932070" lon="-122.347590"><ele>13.1</ele></trkpt><trkpt lat="37.931850" lon="-122.347380"><ele>13.1</ele></trkpt><trkpt lat="37.931500" lon="-122.346910"><ele>13.1</ele></trkpt><trkpt lat="37.930840" lon="-122.345910"><ele>13.1</ele></trkpt><trkpt lat="37.930900" lon="-122.345830"><ele>13.1</ele></trkpt><trkpt lat="37.931410" lon="-122.346600"><ele>13.6</ele></trkpt><trkpt lat="37.931440" lon="-122.346380"><ele>13.7</ele></trkpt><trkpt lat="37.931430" lon="-122.346220"><ele>13.8</ele></trkpt><trkpt lat="37.931430" lon="-122.346160"><ele>13.8</ele></trkpt><trkpt lat="37.931320" lon="-122.345940"><ele>13.9</ele></trkpt><trkpt lat="37.931310" lon="-122.345880"><ele>13.9</ele></trkpt><trkpt lat="37.931290" lon="-122.345560"><ele>14.1</ele></trkpt><trkpt lat="37.931280" lon="-122.342520"><ele>15.7</ele></trkpt><trkpt lat="37.931300" lon="-122.338440"><ele>15.5</ele></trkpt><trkpt lat="37.931290" lon="-122.336670"><ele>16.2</ele></trkpt><trkpt lat="37.931290" lon="-122.330770"><ele>18.6</ele></trkpt><trkpt lat="37.931210" lon="-122.329700"><ele>18.7</ele></trkpt><trkpt lat="37.931170" lon="-122.329450"><ele>18.8</ele></trkpt><trkpt lat="37.931109" lon="-122.328810"><ele>18.9</ele></trkpt><trkpt lat="37.931120" lon="-122.328230"><ele>18.9</ele></trkpt><trkpt lat="37.931150" lon="-122.328090"><ele>18.9</ele></trkpt><trkpt lat="37.931160" lon="-122.328090"><ele>18.9</ele></trkpt><trkpt lat="37.931260" lon="-122.327530"><ele>19.3</ele></trkpt><trkpt lat="37.931370" lon="-122.326970"><ele>19.8</ele></trkpt><trkpt lat="37.931410" lon="-122.326650"><ele>20.1</ele></trkpt><trkpt lat="37.931410" lon="-122.325560"><ele>20.4</ele></trkpt><trkpt lat="37.931410" lon="-122.324470"><ele>20.1</ele></trkpt><trkpt lat="37.931370" lon="-122.324130"><ele>19.9</ele></trkpt><trkpt lat="37.931320" lon="-122.323850"><ele>19.8</ele></trkpt><trkpt lat="37.931250" lon="-122.323710"><ele>19.9</ele></trkpt><trkpt lat="37.931160" lon="-122.323650"><ele>19.9</ele></trkpt><trkpt lat="37.931040" lon="-122.323610"><ele>20.0</ele></trkpt><trkpt lat="37.930960" lon="-122.323510"><ele>20.1</ele></trkpt><trkpt lat="37.930770" lon="-122.322920"><ele>20.6</ele></trkpt><trkpt lat="37.930580" lon="-122.322330"><ele>21.6</ele></trkpt><trkpt lat="37.930670" lon="-122.322120"><ele>22.1</ele></trkpt><trkpt lat="37.930770" lon="-122.321950"><ele>22.4</ele></trkpt><trkpt lat="37.930810" lon="-122.321840"><ele>22.7</ele></trkpt><trkpt lat="37.930790" lon="-122.321640"><ele>23.0</ele></trkpt><trkpt lat="37.930490" lon="-122.321240"><ele>24.0</ele></trkpt><trkpt lat="37.930230" lon="-122.320780"><ele>24.9</ele></trkpt><trkpt lat="37.930070" lon="-122.320640"><ele>25.2</ele></trkpt><trkpt lat="37.930060" lon="-122.320570"><ele>25.3</ele></trkpt><trkpt lat="37.930040" lon="-122.320510"><ele>25.3</ele></trkpt><trkpt lat="37.930120" lon="-122.320440"><ele>25.5</ele></trkpt><trkpt lat="37.930169" lon="-122.320220"><ele>25.7</ele></trkpt><trkpt lat="37.930440" lon="-122.320560"><ele>26.1</ele></trkpt><trkpt lat="37.930980" lon="-122.320980"><ele>26.4</ele></trkpt><trkpt lat="37.931520" lon="-122.321410"><ele>26.0</ele></trkpt><trkpt lat="37.932070" lon="-122.321830"><ele>25.7</ele></trkpt><trkpt lat="37.932210" lon="-122.321960"><ele>25.6</ele></trkpt><trkpt lat="37.932540" lon="-122.322200"><ele>25.6</ele></trkpt><trkpt lat="37.933050" lon="-122.322480"><ele>25.6</ele></trkpt><trkpt lat="37.933360" lon="-122.322610"><ele>25.7</ele></trkpt><trkpt lat="37.933760" lon="-122.322650"><ele>26.0</ele></trkpt><trkpt lat="37.934160" lon="-122.322660"><ele>26.5</ele></trkpt><trkpt lat="37.934410" lon="-122.322700"><ele>26.9</ele></trkpt><trkpt lat="37.934669" lon="-122.322760"><ele>27.3</ele></trkpt><trkpt lat="37.935110" lon="-122.322930"><ele>27.7</ele></trkpt><trkpt lat="37.935930" lon="-122.323320"><ele>28.6</ele></trkpt><trkpt lat="37.936740" lon="-122.323720"><ele>29.3</ele></trkpt><trkpt lat="37.937560" lon="-122.324110"><ele>28.9</ele></trkpt><trkpt lat="37.937779" lon="-122.324150"><ele>28.7</ele></trkpt><trkpt lat="37.938120" lon="-122.324170"><ele>28.3</ele></trkpt><trkpt lat="37.938270" lon="-122.324220"><ele>28.1</ele></trkpt><trkpt lat="37.938460" lon="-122.324330"><ele>28.0</ele></trkpt><trkpt lat="37.938800" lon="-122.324460"><ele>27.8</ele></trkpt><trkpt lat="37.938870" lon="-122.324530"><ele>27.7</ele></trkpt><trkpt lat="37.938960" lon="-122.324800"><ele>27.4</ele></trkpt><trkpt lat="37.939440" lon="-122.324600"><ele>27.3</ele></trkpt><trkpt lat="37.939920" lon="-122.324390"><ele>27.7</ele></trkpt><trkpt lat="37.940650" lon="-122.324050"><ele>28.8</ele></trkpt><trkpt lat="37.941380" lon="-122.323700"><ele>30.9</ele></trkpt><trkpt lat="37.941500" lon="-122.323610"><ele>31.3</ele></trkpt><trkpt lat="37.941560" lon="-122.323520"><ele>31.5</ele></trkpt><trkpt lat="37.941620" lon="-122.323360"><ele>31.9</ele></trkpt><trkpt lat="37.941890" lon="-122.322480"><ele>32.0</ele></trkpt><trkpt lat="37.942590" lon="-122.322820"><ele>32.0</ele></trkpt><trkpt lat="37.943160" lon="-122.323010"><ele>31.5</ele></trkpt><trkpt lat="37.943960" lon="-122.323390"><ele>31.2</ele></trkpt><trkpt lat="37.944770" lon="-122.323780"><ele>32.3</ele></trkpt><trkpt lat="37.945580" lon="-122.324160"><ele>33.4</ele></trkpt><trkpt lat="37.946380" lon="-122.324550"><ele>34.7</ele></trkpt><trkpt lat="37.947190" lon="-122.324930"><ele>35.4</ele></trkpt><trkpt lat="37.947990" lon="-122.325320"><ele>36.5</ele></trkpt><trkpt lat="37.948800" lon="-122.325710"><ele>37.4</ele></trkpt><trkpt lat="37.949090" lon="-122.324730"><ele>40.2</ele></trkpt><trkpt lat="37.949370" lon="-122.323740"><ele>43.3</ele></trkpt><trkpt lat="37.949460" lon="-122.323480"><ele>43.9</ele></trkpt><trkpt lat="37.949570" lon="-122.323220"><ele>44.6</ele></trkpt><trkpt lat="37.949670" lon="-122.323120"><ele>45.0</ele></trkpt><trkpt lat="37.949800" lon="-122.323040"><ele>45.6</ele></trkpt><trkpt lat="37.950390" lon="-122.322810"><ele>48.1</ele></trkpt><trkpt lat="37.950980" lon="-122.322580"><ele>50.4</ele></trkpt><trkpt lat="37.951200" lon="-122.322410"><ele>51.4</ele></trkpt><trkpt lat="37.951310" lon="-122.322260"><ele>51.9</ele></trkpt><trkpt lat="37.951560" lon="-122.321520"><ele>53.4</ele></trkpt><trkpt lat="37.951720" lon="-122.320980"><ele>52.8</ele></trkpt><trkpt lat="37.951780" lon="-122.320540"><ele>51.4</ele></trkpt><trkpt lat="37.951720" lon="-122.319600"><ele>50.6</ele></trkpt><trkpt lat="37.951810" lon="-122.319300"><ele>50.8</ele></trkpt><trkpt lat="37.951810" lon="-122.319300"><ele>50.8</ele></trkpt><trkpt lat="37.951960" lon="-122.318770"><ele>53.8</ele></trkpt><trkpt lat="37.952010" lon="-122.318350"><ele>56.7</ele></trkpt><trkpt lat="37.951990" lon="-122.318100"><ele>58.6</ele></trkpt><trkpt lat="37.951840" lon="-122.317020"><ele>71.9</ele></trkpt><trkpt lat="37.951830" lon="-122.316750"><ele>75.6</ele></trkpt><trkpt lat="37.951850" lon="-122.316410"><ele>78.9</ele></trkpt><trkpt lat="37.951930" lon="-122.316110"><ele>80.2</ele></trkpt><trkpt lat="37.952140" lon="-122.315570"><ele>83.9</ele></trkpt><trkpt lat="37.952360" lon="-122.315020"><ele>88.2</ele></trkpt><trkpt lat="37.952360" lon="-122.315020"><ele>88.2</ele></trkpt><trkpt lat="37.952419" lon="-122.314860"><ele>89.5</ele></trkpt><trkpt lat="37.952450" lon="-122.314650"><ele>91.0</ele></trkpt><trkpt lat="37.952450" lon="-122.314350"><ele>93.5</ele></trkpt><trkpt lat="37.952400" lon="-122.313750"><ele>97.8</ele></trkpt><trkpt lat="37.952200" lon="-122.313160"><ele>101.6</ele></trkpt><trkpt lat="37.952000" lon="-122.312570"><ele>106.1</ele></trkpt><trkpt lat="37.951659" lon="-122.311780"><ele>110.0</ele></trkpt><trkpt lat="37.951520" lon="-122.311500"><ele>111.6</ele></trkpt><trkpt lat="37.951370" lon="-122.311310"><ele>112.0</ele></trkpt><trkpt lat="37.951040" lon="-122.311110"><ele>112.5</ele></trkpt><trkpt lat="37.950260" lon="-122.310570"><ele>114.1</ele></trkpt><trkpt lat="37.949750" lon="-122.310170"><ele>118.2</ele></trkpt><trkpt lat="37.949240" lon="-122.309780"><ele>124.7</ele></trkpt><trkpt lat="37.948640" lon="-122.309360"><ele>132.4</ele></trkpt><trkpt lat="37.948040" lon="-122.308940"><ele>138.6</ele></trkpt><trkpt lat="37.947450" lon="-122.308520"><ele>136.5</ele></trkpt><trkpt lat="37.946810" lon="-122.308070"><ele>128.2</ele></trkpt><trkpt lat="37.946170" lon="-122.307610"><ele>120.7</ele></trkpt><trkpt lat="37.945540" lon="-122.307150"><ele>118.7</ele></trkpt><trkpt lat="37.944899" lon="-122.306690"><ele>119.6</ele></trkpt><trkpt lat="37.944260" lon="-122.306240"><ele>120.0</ele></trkpt><trkpt lat="37.943990" lon="-122.305970"><ele>118.4</ele></trkpt><trkpt lat="37.943730" lon="-122.305650"><ele>113.5</ele></trkpt><trkpt lat="37.943500" lon="-122.305260"><ele>110.2</ele></trkpt><trkpt lat="37.943420" lon="-122.305040"><ele>109.0</ele></trkpt><trkpt lat="37.943300" lon="-122.304700"><ele>109.4</ele></trkpt><trkpt lat="37.943190" lon="-122.304090"><ele>110.1</ele></trkpt><trkpt lat="37.942970" lon="-122.303110"><ele>108.1</ele></trkpt><trkpt lat="37.942839" lon="-122.302700"><ele>110.5</ele></trkpt><trkpt lat="37.942770" lon="-122.302590"><ele>111.7</ele></trkpt><trkpt lat="37.942610" lon="-122.302570"><ele>113.4</ele></trkpt><trkpt lat="37.942450" lon="-122.302470"><ele>114.0</ele></trkpt><trkpt lat="37.942250" lon="-122.302220"><ele>114.4</ele></trkpt><trkpt lat="37.942050" lon="-122.302140"><ele>113.9</ele></trkpt><trkpt lat="37.941730" lon="-122.302130"><ele>111.8</ele></trkpt><trkpt lat="37.941600" lon="-122.302060"><ele>110.9</ele></trkpt><trkpt lat="37.941520" lon="-122.301960"><ele>110.9</ele></trkpt><trkpt lat="37.941339" lon="-122.301640"><ele>110.7</ele></trkpt><trkpt lat="37.940930" lon="-122.300740"><ele>111.9</ele></trkpt><trkpt lat="37.940540" lon="-122.300220"><ele>111.9</ele></trkpt><trkpt lat="37.940330" lon="-122.300030"><ele>111.9</ele></trkpt><trkpt lat="37.939850" lon="-122.299760"><ele>112.6</ele></trkpt><trkpt lat="37.939630" lon="-122.299470"><ele>112.9</ele></trkpt><trkpt lat="37.939500" lon="-122.299260"><ele>113.0</ele></trkpt><trkpt lat="37.939340" lon="-122.299130"><ele>113.1</ele></trkpt><trkpt lat="37.939190" lon="-122.298930"><ele>113.1</ele></trkpt><trkpt lat="37.939140" lon="-122.298750"><ele>113.1</ele></trkpt><trkpt lat="37.939120" lon="-122.298320"><ele>113.4</ele></trkpt><trkpt lat="37.939040" lon="-122.298240"><ele>113.5</ele></trkpt><trkpt lat="37.938930" lon="-122.298270"><ele>113.6</ele></trkpt><trkpt lat="37.938809" lon="-122.298370"><ele>113.9</ele></trkpt><trkpt lat="37.938610" lon="-122.298460"><ele>114.3</ele></trkpt><trkpt lat="37.938380" lon="-122.298460"><ele>114.8</ele></trkpt><trkpt lat="37.938150" lon="-122.298330"><ele>115.0</ele></trkpt><trkpt lat="37.938000" lon="-122.298160"><ele>115.1</ele></trkpt><trkpt lat="37.937470" lon="-122.297310"><ele>116.7</ele></trkpt><trkpt lat="37.937370" lon="-122.297180"><ele>116.7</ele></trkpt><trkpt lat="37.937290" lon="-122.296980"><ele>116.7</ele></trkpt><trkpt lat="37.937190" lon="-122.296820"><ele>116.7</ele></trkpt><trkpt lat="37.937070" lon="-122.296700"><ele>116.7</ele></trkpt><trkpt lat="37.936890" lon="-122.296420"><ele>116.7</ele></trkpt><trkpt lat="37.936850" lon="-122.296240"><ele>116.4</ele></trkpt><trkpt lat="37.936860" lon="-122.295670"><ele>115.8</ele></trkpt><trkpt lat="37.936830" lon="-122.295470"><ele>115.8</ele></trkpt><trkpt lat="37.936670" lon="-122.294960"><ele>115.7</ele></trkpt><trkpt lat="37.936470" lon="-122.294590"><ele>115.3</ele></trkpt><trkpt lat="37.936300" lon="-122.294340"><ele>115.5</ele></trkpt><trkpt lat="37.936210" lon="-122.294140"><ele>115.7</ele></trkpt><trkpt lat="37.936160" lon="-122.293930"><ele>115.8</ele></trkpt><trkpt lat="37.936120" lon="-122.293480"><ele>115.4</ele></trkpt><trkpt lat="37.936050" lon="-122.293370"><ele>115.3</ele></trkpt><trkpt lat="37.935770" lon="-122.293230"><ele>115.4</ele></trkpt><trkpt lat="37.935680" lon="-122.293040"><ele>115.5</ele></trkpt><trkpt lat="37.935450" lon="-122.292310"><ele>114.9</ele></trkpt><trkpt lat="37.935590" lon="-122.292770"><ele>115.5</ele></trkpt><trkpt lat="37.935590" lon="-122.292770"><ele>115.5</ele></trkpt><trkpt lat="37.935440" lon="-122.292320"><ele>116.1</ele></trkpt><trkpt lat="37.935370" lon="-122.292010"><ele>116.4</ele></trkpt><trkpt lat="37.935310" lon="-122.291850"><ele>116.5</ele></trkpt><trkpt lat="37.935250" lon="-122.291750"><ele>116.7</ele></trkpt><trkpt lat="37.934820" lon="-122.291160"><ele>117.1</ele></trkpt><trkpt lat="37.934740" lon="-122.291030"><ele>116.9</ele></trkpt><trkpt lat="37.934520" lon="-122.290050"><ele>116.5</ele></trkpt><trkpt lat="37.934200" lon="-122.289360"><ele>116.0</ele></trkpt><trkpt lat="37.934030" lon="-122.288900"><ele>117.1</ele></trkpt><trkpt lat="37.933980" lon="-122.288600"><ele>118.3</ele></trkpt><trkpt lat="37.933670" lon="-122.287880"><ele>123.0</ele></trkpt><trkpt lat="37.933480" lon="-122.287560"><ele>126.4</ele></trkpt><trkpt lat="37.933390" lon="-122.287450"><ele>128.0</ele></trkpt><trkpt lat="37.933050" lon="-122.287200"><ele>132.6</ele></trkpt><trkpt lat="37.932850" lon="-122.286990"><ele>135.3</ele></trkpt><trkpt lat="37.932609" lon="-122.286590"><ele>139.2</ele></trkpt><trkpt lat="37.932480" lon="-122.286410"><ele>141.1</ele></trkpt><trkpt lat="37.932330" lon="-122.286290"><ele>142.4</ele></trkpt><trkpt lat="37.932220" lon="-122.286240"><ele>143.1</ele></trkpt><trkpt lat="37.931850" lon="-122.286170"><ele>145.4</ele></trkpt><trkpt lat="37.931720" lon="-122.286080"><ele>146.0</ele></trkpt><trkpt lat="37.931370" lon="-122.285660"><ele>147.6</ele></trkpt><trkpt lat="37.931080" lon="-122.285370"><ele>147.8</ele></trkpt><trkpt lat="37.930680" lon="-122.285020"><ele>148.6</ele></trkpt><trkpt lat="37.930210" lon="-122.284340"><ele>147.1</ele></trkpt><trkpt lat="37.930169" lon="-122.284310"><ele>146.9</ele></trkpt><trkpt lat="37.929870" lon="-122.284250"><ele>145.7</ele></trkpt><trkpt lat="37.929609" lon="-122.284120"><ele>144.6</ele></trkpt><trkpt lat="37.929519" lon="-122.284110"><ele>144.2</ele></trkpt><trkpt lat="37.929229" lon="-122.284140"><ele>142.9</ele></trkpt><trkpt lat="37.929130" lon="-122.284120"><ele>142.5</ele></trkpt><trkpt lat="37.928870" lon="-122.284000"><ele>141.4</ele></trkpt><trkpt lat="37.928570" lon="-122.283720"><ele>140.4</ele></trkpt><trkpt lat="37.928019" lon="-122.283680"><ele>139.6</ele></trkpt><trkpt lat="37.927790" lon="-122.283590"><ele>139.4</ele></trkpt><trkpt lat="37.927680" lon="-122.283490"><ele>139.3</ele></trkpt><trkpt lat="37.927330" lon="-122.283020"><ele>139.0</ele></trkpt><trkpt lat="37.927230" lon="-122.282860"><ele>139.2</ele></trkpt><trkpt lat="37.927180" lon="-122.282710"><ele>139.4</ele></trkpt><trkpt lat="37.927070" lon="-122.282570"><ele>139.5</ele></trkpt><trkpt lat="37.926900" lon="-122.282410"><ele>139.6</ele></trkpt><trkpt lat="37.926850" lon="-122.282330"><ele>139.6</ele></trkpt><trkpt lat="37.926720" lon="-122.282060"><ele>139.6</ele></trkpt><trkpt lat="37.926670" lon="-122.282030"><ele>139.6</ele></trkpt><trkpt lat="37.926580" lon="-122.282010"><ele>139.2</ele></trkpt><trkpt lat="37.925720" lon="-122.281990"><ele>136.2</ele></trkpt><trkpt lat="37.925340" lon="-122.281880"><ele>135.8</ele></trkpt><trkpt lat="37.925050" lon="-122.281850"><ele>135.6</ele></trkpt><trkpt lat="37.924890" lon="-122.281730"><ele>135.7</ele></trkpt><trkpt lat="37.924550" lon="-122.281660"><ele>135.9</ele></trkpt><trkpt lat="37.924470" lon="-122.281630"><ele>136.1</ele></trkpt><trkpt lat="37.924210" lon="-122.281330"><ele>136.9</ele></trkpt><trkpt lat="37.924100" lon="-122.281130"><ele>137.5</ele></trkpt><trkpt lat="37.924040" lon="-122.281000"><ele>138.1</ele></trkpt><trkpt lat="37.924030" lon="-122.280950"><ele>138.2</ele></trkpt><trkpt lat="37.923990" lon="-122.280880"><ele>138.5</ele></trkpt><trkpt lat="37.923780" lon="-122.280690"><ele>139.7</ele></trkpt><trkpt lat="37.923730" lon="-122.280600"><ele>139.9</ele></trkpt><trkpt lat="37.923680" lon="-122.280490"><ele>140.1</ele></trkpt><trkpt lat="37.923670" lon="-122.280300"><ele>140.4</ele></trkpt><trkpt lat="37.923720" lon="-122.280070"><ele>140.8</ele></trkpt><trkpt lat="37.923750" lon="-122.279880"><ele>140.8</ele></trkpt><trkpt lat="37.923720" lon="-122.279790"><ele>140.8</ele></trkpt><trkpt lat="37.923680" lon="-122.279730"><ele>140.8</ele></trkpt><trkpt lat="37.923590" lon="-122.279730"><ele>140.8</ele></trkpt><trkpt lat="37.923400" lon="-122.279830"><ele>140.8</ele></trkpt><trkpt lat="37.923260" lon="-122.279880"><ele>140.6</ele></trkpt><trkpt lat="37.923120" lon="-122.279870"><ele>140.4</ele></trkpt><trkpt lat="37.922910" lon="-122.279820"><ele>140.2</ele></trkpt><trkpt lat="37.922530" lon="-122.279570"><ele>139.2</ele></trkpt><trkpt lat="37.922220" lon="-122.279240"><ele>139.0</ele></trkpt><trkpt lat="37.921870" lon="-122.279200"><ele>139.1</ele></trkpt><trkpt lat="37.921780" lon="-122.279160"><ele>139.2</ele></trkpt><trkpt lat="37.921610" lon="-122.279030"><ele>139.4</ele></trkpt><trkpt lat="37.921200" lon="-122.278820"><ele>140.5</ele></trkpt><trkpt lat="37.921090" lon="-122.278710"><ele>140.9</ele></trkpt><trkpt lat="37.920730" lon="-122.278250"><ele>143.3</ele></trkpt><trkpt lat="37.920570" lon="-122.277990"><ele>144.3</ele></trkpt><trkpt lat="37.920499" lon="-122.277920"><ele>144.6</ele></trkpt><trkpt lat="37.920390" lon="-122.277870"><ele>145.0</ele></trkpt><trkpt lat="37.920240" lon="-122.277850"><ele>145.5</ele></trkpt><trkpt lat="37.920170" lon="-122.277810"><ele>145.7</ele></trkpt><trkpt lat="37.920110" lon="-122.277750"><ele>145.8</ele></trkpt><trkpt lat="37.919759" lon="-122.277200"><ele>146.4</ele></trkpt><trkpt lat="37.919540" lon="-122.276960"><ele>146.5</ele></trkpt><trkpt lat="37.919400" lon="-122.276840"><ele>146.6</ele></trkpt><trkpt lat="37.919170" lon="-122.276600"><ele>146.8</ele></trkpt><trkpt lat="37.918970" lon="-122.276510"><ele>146.9</ele></trkpt><trkpt lat="37.918220" lon="-122.275900"><ele>146.7</ele></trkpt><trkpt lat="37.917750" lon="-122.275640"><ele>147.0</ele></trkpt><trkpt lat="37.917600" lon="-122.275530"><ele>147.2</ele></trkpt><trkpt lat="37.917440" lon="-122.275370"><ele>147.4</ele></trkpt><trkpt lat="37.917319" lon="-122.275160"><ele>147.6</ele></trkpt><trkpt lat="37.917140" lon="-122.274900"><ele>148.0</ele></trkpt><trkpt lat="37.917080" lon="-122.274870"><ele>148.1</ele></trkpt><trkpt lat="37.916810" lon="-122.274820"><ele>148.6</ele></trkpt><trkpt lat="37.916410" lon="-122.274530"><ele>148.9</ele></trkpt><trkpt lat="37.916289" lon="-122.274420"><ele>149.0</ele></trkpt><trkpt lat="37.916200" lon="-122.274270"><ele>149.0</ele></trkpt><trkpt lat="37.915970" lon="-122.273750"><ele>148.8</ele></trkpt><trkpt lat="37.915390" lon="-122.272630"><ele>151.2</ele></trkpt><trkpt lat="37.915330" lon="-122.272450"><ele>151.7</ele></trkpt><trkpt lat="37.915280" lon="-122.272150"><ele>152.4</ele></trkpt><trkpt lat="37.915230" lon="-122.272020"><ele>152.7</ele></trkpt><trkpt lat="37.915090" lon="-122.271830"><ele>153.3</ele></trkpt><trkpt lat="37.914790" lon="-122.271110"><ele>155.6</ele></trkpt><trkpt lat="37.913830" lon="-122.270320"><ele>157.2</ele></trkpt><trkpt lat="37.913469" lon="-122.270080"><ele>157.5</ele></trkpt><trkpt lat="37.913360" lon="-122.269950"><ele>157.7</ele></trkpt><trkpt lat="37.913280" lon="-122.269700"><ele>157.9</ele></trkpt><trkpt lat="37.913089" lon="-122.269310"><ele>157.9</ele></trkpt><trkpt lat="37.912830" lon="-122.268900"><ele>158.0</ele></trkpt><trkpt lat="37.912570" lon="-122.268590"><ele>158.7</ele></trkpt><trkpt lat="37.912340" lon="-122.268410"><ele>159.8</ele></trkpt><trkpt lat="37.912230" lon="-122.268150"><ele>160.8</ele></trkpt><trkpt lat="37.912130" lon="-122.267790"><ele>161.9</ele></trkpt><trkpt lat="37.911730" lon="-122.266910"><ele>165.1</ele></trkpt><trkpt lat="37.911610" lon="-122.266310"><ele>167.9</ele></trkpt><trkpt lat="37.911580" lon="-122.265880"><ele>170.4</ele></trkpt><trkpt lat="37.911600" lon="-122.265570"><ele>172.0</ele></trkpt><trkpt lat="37.911710" lon="-122.265140"><ele>174.1</ele></trkpt><trkpt lat="37.911960" lon="-122.264700"><ele>177.1</ele></trkpt><trkpt lat="37.912320" lon="-122.264520"><ele>179.8</ele></trkpt><trkpt lat="37.912840" lon="-122.264450"><ele>183.1</ele></trkpt><trkpt lat="37.912960" lon="-122.264370"><ele>183.9</ele></trkpt><trkpt lat="37.913020" lon="-122.264260"><ele>184.5</ele></trkpt><trkpt lat="37.913070" lon="-122.264100"><ele>185.2</ele></trkpt><trkpt lat="37.913060" lon="-122.263800"><ele>185.4</ele></trkpt><trkpt lat="37.912990" lon="-122.263630"><ele>185.5</ele></trkpt><trkpt lat="37.912950" lon="-122.263400"><ele>185.6</ele></trkpt><trkpt lat="37.912980" lon="-122.263150"><ele>185.5</ele></trkpt><trkpt lat="37.913290" lon="-122.261970"><ele>185.5</ele></trkpt><trkpt lat="37.913300" lon="-122.261640"><ele>186.0</ele></trkpt><trkpt lat="37.913270" lon="-122.261500"><ele>186.2</ele></trkpt><trkpt lat="37.913160" lon="-122.261380"><ele>186.4</ele></trkpt><trkpt lat="37.912930" lon="-122.261210"><ele>186.7</ele></trkpt><trkpt lat="37.912580" lon="-122.261240"><ele>187.2</ele></trkpt><trkpt lat="37.912190" lon="-122.261210"><ele>188.1</ele></trkpt><trkpt lat="37.911770" lon="-122.261370"><ele>189.4</ele></trkpt><trkpt lat="37.911450" lon="-122.261560"><ele>189.9</ele></trkpt><trkpt lat="37.911110" lon="-122.261970"><ele>190.1</ele></trkpt><trkpt lat="37.910660" lon="-122.262820"><ele>189.9</ele></trkpt><trkpt lat="37.910600" lon="-122.262880"><ele>189.9</ele></trkpt><trkpt lat="37.910360" lon="-122.262850"><ele>190.4</ele></trkpt><trkpt lat="37.909770" lon="-122.262550"><ele>191.7</ele></trkpt><trkpt lat="37.909320" lon="-122.262250"><ele>191.9</ele></trkpt><trkpt lat="37.909110" lon="-122.262150"><ele>191.7</ele></trkpt><trkpt lat="37.908640" lon="-122.262000"><ele>190.9</ele></trkpt><trkpt lat="37.908330" lon="-122.261990"><ele>190.7</ele></trkpt><trkpt lat="37.908000" lon="-122.262030"><ele>190.4</ele></trkpt><trkpt lat="37.907750" lon="-122.262180"><ele>189.6</ele></trkpt><trkpt lat="37.907559" lon="-122.262220"><ele>189.1</ele></trkpt><trkpt lat="37.907380" lon="-122.262180"><ele>188.2</ele></trkpt><trkpt lat="37.907120" lon="-122.262060"><ele>186.6</ele></trkpt><trkpt lat="37.906770" lon="-122.261780"><ele>183.8</ele></trkpt><trkpt lat="37.906529" lon="-122.261480"><ele>181.4</ele></trkpt><trkpt lat="37.906470" lon="-122.261370"><ele>180.7</ele></trkpt><trkpt lat="37.906350" lon="-122.261150"><ele>179.2</ele></trkpt><trkpt lat="37.906180" lon="-122.261050"><ele>178.0</ele></trkpt><trkpt lat="37.905990" lon="-122.261080"><ele>177.1</ele></trkpt><trkpt lat="37.905780" lon="-122.261250"><ele>175.9</ele></trkpt><trkpt lat="37.905690" lon="-122.261140"><ele>175.5</ele></trkpt><trkpt lat="37.905650" lon="-122.261090"><ele>175.4</ele></trkpt><trkpt lat="37.905570" lon="-122.260760"><ele>174.9</ele></trkpt><trkpt lat="37.905500" lon="-122.260660"><ele>174.7</ele></trkpt><trkpt lat="37.905230" lon="-122.260420"><ele>174.7</ele></trkpt><trkpt lat="37.905060" lon="-122.259980"><ele>175.6</ele></trkpt><trkpt lat="37.904840" lon="-122.259870"><ele>177.0</ele></trkpt><trkpt lat="37.904590" lon="-122.259570"><ele>178.7</ele></trkpt><trkpt lat="37.904220" lon="-122.259220"><ele>180.9</ele></trkpt><trkpt lat="37.904050" lon="-122.259120"><ele>182.4</ele></trkpt><trkpt lat="37.903740" lon="-122.258740"><ele>185.7</ele></trkpt><trkpt lat="37.903700" lon="-122.258590"><ele>186.7</ele></trkpt><trkpt lat="37.904080" lon="-122.257750"><ele>190.4</ele></trkpt><trkpt lat="37.904150" lon="-122.257560"><ele>191.4</ele></trkpt><trkpt lat="37.904150" lon="-122.257450"><ele>192.0</ele></trkpt><trkpt lat="37.904110" lon="-122.257110"><ele>193.7</ele></trkpt><trkpt lat="37.904030" lon="-122.256720"><ele>195.8</ele></trkpt><trkpt lat="37.903820" lon="-122.256260"><ele>197.3</ele></trkpt><trkpt lat="37.903680" lon="-122.255650"><ele>197.2</ele></trkpt><trkpt lat="37.903490" lon="-122.255450"><ele>197.8</ele></trkpt><trkpt lat="37.903310" lon="-122.255240"><ele>198.5</ele></trkpt><trkpt lat="37.903160" lon="-122.254980"><ele>199.8</ele></trkpt><trkpt lat="37.902910" lon="-122.254750"><ele>200.9</ele></trkpt><trkpt lat="37.902460" lon="-122.254440"><ele>201.4</ele></trkpt><trkpt lat="37.902270" lon="-122.254220"><ele>202.1</ele></trkpt><trkpt lat="37.901910" lon="-122.253960"><ele>203.3</ele></trkpt><trkpt lat="37.901730" lon="-122.253900"><ele>203.8</ele></trkpt><trkpt lat="37.901550" lon="-122.253880"><ele>204.2</ele></trkpt><trkpt lat="37.901359" lon="-122.253690"><ele>204.2</ele></trkpt><trkpt lat="37.901230" lon="-122.253580"><ele>204.2</ele></trkpt><trkpt lat="37.900810" lon="-122.253450"><ele>204.4</ele></trkpt><trkpt lat="37.900329" lon="-122.253360"><ele>205.3</ele></trkpt><trkpt lat="37.900080" lon="-122.253190"><ele>206.0</ele></trkpt><trkpt lat="37.899960" lon="-122.253160"><ele>206.2</ele></trkpt><trkpt lat="37.899900" lon="-122.253080"><ele>206.3</ele></trkpt><trkpt lat="37.899840" lon="-122.253060"><ele>206.4</ele></trkpt><trkpt lat="37.899740" lon="-122.253050"><ele>206.5</ele></trkpt><trkpt lat="37.899700" lon="-122.253010"><ele>206.5</ele></trkpt><trkpt lat="37.899610" lon="-122.252820"><ele>206.9</ele></trkpt><trkpt lat="37.899470" lon="-122.252730"><ele>207.4</ele></trkpt><trkpt lat="37.898960" lon="-122.252660"><ele>209.9</ele></trkpt><trkpt lat="37.899220" lon="-122.252500"><ele>212.0</ele></trkpt><trkpt lat="37.899360" lon="-122.252470"><ele>213.4</ele></trkpt><trkpt lat="37.899520" lon="-122.252490"><ele>215.1</ele></trkpt><trkpt lat="37.899690" lon="-122.252580"><ele>217.2</ele></trkpt><trkpt lat="37.899830" lon="-122.252620"><ele>218.8</ele></trkpt><trkpt lat="37.899990" lon="-122.252640"><ele>221.0</ele></trkpt><trkpt lat="37.900120" lon="-122.252610"><ele>222.8</ele></trkpt><trkpt lat="37.900380" lon="-122.252500"><ele>226.5</ele></trkpt><trkpt lat="37.900530" lon="-122.252470"><ele>228.6</ele></trkpt><trkpt lat="37.900920" lon="-122.252540"><ele>234.0</ele></trkpt><trkpt lat="37.901300" lon="-122.252500"><ele>240.1</ele></trkpt><trkpt lat="37.901440" lon="-122.252510"><ele>242.3</ele></trkpt><trkpt lat="37.901560" lon="-122.252550"><ele>244.0</ele></trkpt><trkpt lat="37.901660" lon="-122.252620"><ele>245.6</ele></trkpt><trkpt lat="37.901829" lon="-122.252790"><ele>248.5</ele></trkpt><trkpt lat="37.901890" lon="-122.252800"><ele>249.3</ele></trkpt><trkpt lat="37.901940" lon="-122.252780"><ele>250.0</ele></trkpt><trkpt lat="37.901970" lon="-122.252740"><ele>250.5</ele></trkpt><trkpt lat="37.901990" lon="-122.252680"><ele>251.1</ele></trkpt><trkpt lat="37.901990" lon="-122.252500"><ele>252.8</ele></trkpt><trkpt lat="37.901950" lon="-122.252330"><ele>254.5</ele></trkpt><trkpt lat="37.901780" lon="-122.251810"><ele>259.0</ele></trkpt><trkpt lat="37.901739" lon="-122.251550"><ele>261.1</ele></trkpt><trkpt lat="37.901780" lon="-122.251320"><ele>263.4</ele></trkpt><trkpt lat="37.901930" lon="-122.250870"><ele>268.3</ele></trkpt><trkpt lat="37.901980" lon="-122.250220"><ele>274.5</ele></trkpt><trkpt lat="37.902070" lon="-122.249720"><ele>278.4</ele></trkpt><trkpt lat="37.902070" lon="-122.249730"><ele>278.5</ele></trkpt><trkpt lat="37.902090" lon="-122.249610"><ele>279.4</ele></trkpt><trkpt lat="37.902270" lon="-122.249070"><ele>283.0</ele></trkpt><trkpt lat="37.902460" lon="-122.248760"><ele>285.2</ele></trkpt><trkpt lat="37.902650" lon="-122.248570"><ele>286.9</ele></trkpt><trkpt lat="37.902870" lon="-122.248430"><ele>288.3</ele></trkpt><trkpt lat="37.902950" lon="-122.248320"><ele>288.9</ele></trkpt><trkpt lat="37.903070" lon="-122.247980"><ele>290.3</ele></trkpt><trkpt lat="37.903220" lon="-122.247640"><ele>291.5</ele></trkpt><trkpt lat="37.903390" lon="-122.247350"><ele>292.9</ele></trkpt><trkpt lat="37.903460" lon="-122.247260"><ele>293.5</ele></trkpt><trkpt lat="37.903700" lon="-122.247060"><ele>295.2</ele></trkpt><trkpt lat="37.903780" lon="-122.246930"><ele>296.2</ele></trkpt><trkpt lat="37.903630" lon="-122.247050"><ele>297.9</ele></trkpt><trkpt lat="37.903320" lon="-122.247150"><ele>301.0</ele></trkpt><trkpt lat="37.903180" lon="-122.247240"><ele>302.4</ele></trkpt><trkpt lat="37.903080" lon="-122.247340"><ele>303.6</ele></trkpt><trkpt lat="37.902920" lon="-122.247500"><ele>305.4</ele></trkpt><trkpt lat="37.902710" lon="-122.247650"><ele>308.3</ele></trkpt><trkpt lat="37.902650" lon="-122.247750"><ele>309.5</ele></trkpt><trkpt lat="37.902580" lon="-122.247800"><ele>310.4</ele></trkpt><trkpt lat="37.902460" lon="-122.247730"><ele>312.1</ele></trkpt><trkpt lat="37.902450" lon="-122.247630"><ele>313.0</ele></trkpt><trkpt lat="37.902480" lon="-122.247530"><ele>314.0</ele></trkpt><trkpt lat="37.902620" lon="-122.247350"><ele>316.4</ele></trkpt><trkpt lat="37.902750" lon="-122.247140"><ele>318.9</ele></trkpt><trkpt lat="37.902810" lon="-122.247020"><ele>320.0</ele></trkpt><trkpt lat="37.902850" lon="-122.246910"><ele>321.0</ele></trkpt><trkpt lat="37.902870" lon="-122.246790"><ele>322.0</ele></trkpt><trkpt lat="37.902840" lon="-122.246680"><ele>323.0</ele></trkpt><trkpt lat="37.902769" lon="-122.246570"><ele>324.1</ele></trkpt><trkpt lat="37.902670" lon="-122.246540"><ele>325.6</ele></trkpt><trkpt lat="37.902570" lon="-122.246570"><ele>327.1</ele></trkpt><trkpt lat="37.902510" lon="-122.246610"><ele>328.2</ele></trkpt><trkpt lat="37.901570" lon="-122.247730"><ele>348.0</ele></trkpt><trkpt lat="37.901510" lon="-122.247770"><ele>349.1</ele></trkpt><trkpt lat="37.901440" lon="-122.247790"><ele>350.3</ele></trkpt><trkpt lat="37.901390" lon="-122.247770"><ele>351.2</ele></trkpt><trkpt lat="37.901359" lon="-122.247700"><ele>352.3</ele></trkpt><trkpt lat="37.901359" lon="-122.247620"><ele>353.4</ele></trkpt><trkpt lat="37.901390" lon="-122.247420"><ele>356.3</ele></trkpt><trkpt lat="37.901640" lon="-122.246810"><ele>366.1</ele></trkpt><trkpt lat="37.901910" lon="-122.245920"><ele>377.1</ele></trkpt><trkpt lat="37.902040" lon="-122.245380"><ele>383.7</ele></trkpt><trkpt lat="37.902209" lon="-122.244840"><ele>390.5</ele></trkpt><trkpt lat="37.902170" lon="-122.244960"><ele>392.0</ele></trkpt><trkpt lat="37.902170" lon="-122.244950"><ele>392.1</ele></trkpt><trkpt lat="37.902170" lon="-122.244960"><ele>392.2</ele></trkpt><trkpt lat="37.902299" lon="-122.244610"><ele>395.4</ele></trkpt><trkpt lat="37.902310" lon="-122.244470"><ele>396.6</ele></trkpt><trkpt lat="37.902290" lon="-122.244300"><ele>397.9</ele></trkpt><trkpt lat="37.902260" lon="-122.244180"><ele>398.2</ele></trkpt><trkpt lat="37.902060" lon="-122.243740"><ele>399.8</ele></trkpt><trkpt lat="37.901910" lon="-122.243510"><ele>400.4</ele></trkpt><trkpt lat="37.901120" lon="-122.242490"><ele>400.4</ele></trkpt><trkpt lat="37.900920" lon="-122.242250"><ele>399.9</ele></trkpt><trkpt lat="37.900799" lon="-122.242160"><ele>399.7</ele></trkpt><trkpt lat="37.900610" lon="-122.242080"><ele>399.3</ele></trkpt><trkpt lat="37.899910" lon="-122.241860"><ele>401.4</ele></trkpt><trkpt lat="37.899750" lon="-122.241760"><ele>402.7</ele></trkpt><trkpt lat="37.899060" lon="-122.241020"><ele>410.7</ele></trkpt><trkpt lat="37.898390" lon="-122.240260"><ele>419.8</ele></trkpt><trkpt lat="37.898130" lon="-122.239930"><ele>423.4</ele></trkpt><trkpt lat="37.897979" lon="-122.239460"><ele>426.9</ele></trkpt><trkpt lat="37.897810" lon="-122.238820"><ele>430.2</ele></trkpt><trkpt lat="37.897680" lon="-122.238610"><ele>431.5</ele></trkpt><trkpt lat="37.896980" lon="-122.237800"><ele>436.4</ele></trkpt><trkpt lat="37.896820" lon="-122.237640"><ele>437.5</ele></trkpt><trkpt lat="37.896440" lon="-122.237370"><ele>440.6</ele></trkpt><trkpt lat="37.896220" lon="-122.237260"><ele>442.8</ele></trkpt><trkpt lat="37.895660" lon="-122.236910"><ele>449.3</ele></trkpt><trkpt lat="37.895520" lon="-122.236810"><ele>451.2</ele></trkpt><trkpt lat="37.895440" lon="-122.236720"><ele>452.5</ele></trkpt><trkpt lat="37.895380" lon="-122.236590"><ele>454.0</ele></trkpt><trkpt lat="37.895370" lon="-122.236500"><ele>454.9</ele></trkpt><trkpt lat="37.895390" lon="-122.236400"><ele>455.9</ele></trkpt><trkpt lat="37.895440" lon="-122.236300"><ele>457.2</ele></trkpt><trkpt lat="37.895470" lon="-122.236190"><ele>458.7</ele></trkpt><trkpt lat="37.895420" lon="-122.236060"><ele>460.5</ele></trkpt><trkpt lat="37.895359" lon="-122.236040"><ele>461.5</ele></trkpt><trkpt lat="37.895200" lon="-122.236080"><ele>464.1</ele></trkpt><trkpt lat="37.895050" lon="-122.236000"><ele>467.2</ele></trkpt><trkpt lat="37.894960" lon="-122.235900"><ele>469.6</ele></trkpt><trkpt lat="37.894910" lon="-122.235820"><ele>471.3</ele></trkpt><trkpt lat="37.894840" lon="-122.235610"><ele>475.0</ele></trkpt><trkpt lat="37.894720" lon="-122.234980"><ele>483.1</ele></trkpt><trkpt lat="37.894670" lon="-122.234830"><ele>484.8</ele></trkpt><trkpt lat="37.894610" lon="-122.234730"><ele>485.8</ele></trkpt><trkpt lat="37.894100" lon="-122.234230"><ele>491.4</ele></trkpt><trkpt lat="37.893810" lon="-122.233680"><ele>493.2</ele></trkpt><trkpt lat="37.893730" lon="-122.233410"><ele>493.2</ele></trkpt><trkpt lat="37.893690" lon="-122.233310"><ele>493.1</ele></trkpt><trkpt lat="37.893610" lon="-122.233220"><ele>492.6</ele></trkpt><trkpt lat="37.893500" lon="-122.233170"><ele>492.1</ele></trkpt><trkpt lat="37.893360" lon="-122.233170"><ele>491.5</ele></trkpt><trkpt lat="37.893220" lon="-122.233210"><ele>490.8</ele></trkpt><trkpt lat="37.893110" lon="-122.233210"><ele>490.5</ele></trkpt><trkpt lat="37.893020" lon="-122.233160"><ele>490.2</ele></trkpt><trkpt lat="37.892960" lon="-122.233060"><ele>489.9</ele></trkpt><trkpt lat="37.892900" lon="-122.232860"><ele>489.4</ele></trkpt><trkpt lat="37.892900" lon="-122.232480"><ele>488.6</ele></trkpt><trkpt lat="37.892890" lon="-122.232330"><ele>488.2</ele></trkpt><trkpt lat="37.892829" lon="-122.232140"><ele>487.8</ele></trkpt><trkpt lat="37.892620" lon="-122.231650"><ele>485.9</ele></trkpt><trkpt lat="37.892550" lon="-122.231370"><ele>484.9</ele></trkpt><trkpt lat="37.892520" lon="-122.231220"><ele>484.3</ele></trkpt><trkpt lat="37.892530" lon="-122.231040"><ele>483.7</ele></trkpt><trkpt lat="37.892560" lon="-122.230790"><ele>482.7</ele></trkpt><trkpt lat="37.892560" lon="-122.230630"><ele>482.0</ele></trkpt><trkpt lat="37.892539" lon="-122.230540"><ele>481.6</ele></trkpt><trkpt lat="37.892490" lon="-122.230390"><ele>480.9</ele></trkpt><trkpt lat="37.892330" lon="-122.230130"><ele>479.1</ele></trkpt><trkpt lat="37.892290" lon="-122.230040"><ele>478.2</ele></trkpt><trkpt lat="37.892200" lon="-122.229600"><ele>474.3</ele></trkpt><trkpt lat="37.892150" lon="-122.229470"><ele>473.0</ele></trkpt><trkpt lat="37.891970" lon="-122.229230"><ele>470.1</ele></trkpt><trkpt lat="37.891950" lon="-122.229130"><ele>469.2</ele></trkpt><trkpt lat="37.891960" lon="-122.229060"><ele>468.6</ele></trkpt><trkpt lat="37.892060" lon="-122.228770"><ele>466.3</ele></trkpt><trkpt lat="37.892080" lon="-122.228680"><ele>465.7</ele></trkpt><trkpt lat="37.892069" lon="-122.228590"><ele>465.1</ele></trkpt><trkpt lat="37.891930" lon="-122.228260"><ele>462.8</ele></trkpt><trkpt lat="37.891889" lon="-122.228140"><ele>462.3</ele></trkpt><trkpt lat="37.891840" lon="-122.227800"><ele>460.9</ele></trkpt><trkpt lat="37.891800" lon="-122.227660"><ele>460.5</ele></trkpt><trkpt lat="37.891750" lon="-122.227540"><ele>460.5</ele></trkpt><trkpt lat="37.891630" lon="-122.227390"><ele>460.4</ele></trkpt><trkpt lat="37.891530" lon="-122.227330"><ele>460.3</ele></trkpt><trkpt lat="37.891280" lon="-122.227210"><ele>460.8</ele></trkpt><trkpt lat="37.891050" lon="-122.227140"><ele>461.6</ele></trkpt><trkpt lat="37.890949" lon="-122.227080"><ele>461.9</ele></trkpt><trkpt lat="37.890860" lon="-122.226950"><ele>462.8</ele></trkpt><trkpt lat="37.890690" lon="-122.226650"><ele>465.1</ele></trkpt><trkpt lat="37.890590" lon="-122.226510"><ele>466.3</ele></trkpt><trkpt lat="37.890470" lon="-122.226410"><ele>467.9</ele></trkpt><trkpt lat="37.890009" lon="-122.226220"><ele>472.9</ele></trkpt><trkpt lat="37.889620" lon="-122.225960"><ele>476.8</ele></trkpt><trkpt lat="37.889449" lon="-122.225720"><ele>479.2</ele></trkpt><trkpt lat="37.889310" lon="-122.225380"><ele>482.2</ele></trkpt><trkpt lat="37.889249" lon="-122.224860"><ele>485.5</ele></trkpt><trkpt lat="37.888970" lon="-122.224500"><ele>489.0</ele></trkpt><trkpt lat="37.888700" lon="-122.224300"><ele>492.0</ele></trkpt><trkpt lat="37.888599" lon="-122.224290"><ele>492.9</ele></trkpt><trkpt lat="37.888500" lon="-122.224330"><ele>493.8</ele></trkpt><trkpt lat="37.888030" lon="-122.224780"><ele>499.7</ele></trkpt><trkpt lat="37.887930" lon="-122.224820"><ele>500.8</ele></trkpt><trkpt lat="37.887730" lon="-122.224800"><ele>503.0</ele></trkpt><trkpt lat="37.887350" lon="-122.224500"><ele>508.1</ele></trkpt><trkpt lat="37.886880" lon="-122.224210"><ele>514.1</ele></trkpt><trkpt lat="37.886510" lon="-122.223980"><ele>518.2</ele></trkpt><trkpt lat="37.886290" lon="-122.223910"><ele>520.4</ele></trkpt><trkpt lat="37.886050" lon="-122.223910"><ele>522.8</ele></trkpt><trkpt lat="37.885760" lon="-122.223990"><ele>525.9</ele></trkpt><trkpt lat="37.885480" lon="-122.224150"><ele>529.4</ele></trkpt><trkpt lat="37.885350" lon="-122.224150"><ele>530.9</ele></trkpt><trkpt lat="37.885210" lon="-122.224090"><ele>532.5</ele></trkpt><trkpt lat="37.885110" lon="-122.223980"><ele>534.0</ele></trkpt><trkpt lat="37.884760" lon="-122.223010"><ele>541.7</ele></trkpt><trkpt lat="37.884600" lon="-122.222430"><ele>546.9</ele></trkpt><trkpt lat="37.884490" lon="-122.222170"><ele>549.0</ele></trkpt><trkpt lat="37.883980" lon="-122.221220"><ele>554.6</ele></trkpt><trkpt lat="37.883850" lon="-122.221080"><ele>554.7</ele></trkpt><trkpt lat="37.883670" lon="-122.220980"><ele>554.7</ele></trkpt><trkpt lat="37.883240" lon="-122.220980"><ele>554.6</ele></trkpt><trkpt lat="37.882930" lon="-122.221020"><ele>554.4</ele></trkpt><trkpt lat="37.882399" lon="-122.221290"><ele>549.5</ele></trkpt><trkpt lat="37.882250" lon="-122.221340"><ele>547.8</ele></trkpt><trkpt lat="37.882240" lon="-122.221340"><ele>547.7</ele></trkpt><trkpt lat="37.882070" lon="-122.221410"><ele>545.7</ele></trkpt><trkpt lat="37.881910" lon="-122.221370"><ele>543.8</ele></trkpt><trkpt lat="37.881430" lon="-122.220960"><ele>536.1</ele></trkpt><trkpt lat="37.881200" lon="-122.220820"><ele>533.7</ele></trkpt><trkpt lat="37.880850" lon="-122.220710"><ele>530.6</ele></trkpt><trkpt lat="37.880719" lon="-122.220710"><ele>529.8</ele></trkpt><trkpt lat="37.880660" lon="-122.220750"><ele>529.4</ele></trkpt><trkpt lat="37.880640" lon="-122.220840"><ele>529.0</ele></trkpt><trkpt lat="37.880640" lon="-122.220910"><ele>528.6</ele></trkpt><trkpt lat="37.880710" lon="-122.221010"><ele>527.9</ele></trkpt><trkpt lat="37.881100" lon="-122.221090"><ele>525.9</ele></trkpt><trkpt lat="37.881240" lon="-122.221170"><ele>525.2</ele></trkpt><trkpt lat="37.881330" lon="-122.221270"><ele>524.7</ele></trkpt><trkpt lat="37.881580" lon="-122.221620"><ele>523.2</ele></trkpt><trkpt lat="37.881810" lon="-122.221820"><ele>522.0</ele></trkpt><trkpt lat="37.881990" lon="-122.221950"><ele>521.1</ele></trkpt><trkpt lat="37.882060" lon="-122.222040"><ele>520.6</ele></trkpt><trkpt lat="37.882060" lon="-122.222130"><ele>520.0</ele></trkpt><trkpt lat="37.881960" lon="-122.222290"><ele>518.7</ele></trkpt><trkpt lat="37.881880" lon="-122.222310"><ele>518.0</ele></trkpt><trkpt lat="37.881160" lon="-122.222100"><ele>511.4</ele></trkpt><trkpt lat="37.880960" lon="-122.222000"><ele>509.7</ele></trkpt><trkpt lat="37.880760" lon="-122.221960"><ele>508.2</ele></trkpt><trkpt lat="37.880620" lon="-122.221950"><ele>507.1</ele></trkpt><trkpt lat="37.880190" lon="-122.221850"><ele>504.5</ele></trkpt><trkpt lat="37.879959" lon="-122.221720"><ele>503.3</ele></trkpt><trkpt lat="37.879880" lon="-122.221650"><ele>502.8</ele></trkpt><trkpt lat="37.879830" lon="-122.221560"><ele>502.4</ele></trkpt><trkpt lat="37.879570" lon="-122.221790"><ele>501.0</ele></trkpt><trkpt lat="37.879420" lon="-122.221640"><ele>500.1</ele></trkpt><trkpt lat="37.879210" lon="-122.221540"><ele>499.1</ele></trkpt><trkpt lat="37.878650" lon="-122.221410"><ele>496.9</ele></trkpt><trkpt lat="37.878480" lon="-122.221340"><ele>496.2</ele></trkpt><trkpt lat="37.878350" lon="-122.221220"><ele>495.5</ele></trkpt><trkpt lat="37.878080" lon="-122.220860"><ele>494.1</ele></trkpt><trkpt lat="37.877809" lon="-122.220530"><ele>492.8</ele></trkpt><trkpt lat="37.877650" lon="-122.220460"><ele>492.0</ele></trkpt><trkpt lat="37.877080" lon="-122.220430"><ele>489.8</ele></trkpt><trkpt lat="37.876680" lon="-122.220230"><ele>488.7</ele></trkpt><trkpt lat="37.876540" lon="-122.220240"><ele>488.4</ele></trkpt><trkpt lat="37.876420" lon="-122.220290"><ele>488.1</ele></trkpt><trkpt lat="37.876320" lon="-122.220370"><ele>487.8</ele></trkpt><trkpt lat="37.876210" lon="-122.220510"><ele>487.3</ele></trkpt><trkpt lat="37.875790" lon="-122.221180"><ele>484.2</ele></trkpt><trkpt lat="37.875540" lon="-122.221560"><ele>482.1</ele></trkpt><trkpt lat="37.875420" lon="-122.221710"><ele>481.2</ele></trkpt><trkpt lat="37.875290" lon="-122.221790"><ele>480.5</ele></trkpt><trkpt lat="37.875050" lon="-122.221820"><ele>479.2</ele></trkpt><trkpt lat="37.874660" lon="-122.221650"><ele>476.6</ele></trkpt><trkpt lat="37.874400" lon="-122.221600"><ele>474.9</ele></trkpt><trkpt lat="37.874310" lon="-122.221550"><ele>474.2</ele></trkpt><trkpt lat="37.874230" lon="-122.221440"><ele>473.4</ele></trkpt><trkpt lat="37.874010" lon="-122.221040"><ele>471.0</ele></trkpt><trkpt lat="37.873920" lon="-122.220920"><ele>470.2</ele></trkpt><trkpt lat="37.873830" lon="-122.220850"><ele>469.5</ele></trkpt><trkpt lat="37.873620" lon="-122.220770"><ele>468.0</ele></trkpt><trkpt lat="37.873410" lon="-122.220750"><ele>466.6</ele></trkpt><trkpt lat="37.872860" lon="-122.220730"><ele>462.9</ele></trkpt><trkpt lat="37.872670" lon="-122.220690"><ele>461.7</ele></trkpt><trkpt lat="37.872520" lon="-122.220630"><ele>460.8</ele></trkpt><trkpt lat="37.872400" lon="-122.220530"><ele>460.0</ele></trkpt><trkpt lat="37.872320" lon="-122.220410"><ele>459.3</ele></trkpt><trkpt lat="37.872280" lon="-122.220290"><ele>458.7</ele></trkpt><trkpt lat="37.872280" lon="-122.220190"><ele>458.3</ele></trkpt><trkpt lat="37.872390" lon="-122.219600"><ele>455.5</ele></trkpt><trkpt lat="37.872400" lon="-122.219480"><ele>454.8</ele></trkpt><trkpt lat="37.872380" lon="-122.219370"><ele>454.2</ele></trkpt><trkpt lat="37.872330" lon="-122.219280"><ele>453.6</ele></trkpt><trkpt lat="37.871630" lon="-122.218610"><ele>448.8</ele></trkpt><trkpt lat="37.871560" lon="-122.218570"><ele>448.3</ele></trkpt><trkpt lat="37.871470" lon="-122.218570"><ele>447.7</ele></trkpt><trkpt lat="37.871370" lon="-122.218610"><ele>447.1</ele></trkpt><trkpt lat="37.870990" lon="-122.218840"><ele>443.9</ele></trkpt><trkpt lat="37.870900" lon="-122.218870"><ele>443.2</ele></trkpt><trkpt lat="37.870780" lon="-122.218860"><ele>442.3</ele></trkpt><trkpt lat="37.870690" lon="-122.218830"><ele>441.6</ele></trkpt><trkpt lat="37.870410" lon="-122.218560"><ele>439.2</ele></trkpt><trkpt lat="37.870019" lon="-122.218120"><ele>435.5</ele></trkpt><trkpt lat="37.869710" lon="-122.217720"><ele>431.3</ele></trkpt><trkpt lat="37.869270" lon="-122.217230"><ele>425.3</ele></trkpt><trkpt lat="37.869140" lon="-122.217150"><ele>423.9</ele></trkpt><trkpt lat="37.868810" lon="-122.216970"><ele>420.5</ele></trkpt><trkpt lat="37.868609" lon="-122.216840"><ele>418.3</ele></trkpt><trkpt lat="37.868510" lon="-122.216700"><ele>417.0</ele></trkpt><trkpt lat="37.868350" lon="-122.216340"><ele>414.1</ele></trkpt><trkpt lat="37.868280" lon="-122.216210"><ele>413.0</ele></trkpt><trkpt lat="37.868190" lon="-122.216140"><ele>412.1</ele></trkpt><trkpt lat="37.868090" lon="-122.216130"><ele>411.3</ele></trkpt><trkpt lat="37.868010" lon="-122.216140"><ele>410.6</ele></trkpt><trkpt lat="37.867910" lon="-122.216210"><ele>409.6</ele></trkpt><trkpt lat="37.867860" lon="-122.216300"><ele>408.9</ele></trkpt><trkpt lat="37.867830" lon="-122.216400"><ele>408.3</ele></trkpt><trkpt lat="37.867840" lon="-122.216530"><ele>407.6</ele></trkpt><trkpt lat="37.867880" lon="-122.216660"><ele>406.8</ele></trkpt><trkpt lat="37.867970" lon="-122.216800"><ele>405.8</ele></trkpt><trkpt lat="37.868200" lon="-122.217050"><ele>403.8</ele></trkpt><trkpt lat="37.868280" lon="-122.217170"><ele>403.0</ele></trkpt><trkpt lat="37.868340" lon="-122.217290"><ele>402.2</ele></trkpt><trkpt lat="37.868390" lon="-122.217510"><ele>400.9</ele></trkpt><trkpt lat="37.868390" lon="-122.217610"><ele>400.2</ele></trkpt><trkpt lat="37.868350" lon="-122.217850"><ele>398.6</ele></trkpt><trkpt lat="37.868010" lon="-122.217860"><ele>395.4</ele></trkpt><trkpt lat="37.867900" lon="-122.217900"><ele>394.2</ele></trkpt><trkpt lat="37.867320" lon="-122.218270"><ele>386.6</ele></trkpt><trkpt lat="37.866980" lon="-122.218420"><ele>382.1</ele></trkpt><trkpt lat="37.866800" lon="-122.218470"><ele>379.9</ele></trkpt><trkpt lat="37.866540" lon="-122.218490"><ele>376.6</ele></trkpt><trkpt lat="37.866290" lon="-122.218450"><ele>373.2</ele></trkpt><trkpt lat="37.865920" lon="-122.218280"><ele>368.6</ele></trkpt><trkpt lat="37.865360" lon="-122.217980"><ele>362.5</ele></trkpt><trkpt lat="37.864920" lon="-122.217610"><ele>357.2</ele></trkpt><trkpt lat="37.864660" lon="-122.217460"><ele>354.4</ele></trkpt><trkpt lat="37.864260" lon="-122.217330"><ele>350.4</ele></trkpt><trkpt lat="37.864120" lon="-122.217270"><ele>349.0</ele></trkpt><trkpt lat="37.863990" lon="-122.217180"><ele>347.5</ele></trkpt><trkpt lat="37.863880" lon="-122.217060"><ele>346.0</ele></trkpt><trkpt lat="37.863729" lon="-122.216810"><ele>343.5</ele></trkpt><trkpt lat="37.863530" lon="-122.216220"><ele>337.6</ele></trkpt><trkpt lat="37.863280" lon="-122.215710"><ele>332.9</ele></trkpt><trkpt lat="37.862810" lon="-122.214950"><ele>324.9</ele></trkpt><trkpt lat="37.862370" lon="-122.214120"><ele>316.8</ele></trkpt><trkpt lat="37.862020" lon="-122.213640"><ele>312.2</ele></trkpt><trkpt lat="37.861860" lon="-122.213380"><ele>309.9</ele></trkpt><trkpt lat="37.861740" lon="-122.212730"><ele>304.0</ele></trkpt><trkpt lat="37.861690" lon="-122.212570"><ele>302.7</ele></trkpt><trkpt lat="37.861340" lon="-122.211680"><ele>294.9</ele></trkpt><trkpt lat="37.861310" lon="-122.211530"><ele>293.7</ele></trkpt><trkpt lat="37.861370" lon="-122.210760"><ele>287.2</ele></trkpt><trkpt lat="37.861360" lon="-122.210580"><ele>286.0</ele></trkpt><trkpt lat="37.861280" lon="-122.210140"><ele>283.0</ele></trkpt><trkpt lat="37.861090" lon="-122.209460"><ele>280.4</ele></trkpt><trkpt lat="37.861080" lon="-122.209380"><ele>280.4</ele></trkpt><trkpt lat="37.861109" lon="-122.209280"><ele>280.4</ele></trkpt><trkpt lat="37.860770" lon="-122.209230"><ele>280.5</ele></trkpt><trkpt lat="37.860380" lon="-122.209110"><ele>281.9</ele></trkpt><trkpt lat="37.859670" lon="-122.208740"><ele>286.1</ele></trkpt><trkpt lat="37.859139" lon="-122.208580"><ele>289.0</ele></trkpt><trkpt lat="37.858880" lon="-122.208520"><ele>290.7</ele></trkpt><trkpt lat="37.858460" lon="-122.208450"><ele>292.5</ele></trkpt><trkpt lat="37.858220" lon="-122.208370"><ele>293.4</ele></trkpt><trkpt lat="37.858060" lon="-122.208260"><ele>293.8</ele></trkpt><trkpt lat="37.857900" lon="-122.208050"><ele>294.1</ele></trkpt><trkpt lat="37.857760" lon="-122.207910"><ele>294.5</ele></trkpt><trkpt lat="37.857640" lon="-122.207820"><ele>294.8</ele></trkpt><trkpt lat="37.857320" lon="-122.207690"><ele>295.5</ele></trkpt><trkpt lat="37.857150" lon="-122.207580"><ele>296.7</ele></trkpt><trkpt lat="37.857000" lon="-122.207430"><ele>298.3</ele></trkpt><trkpt lat="37.856510" lon="-122.206860"><ele>302.4</ele></trkpt><trkpt lat="37.855650" lon="-122.205590"><ele>313.9</ele></trkpt><trkpt lat="37.855200" lon="-122.204800"><ele>321.9</ele></trkpt><trkpt lat="37.855100" lon="-122.204570"><ele>323.9</ele></trkpt><trkpt lat="37.855030" lon="-122.204360"><ele>325.9</ele></trkpt><trkpt lat="37.854909" lon="-122.203880"><ele>330.5</ele></trkpt><trkpt lat="37.854880" lon="-122.203740"><ele>331.9</ele></trkpt><trkpt lat="37.854880" lon="-122.203400"><ele>335.1</ele></trkpt><trkpt lat="37.854920" lon="-122.203240"><ele>337.1</ele></trkpt><trkpt lat="37.854999" lon="-122.203110"><ele>339.5</ele></trkpt><trkpt lat="37.855110" lon="-122.203020"><ele>342.0</ele></trkpt><trkpt lat="37.855310" lon="-122.202930"><ele>346.0</ele></trkpt><trkpt lat="37.855480" lon="-122.202880"><ele>348.3</ele></trkpt><trkpt lat="37.855780" lon="-122.202860"><ele>352.3</ele></trkpt><trkpt lat="37.856770" lon="-122.202820"><ele>366.3</ele></trkpt><trkpt lat="37.856990" lon="-122.202730"><ele>369.8</ele></trkpt><trkpt lat="37.857180" lon="-122.202620"><ele>372.8</ele></trkpt><trkpt lat="37.857529" lon="-122.202330"><ele>377.7</ele></trkpt><trkpt lat="37.857520" lon="-122.202330"><ele>377.8</ele></trkpt><trkpt lat="37.857750" lon="-122.202080"><ele>379.8</ele></trkpt><trkpt lat="37.857840" lon="-122.201930"><ele>381.3</ele></trkpt><trkpt lat="37.857870" lon="-122.201830"><ele>382.4</ele></trkpt><trkpt lat="37.857880" lon="-122.201570"><ele>385.2</ele></trkpt><trkpt lat="37.857909" lon="-122.201510"><ele>386.0</ele></trkpt><trkpt lat="37.858010" lon="-122.201470"><ele>387.4</ele></trkpt><trkpt lat="37.858060" lon="-122.201500"><ele>388.0</ele></trkpt><trkpt lat="37.858100" lon="-122.201560"><ele>388.5</ele></trkpt><trkpt lat="37.858150" lon="-122.201880"><ele>390.7</ele></trkpt><trkpt lat="37.858180" lon="-122.201930"><ele>391.1</ele></trkpt><trkpt lat="37.858230" lon="-122.201950"><ele>391.5</ele></trkpt><trkpt lat="37.858280" lon="-122.201920"><ele>392.0</ele></trkpt><trkpt lat="37.858320" lon="-122.201860"><ele>392.5</ele></trkpt><trkpt lat="37.858330" lon="-122.201510"><ele>395.2</ele></trkpt><trkpt lat="37.858360" lon="-122.201450"><ele>395.7</ele></trkpt><trkpt lat="37.858410" lon="-122.201420"><ele>396.3</ele></trkpt><trkpt lat="37.858469" lon="-122.201440"><ele>396.8</ele></trkpt><trkpt lat="37.858500" lon="-122.201540"><ele>397.7</ele></trkpt><trkpt lat="37.858490" lon="-122.202020"><ele>401.1</ele></trkpt><trkpt lat="37.858410" lon="-122.202450"><ele>404.2</ele></trkpt><trkpt lat="37.858330" lon="-122.202670"><ele>405.8</ele></trkpt><trkpt lat="37.858300" lon="-122.202970"><ele>407.3</ele></trkpt><trkpt lat="37.858310" lon="-122.203170"><ele>407.9</ele></trkpt><trkpt lat="37.858379" lon="-122.203340"><ele>408.5</ele></trkpt><trkpt lat="37.858450" lon="-122.203390"><ele>408.8</ele></trkpt><trkpt lat="37.858720" lon="-122.203460"><ele>410.3</ele></trkpt><trkpt lat="37.858840" lon="-122.203460"><ele>411.0</ele></trkpt><trkpt lat="37.858990" lon="-122.203400"><ele>411.9</ele></trkpt><trkpt lat="37.859310" lon="-122.203220"><ele>414.4</ele></trkpt><trkpt lat="37.859340" lon="-122.203170"><ele>414.8</ele></trkpt><trkpt lat="37.859350" lon="-122.203100"><ele>415.2</ele></trkpt><trkpt lat="37.859300" lon="-122.202930"><ele>416.3</ele></trkpt><trkpt lat="37.859090" lon="-122.202600"><ele>419.4</ele></trkpt><trkpt lat="37.859030" lon="-122.202330"><ele>421.5</ele></trkpt><trkpt lat="37.859010" lon="-122.202000"><ele>424.1</ele></trkpt><trkpt lat="37.859040" lon="-122.201680"><ele>426.6</ele></trkpt><trkpt lat="37.859120" lon="-122.201320"><ele>431.1</ele></trkpt><trkpt lat="37.859139" lon="-122.201200"><ele>432.6</ele></trkpt><trkpt lat="37.859139" lon="-122.200940"><ele>435.5</ele></trkpt><trkpt lat="37.859120" lon="-122.200670"><ele>437.9</ele></trkpt><trkpt lat="37.859090" lon="-122.200530"><ele>439.2</ele></trkpt><trkpt lat="37.858849" lon="-122.199810"><ele>444.2</ele></trkpt><trkpt lat="37.858400" lon="-122.199810"><ele>446.7</ele></trkpt><trkpt lat="37.858320" lon="-122.199790"><ele>447.1</ele></trkpt><trkpt lat="37.858230" lon="-122.199750"><ele>447.5</ele></trkpt><trkpt lat="37.858090" lon="-122.199650"><ele>448.1</ele></trkpt><trkpt lat="37.858030" lon="-122.199570"><ele>448.4</ele></trkpt><trkpt lat="37.857940" lon="-122.199400"><ele>448.9</ele></trkpt><trkpt lat="37.857850" lon="-122.199170"><ele>449.3</ele></trkpt><trkpt lat="37.857830" lon="-122.199030"><ele>449.4</ele></trkpt><trkpt lat="37.857840" lon="-122.198550"><ele>449.6</ele></trkpt><trkpt lat="37.857830" lon="-122.198400"><ele>449.9</ele></trkpt><trkpt lat="37.857800" lon="-122.198310"><ele>450.0</ele></trkpt><trkpt lat="37.857770" lon="-122.198280"><ele>450.0</ele></trkpt><trkpt lat="37.857690" lon="-122.198260"><ele>450.2</ele></trkpt><trkpt lat="37.857550" lon="-122.198170"><ele>450.5</ele></trkpt><trkpt lat="37.857470" lon="-122.198070"><ele>450.5</ele></trkpt><trkpt lat="37.857310" lon="-122.197810"><ele>450.7</ele></trkpt><trkpt lat="37.857150" lon="-122.197660"><ele>450.8</ele></trkpt><trkpt lat="37.857060" lon="-122.197530"><ele>450.8</ele></trkpt><trkpt lat="37.856960" lon="-122.197120"><ele>450.8</ele></trkpt><trkpt lat="37.856900" lon="-122.196970"><ele>450.7</ele></trkpt><trkpt lat="37.856800" lon="-122.196850"><ele>450.6</ele></trkpt><trkpt lat="37.856490" lon="-122.196650"><ele>450.2</ele></trkpt><trkpt lat="37.856250" lon="-122.196420"><ele>449.8</ele></trkpt><trkpt lat="37.856150" lon="-122.196280"><ele>449.7</ele></trkpt><trkpt lat="37.856070" lon="-122.196080"><ele>449.6</ele></trkpt><trkpt lat="37.856040" lon="-122.195850"><ele>449.7</ele></trkpt><trkpt lat="37.856029" lon="-122.195190"><ele>450.2</ele></trkpt><trkpt lat="37.855960" lon="-122.194920"><ele>450.4</ele></trkpt><trkpt lat="37.855550" lon="-122.194440"><ele>451.1</ele></trkpt><trkpt lat="37.855490" lon="-122.194230"><ele>451.8</ele></trkpt><trkpt lat="37.855350" lon="-122.194010"><ele>452.8</ele></trkpt><trkpt lat="37.855150" lon="-122.193810"><ele>453.9</ele></trkpt><trkpt lat="37.854760" lon="-122.193490"><ele>455.7</ele></trkpt><trkpt lat="37.854439" lon="-122.193180"><ele>457.1</ele></trkpt><trkpt lat="37.854330" lon="-122.193050"><ele>457.5</ele></trkpt><trkpt lat="37.853879" lon="-122.192380"><ele>457.7</ele></trkpt><trkpt lat="37.853630" lon="-122.192250"><ele>457.1</ele></trkpt><trkpt lat="37.853490" lon="-122.192230"><ele>456.6</ele></trkpt><trkpt lat="37.853360" lon="-122.192270"><ele>455.7</ele></trkpt><trkpt lat="37.853260" lon="-122.192350"><ele>454.9</ele></trkpt><trkpt lat="37.852980" lon="-122.192680"><ele>452.6</ele></trkpt><trkpt lat="37.852820" lon="-122.192930"><ele>451.5</ele></trkpt><trkpt lat="37.852670" lon="-122.193240"><ele>450.4</ele></trkpt><trkpt lat="37.852510" lon="-122.193670"><ele>449.3</ele></trkpt><trkpt lat="37.852230" lon="-122.194560"><ele>448.9</ele></trkpt><trkpt lat="37.851970" lon="-122.195210"><ele>449.5</ele></trkpt><trkpt lat="37.851740" lon="-122.195360"><ele>449.8</ele></trkpt><trkpt lat="37.851250" lon="-122.195500"><ele>450.4</ele></trkpt><trkpt lat="37.850879" lon="-122.195550"><ele>450.3</ele></trkpt><trkpt lat="37.850760" lon="-122.195630"><ele>450.3</ele></trkpt><trkpt lat="37.850700" lon="-122.195700"><ele>450.2</ele></trkpt><trkpt lat="37.850650" lon="-122.195780"><ele>450.2</ele></trkpt><trkpt lat="37.850540" lon="-122.195880"><ele>450.2</ele></trkpt><trkpt lat="37.850409" lon="-122.195940"><ele>450.2</ele></trkpt><trkpt lat="37.850210" lon="-122.195980"><ele>450.2</ele></trkpt></trkseg></trk>
</gpx>