<?xml version="1.0" encoding="UTF-8"?>
<gpx version="1.1" creator="north-bay-planning" xmlns="http://www.topografix.com/GPX/1/1">
<metadata><name>Fri Oct 23 Bicentennial to Pantoll</name><desc>Fri Oct 23 Bicentennial to Pantoll</desc></metadata>
<wpt lat="37.824620" lon="-122.526580"><name>Night 1 Bicentennial site 02</name><desc>Booked.</desc></wpt>
<wpt lat="37.903820" lon="-122.603640"><name>Night 2 Pantoll hike-and-bike</name><desc>Walk-up.</desc></wpt>
<wpt lat="38.018280" lon="-122.733140"><name>Night 3 Samuel P. Taylor hike-and-bike</name><desc>Walk-up.</desc></wpt>
<wpt lat="37.860800" lon="-122.545820"><name>Night 4 Haypress</name><desc>Reserve on recreation.gov.</desc></wpt>
<trk><name>Fri Oct 23 Bicentennial to Pantoll</name><trkseg><trkpt lat="37.824609" lon="-122.526759"><ele>66.1</ele></trkpt><trkpt lat="37.824693" lon="-122.527064"><ele>65.0</ele></trkpt><trkpt lat="37.824837" lon="-122.527174"><ele>64.2</ele></trkpt><trkpt lat="37.824967" lon="-122.527249"><ele>63.6</ele></trkpt><trkpt lat="37.825119" lon="-122.527257"><ele>63.3</ele></trkpt><trkpt lat="37.825265" lon="-122.527192"><ele>63.0</ele></trkpt><trkpt lat="37.825418" lon="-122.527072"><ele>62.6</ele></trkpt><trkpt lat="37.825512" lon="-122.527048"><ele>62.2</ele></trkpt><trkpt lat="37.825546" lon="-122.526998"><ele>62.0</ele></trkpt><trkpt lat="37.825911" lon="-122.526546"><ele>59.8</ele></trkpt><trkpt lat="37.825955" lon="-122.526482"><ele>59.4</ele></trkpt><trkpt lat="37.826000" lon="-122.526412"><ele>59.0</ele></trkpt><trkpt lat="37.826149" lon="-122.526167"><ele>57.4</ele></trkpt><trkpt lat="37.826198" lon="-122.526113"><ele>57.0</ele></trkpt><trkpt lat="37.826284" lon="-122.526059"><ele>56.6</ele></trkpt><trkpt lat="37.826320" lon="-122.526120"><ele>56.4</ele></trkpt><trkpt lat="37.826562" lon="-122.526435"><ele>55.0</ele></trkpt><trkpt lat="37.826614" lon="-122.526506"><ele>54.8</ele></trkpt><trkpt lat="37.826946" lon="-122.526419"><ele>54.0</ele></trkpt><trkpt lat="37.827224" lon="-122.526351"><ele>53.2</ele></trkpt><trkpt lat="37.827503" lon="-122.526279"><ele>51.9</ele></trkpt><trkpt lat="37.827764" lon="-122.526210"><ele>50.7</ele></trkpt><trkpt lat="37.827869" lon="-122.526193"><ele>50.2</ele></trkpt><trkpt lat="37.827941" lon="-122.526196"><ele>49.9</ele></trkpt><trkpt lat="37.828012" lon="-122.526214"><ele>49.5</ele></trkpt><trkpt lat="37.828096" lon="-122.526258"><ele>49.1</ele></trkpt><trkpt lat="37.828169" lon="-122.526324"><ele>48.6</ele></trkpt><trkpt lat="37.828238" lon="-122.526417"><ele>47.3</ele></trkpt><trkpt lat="37.828408" lon="-122.526690"><ele>43.8</ele></trkpt><trkpt lat="37.828475" lon="-122.526782"><ele>42.6</ele></trkpt><trkpt lat="37.828549" lon="-122.526866"><ele>41.3</ele></trkpt><trkpt lat="37.828629" lon="-122.526952"><ele>40.0</ele></trkpt><trkpt lat="37.828825" lon="-122.527145"><ele>36.9</ele></trkpt><trkpt lat="37.828922" lon="-122.527253"><ele>35.3</ele></trkpt><trkpt lat="37.828989" lon="-122.527348"><ele>34.3</ele></trkpt><trkpt lat="37.829035" lon="-122.527433"><ele>33.5</ele></trkpt><trkpt lat="37.829061" lon="-122.527498"><ele>32.9</ele></trkpt><trkpt lat="37.829123" lon="-122.527667"><ele>31.5</ele></trkpt><trkpt lat="37.829173" lon="-122.527797"><ele>30.4</ele></trkpt><trkpt lat="37.829239" lon="-122.527899"><ele>29.0</ele></trkpt><trkpt lat="37.829316" lon="-122.527967"><ele>27.5</ele></trkpt><trkpt lat="37.829398" lon="-122.528010"><ele>26.0</ele></trkpt><trkpt lat="37.829491" lon="-122.528024"><ele>24.5</ele></trkpt><trkpt lat="37.829582" lon="-122.528010"><ele>23.0</ele></trkpt><trkpt lat="37.829653" lon="-122.527974"><ele>21.7</ele></trkpt><trkpt lat="37.829731" lon="-122.527904"><ele>20.3</ele></trkpt><trkpt lat="37.829790" lon="-122.527820"><ele>19.0</ele></trkpt><trkpt lat="37.829838" lon="-122.527714"><ele>17.6</ele></trkpt><trkpt lat="37.829987" lon="-122.527253"><ele>12.9</ele></trkpt><trkpt lat="37.830179" lon="-122.526669"><ele>11.9</ele></trkpt><trkpt lat="37.830391" lon="-122.526029"><ele>11.3</ele></trkpt><trkpt lat="37.830442" lon="-122.525865"><ele>10.7</ele></trkpt><trkpt lat="37.830480" lon="-122.525704"><ele>10.1</ele></trkpt><trkpt lat="37.830504" lon="-122.525542"><ele>9.5</ele></trkpt><trkpt lat="37.830514" lon="-122.525392"><ele>9.3</ele></trkpt><trkpt lat="37.830516" lon="-122.525236"><ele>9.8</ele></trkpt><trkpt lat="37.830507" lon="-122.525115"><ele>10.3</ele></trkpt><trkpt lat="37.830461" lon="-122.524813"><ele>11.4</ele></trkpt><trkpt lat="37.830447" lon="-122.524700"><ele>11.6</ele></trkpt><trkpt lat="37.830441" lon="-122.524611"><ele>11.6</ele></trkpt><trkpt lat="37.830438" lon="-122.524382"><ele>11.8</ele></trkpt><trkpt lat="37.830438" lon="-122.524350"><ele>11.8</ele></trkpt><trkpt lat="37.830436" lon="-122.523990"><ele>11.8</ele></trkpt><trkpt lat="37.830441" lon="-122.523854"><ele>11.6</ele></trkpt><trkpt lat="37.830457" lon="-122.523730"><ele>11.4</ele></trkpt><trkpt lat="37.830488" lon="-122.523620"><ele>11.3</ele></trkpt><trkpt lat="37.830524" lon="-122.523532"><ele>11.1</ele></trkpt><trkpt lat="37.830574" lon="-122.523443"><ele>11.0</ele></trkpt><trkpt lat="37.830627" lon="-122.523376"><ele>10.7</ele></trkpt><trkpt lat="37.830691" lon="-122.523313"><ele>10.5</ele></trkpt><trkpt lat="37.830752" lon="-122.523267"><ele>10.2</ele></trkpt><trkpt lat="37.830810" lon="-122.523235"><ele>10.0</ele></trkpt><trkpt lat="37.830868" lon="-122.523211"><ele>9.8</ele></trkpt><trkpt lat="37.830938" lon="-122.523197"><ele>9.6</ele></trkpt><trkpt lat="37.831001" lon="-122.523193"><ele>9.4</ele></trkpt><trkpt lat="37.831058" lon="-122.523199"><ele>9.2</ele></trkpt><trkpt lat="37.831107" lon="-122.523214"><ele>9.0</ele></trkpt><trkpt lat="37.831144" lon="-122.523232"><ele>9.0</ele></trkpt><trkpt lat="37.831182" lon="-122.523253"><ele>8.9</ele></trkpt><trkpt lat="37.831220" lon="-122.523277"><ele>8.8</ele></trkpt><trkpt lat="37.831316" lon="-122.523350"><ele>8.5</ele></trkpt><trkpt lat="37.831381" lon="-122.523411"><ele>8.3</ele></trkpt><trkpt lat="37.831437" lon="-122.523324"><ele>8.1</ele></trkpt><trkpt lat="37.831494" lon="-122.523255"><ele>8.0</ele></trkpt><trkpt lat="37.831568" lon="-122.523175"><ele>7.8</ele></trkpt><trkpt lat="37.831651" lon="-122.523107"><ele>7.6</ele></trkpt><trkpt lat="37.831748" lon="-122.523044"><ele>7.4</ele></trkpt><trkpt lat="37.831857" lon="-122.522990"><ele>7.2</ele></trkpt><trkpt lat="37.831973" lon="-122.522953"><ele>7.0</ele></trkpt><trkpt lat="37.832503" lon="-122.522814"><ele>7.3</ele></trkpt><trkpt lat="37.832593" lon="-122.522785"><ele>7.5</ele></trkpt><trkpt lat="37.832705" lon="-122.522729"><ele>7.7</ele></trkpt><trkpt lat="37.832821" lon="-122.522631"><ele>7.9</ele></trkpt><trkpt lat="37.832938" lon="-122.522490"><ele>8.2</ele></trkpt><trkpt lat="37.833036" lon="-122.522339"><ele>8.5</ele></trkpt><trkpt lat="37.833147" lon="-122.522101"><ele>9.2</ele></trkpt><trkpt lat="37.833222" lon="-122.521861"><ele>9.7</ele></trkpt><trkpt lat="37.833256" lon="-122.521668"><ele>10.0</ele></trkpt><trkpt lat="37.833268" lon="-122.521460"><ele>10.3</ele></trkpt><trkpt lat="37.833269" lon="-122.521254"><ele>10.6</ele></trkpt><trkpt lat="37.833267" lon="-122.521002"><ele>10.9</ele></trkpt><trkpt lat="37.833239" lon="-122.520491"><ele>11.6</ele></trkpt><trkpt lat="37.833159" lon="-122.519713"><ele>12.5</ele></trkpt><trkpt lat="37.833086" lon="-122.519018"><ele>12.8</ele></trkpt><trkpt lat="37.833050" lon="-122.518790"><ele>12.8</ele></trkpt><trkpt lat="37.833010" lon="-122.518608"><ele>12.8</ele></trkpt><trkpt lat="37.832965" lon="-122.518420"><ele>13.0</ele></trkpt><trkpt lat="37.832659" lon="-122.517477"><ele>15.5</ele></trkpt><trkpt lat="37.832576" lon="-122.517277"><ele>15.8</ele></trkpt><trkpt lat="37.832456" lon="-122.517074"><ele>16.2</ele></trkpt><trkpt lat="37.832158" lon="-122.516631"><ele>17.2</ele></trkpt><trkpt lat="37.832123" lon="-122.516568"><ele>17.3</ele></trkpt><trkpt lat="37.832042" lon="-122.516419"><ele>17.5</ele></trkpt><trkpt lat="37.831949" lon="-122.516186"><ele>17.9</ele></trkpt><trkpt lat="37.831902" lon="-122.516057"><ele>18.1</ele></trkpt><trkpt lat="37.831832" lon="-122.515719"><ele>18.5</ele></trkpt><trkpt lat="37.831815" lon="-122.515540"><ele>18.8</ele></trkpt><trkpt lat="37.831749" lon="-122.514877"><ele>18.4</ele></trkpt><trkpt lat="37.831730" lon="-122.514880"><ele>18.4</ele></trkpt><trkpt lat="37.831910" lon="-122.514860"><ele>18.4</ele></trkpt><trkpt lat="37.832080" lon="-122.514990"><ele>18.7</ele></trkpt><trkpt lat="37.832190" lon="-122.515130"><ele>18.8</ele></trkpt><trkpt lat="37.832260" lon="-122.515290"><ele>19.2</ele></trkpt><trkpt lat="37.832320" lon="-122.515270"><ele>19.4</ele></trkpt><trkpt lat="37.832540" lon="-122.514980"><ele>20.4</ele></trkpt><trkpt lat="37.832630" lon="-122.514900"><ele>20.8</ele></trkpt><trkpt lat="37.832960" lon="-122.514830"><ele>21.5</ele></trkpt><trkpt lat="37.833120" lon="-122.514780"><ele>21.9</ele></trkpt><trkpt lat="37.833210" lon="-122.514780"><ele>22.0</ele></trkpt><trkpt lat="37.833280" lon="-122.515100"><ele>22.1</ele></trkpt><trkpt lat="37.833500" lon="-122.515440"><ele>22.5</ele></trkpt><trkpt lat="37.833760" lon="-122.515750"><ele>23.1</ele></trkpt><trkpt lat="37.833860" lon="-122.516020"><ele>22.7</ele></trkpt><trkpt lat="37.833940" lon="-122.516330"><ele>22.1</ele></trkpt><trkpt lat="37.834060" lon="-122.516580"><ele>21.3</ele></trkpt><trkpt lat="37.834190" lon="-122.516790"><ele>20.3</ele></trkpt><trkpt lat="37.834280" lon="-122.517010"><ele>19.4</ele></trkpt><trkpt lat="37.834450" lon="-122.517670"><ele>17.3</ele></trkpt><trkpt lat="37.834620" lon="-122.517850"><ele>17.0</ele></trkpt><trkpt lat="37.835000" lon="-122.517940"><ele>16.2</ele></trkpt><trkpt lat="37.835220" lon="-122.517910"><ele>15.6</ele></trkpt><trkpt lat="37.835440" lon="-122.517860"><ele>15.0</ele></trkpt><trkpt lat="37.836220" lon="-122.517190"><ele>16.7</ele></trkpt><trkpt lat="37.837740" lon="-122.516370"><ele>21.5</ele></trkpt><trkpt lat="37.839230" lon="-122.515750"><ele>26.3</ele></trkpt><trkpt lat="37.839410" lon="-122.515630"><ele>27.2</ele></trkpt><trkpt lat="37.839620" lon="-122.515360"><ele>27.8</ele></trkpt><trkpt lat="37.839690" lon="-122.515210"><ele>28.1</ele></trkpt><trkpt lat="37.839730" lon="-122.514970"><ele>28.8</ele></trkpt><trkpt lat="37.839760" lon="-122.514610"><ele>29.9</ele></trkpt><trkpt lat="37.839910" lon="-122.514390"><ele>30.8</ele></trkpt><trkpt lat="37.840150" lon="-122.514260"><ele>31.6</ele></trkpt><trkpt lat="37.840950" lon="-122.514090"><ele>34.0</ele></trkpt><trkpt lat="37.841110" lon="-122.514000"><ele>34.4</ele></trkpt><trkpt lat="37.841650" lon="-122.513590"><ele>37.3</ele></trkpt><trkpt lat="37.841880" lon="-122.513260"><ele>39.8</ele></trkpt><trkpt lat="37.841980" lon="-122.513010"><ele>41.4</ele></trkpt><trkpt lat="37.842050" lon="-122.512700"><ele>43.3</ele></trkpt><trkpt lat="37.842000" lon="-122.512180"><ele>46.2</ele></trkpt><trkpt lat="37.842210" lon="-122.511430"><ele>51.9</ele></trkpt><trkpt lat="37.842320" lon="-122.511090"><ele>54.7</ele></trkpt><trkpt lat="37.842670" lon="-122.510550"><ele>60.8</ele></trkpt><trkpt lat="37.842890" lon="-122.510090"><ele>65.0</ele></trkpt><trkpt lat="37.843080" lon="-122.509580"><ele>69.2</ele></trkpt><trkpt lat="37.843170" lon="-122.509190"><ele>73.0</ele></trkpt><trkpt lat="37.843450" lon="-122.508430"><ele>82.4</ele></trkpt><trkpt lat="37.843830" lon="-122.507620"><ele>94.6</ele></trkpt><trkpt lat="37.844150" lon="-122.507200"><ele>99.8</ele></trkpt><trkpt lat="37.844250" lon="-122.507210"><ele>100.7</ele></trkpt><trkpt lat="37.844320" lon="-122.507260"><ele>101.3</ele></trkpt><trkpt lat="37.844350" lon="-122.507630"><ele>103.8</ele></trkpt><trkpt lat="37.844400" lon="-122.507810"><ele>105.1</ele></trkpt><trkpt lat="37.844860" lon="-122.508460"><ele>109.1</ele></trkpt><trkpt lat="37.845120" lon="-122.508760"><ele>110.0</ele></trkpt><trkpt lat="37.845410" lon="-122.508890"><ele>110.3</ele></trkpt><trkpt lat="37.845660" lon="-122.508890"><ele>110.7</ele></trkpt><trkpt lat="37.845980" lon="-122.508760"><ele>111.5</ele></trkpt><trkpt lat="37.846090" lon="-122.508690"><ele>112.9</ele></trkpt><trkpt lat="37.846130" lon="-122.508520"><ele>114.5</ele></trkpt><trkpt lat="37.846110" lon="-122.508230"><ele>117.1</ele></trkpt><trkpt lat="37.846210" lon="-122.508000"><ele>118.8</ele></trkpt><trkpt lat="37.846340" lon="-122.507820"><ele>120.3</ele></trkpt><trkpt lat="37.846650" lon="-122.507110"><ele>124.8</ele></trkpt><trkpt lat="37.846790" lon="-122.506920"><ele>126.9</ele></trkpt><trkpt lat="37.846960" lon="-122.506830"><ele>129.1</ele></trkpt><trkpt lat="37.847180" lon="-122.506760"><ele>131.8</ele></trkpt><trkpt lat="37.847660" lon="-122.506920"><ele>137.2</ele></trkpt><trkpt lat="37.847790" lon="-122.506880"><ele>138.6</ele></trkpt><trkpt lat="37.847840" lon="-122.506760"><ele>139.6</ele></trkpt><trkpt lat="37.847820" lon="-122.506660"><ele>140.4</ele></trkpt><trkpt lat="37.847710" lon="-122.506570"><ele>141.7</ele></trkpt><trkpt lat="37.847660" lon="-122.506480"><ele>142.5</ele></trkpt><trkpt lat="37.847620" lon="-122.506400"><ele>143.2</ele></trkpt><trkpt lat="37.847620" lon="-122.506290"><ele>144.0</ele></trkpt><trkpt lat="37.847750" lon="-122.506170"><ele>145.5</ele></trkpt><trkpt lat="37.848190" lon="-122.506050"><ele>151.7</ele></trkpt><trkpt lat="37.848320" lon="-122.506040"><ele>154.4</ele></trkpt><trkpt lat="37.848420" lon="-122.505980"><ele>156.6</ele></trkpt><trkpt lat="37.848460" lon="-122.505820"><ele>159.1</ele></trkpt><trkpt lat="37.848500" lon="-122.505440"><ele>162.4</ele></trkpt><trkpt lat="37.848610" lon="-122.505120"><ele>165.8</ele></trkpt><trkpt lat="37.848650" lon="-122.504900"><ele>168.9</ele></trkpt><trkpt lat="37.848620" lon="-122.504500"><ele>174.1</ele></trkpt><trkpt lat="37.848660" lon="-122.504410"><ele>174.6</ele></trkpt><trkpt lat="37.848720" lon="-122.504390"><ele>174.9</ele></trkpt><trkpt lat="37.848820" lon="-122.504410"><ele>175.5</ele></trkpt><trkpt lat="37.848940" lon="-122.504550"><ele>176.4</ele></trkpt><trkpt lat="37.849090" lon="-122.504680"><ele>177.5</ele></trkpt><trkpt lat="37.849910" lon="-122.505070"><ele>181.2</ele></trkpt><trkpt lat="37.850330" lon="-122.505140"><ele>182.6</ele></trkpt><trkpt lat="37.850580" lon="-122.505220"><ele>183.5</ele></trkpt><trkpt lat="37.850760" lon="-122.505190"><ele>185.5</ele></trkpt><trkpt lat="37.850950" lon="-122.505120"><ele>187.7</ele></trkpt><trkpt lat="37.851130" lon="-122.504950"><ele>190.5</ele></trkpt><trkpt lat="37.851320" lon="-122.504650"><ele>194.8</ele></trkpt><trkpt lat="37.851430" lon="-122.504340"><ele>198.4</ele></trkpt><trkpt lat="37.851620" lon="-122.504160"><ele>200.8</ele></trkpt><trkpt lat="37.851830" lon="-122.504140"><ele>202.9</ele></trkpt><trkpt lat="37.852330" lon="-122.504690"><ele>206.0</ele></trkpt><trkpt lat="37.852510" lon="-122.505160"><ele>208.9</ele></trkpt><trkpt lat="37.852570" lon="-122.505220"><ele>209.0</ele></trkpt><trkpt lat="37.852750" lon="-122.505210"><ele>208.8</ele></trkpt><trkpt lat="37.852890" lon="-122.505160"><ele>208.7</ele></trkpt><trkpt lat="37.852980" lon="-122.505090"><ele>208.5</ele></trkpt><trkpt lat="37.853030" lon="-122.505000"><ele>208.6</ele></trkpt><trkpt lat="37.853110" lon="-122.504750"><ele>209.6</ele></trkpt><trkpt lat="37.853170" lon="-122.504240"><ele>212.5</ele></trkpt><trkpt lat="37.853250" lon="-122.504000"><ele>215.2</ele></trkpt><trkpt lat="37.853380" lon="-122.503850"><ele>217.5</ele></trkpt><trkpt lat="37.853610" lon="-122.503680"><ele>220.1</ele></trkpt><trkpt lat="37.853850" lon="-122.503570"><ele>222.5</ele></trkpt><trkpt lat="37.854010" lon="-122.503590"><ele>223.7</ele></trkpt><trkpt lat="37.854190" lon="-122.503720"><ele>225.0</ele></trkpt><trkpt lat="37.854310" lon="-122.503970"><ele>226.5</ele></trkpt><trkpt lat="37.854460" lon="-122.504360"><ele>226.3</ele></trkpt><trkpt lat="37.854670" lon="-122.504580"><ele>226.1</ele></trkpt><trkpt lat="37.854720" lon="-122.504780"><ele>226.0</ele></trkpt><trkpt lat="37.854950" lon="-122.505150"><ele>225.7</ele></trkpt><trkpt lat="37.855200" lon="-122.505870"><ele>224.3</ele></trkpt><trkpt lat="37.855200" lon="-122.505870"><ele>224.3</ele></trkpt><trkpt lat="37.855200" lon="-122.505870"><ele>224.3</ele></trkpt><trkpt lat="37.854950" lon="-122.505150"><ele>223.8</ele></trkpt><trkpt lat="37.854720" lon="-122.504780"><ele>223.1</ele></trkpt><trkpt lat="37.854670" lon="-122.504580"><ele>223.0</ele></trkpt><trkpt lat="37.854720" lon="-122.504780"><ele>222.9</ele></trkpt><trkpt lat="37.854950" lon="-122.505150"><ele>222.3</ele></trkpt><trkpt lat="37.855620" lon="-122.507090"><ele>220.7</ele></trkpt><trkpt lat="37.855710" lon="-122.507410"><ele>223.8</ele></trkpt><trkpt lat="37.855820" lon="-122.508090"><ele>226.7</ele></trkpt><trkpt lat="37.855840" lon="-122.508610"><ele>231.6</ele></trkpt><trkpt lat="37.855800" lon="-122.509130"><ele>236.3</ele></trkpt><trkpt lat="37.855740" lon="-122.509530"><ele>240.4</ele></trkpt><trkpt lat="37.855540" lon="-122.510280"><ele>247.7</ele></trkpt><trkpt lat="37.855360" lon="-122.510890"><ele>246.7</ele></trkpt><trkpt lat="37.855240" lon="-122.510980"><ele>247.6</ele></trkpt><trkpt lat="37.855000" lon="-122.511090"><ele>249.3</ele></trkpt><trkpt lat="37.854900" lon="-122.511240"><ele>249.7</ele></trkpt><trkpt lat="37.854880" lon="-122.511410"><ele>250.0</ele></trkpt><trkpt lat="37.854910" lon="-122.511520"><ele>250.2</ele></trkpt><trkpt lat="37.855000" lon="-122.511940"><ele>251.9</ele></trkpt><trkpt lat="37.855170" lon="-122.512240"><ele>254.1</ele></trkpt><trkpt lat="37.855660" lon="-122.513020"><ele>257.0</ele></trkpt><trkpt lat="37.855800" lon="-122.513300"><ele>259.6</ele></trkpt><trkpt lat="37.856280" lon="-122.515210"><ele>262.1</ele></trkpt><trkpt lat="37.856660" lon="-122.515930"><ele>258.4</ele></trkpt><trkpt lat="37.856790" lon="-122.516370"><ele>254.6</ele></trkpt><trkpt lat="37.856890" lon="-122.517080"><ele>251.1</ele></trkpt><trkpt lat="37.856830" lon="-122.517730"><ele>249.2</ele></trkpt><trkpt lat="37.856930" lon="-122.518510"><ele>249.3</ele></trkpt><trkpt lat="37.857540" lon="-122.520330"><ele>251.5</ele></trkpt><trkpt lat="37.857810" lon="-122.520860"><ele>250.2</ele></trkpt><trkpt lat="37.858090" lon="-122.521100"><ele>248.5</ele></trkpt><trkpt lat="37.858280" lon="-122.521220"><ele>247.2</ele></trkpt><trkpt lat="37.858640" lon="-122.521330"><ele>244.5</ele></trkpt><trkpt lat="37.859110" lon="-122.521160"><ele>239.7</ele></trkpt><trkpt lat="37.859730" lon="-122.521140"><ele>230.2</ele></trkpt><trkpt lat="37.860280" lon="-122.521290"><ele>219.7</ele></trkpt><trkpt lat="37.860650" lon="-122.521460"><ele>212.9</ele></trkpt><trkpt lat="37.861060" lon="-122.522120"><ele>205.2</ele></trkpt><trkpt lat="37.861740" lon="-122.524080"><ele>192.3</ele></trkpt><trkpt lat="37.862150" lon="-122.524810"><ele>186.0</ele></trkpt><trkpt lat="37.862620" lon="-122.525370"><ele>179.6</ele></trkpt><trkpt lat="37.863200" lon="-122.525910"><ele>174.7</ele></trkpt><trkpt lat="37.863820" lon="-122.526340"><ele>167.2</ele></trkpt><trkpt lat="37.864560" lon="-122.526960"><ele>157.1</ele></trkpt><trkpt lat="37.864850" lon="-122.527310"><ele>148.2</ele></trkpt><trkpt lat="37.864990" lon="-122.527550"><ele>141.4</ele></trkpt><trkpt lat="37.864980" lon="-122.528000"><ele>132.8</ele></trkpt><trkpt lat="37.865050" lon="-122.528160"><ele>131.4</ele></trkpt><trkpt lat="37.865110" lon="-122.528520"><ele>128.4</ele></trkpt><trkpt lat="37.865110" lon="-122.528830"><ele>124.6</ele></trkpt><trkpt lat="37.864890" lon="-122.529540"><ele>112.8</ele></trkpt><trkpt lat="37.864820" lon="-122.529910"><ele>106.8</ele></trkpt><trkpt lat="37.864490" lon="-122.530630"><ele>104.3</ele></trkpt><trkpt lat="37.864220" lon="-122.531070"><ele>101.1</ele></trkpt><trkpt lat="37.863770" lon="-122.531310"><ele>94.8</ele></trkpt><trkpt lat="37.863420" lon="-122.531690"><ele>86.9</ele></trkpt><trkpt lat="37.863000" lon="-122.532000"><ele>85.0</ele></trkpt><trkpt lat="37.862230" lon="-122.532880"><ele>72.0</ele></trkpt><trkpt lat="37.861560" lon="-122.534150"><ele>66.1</ele></trkpt><trkpt lat="37.861300" lon="-122.534540"><ele>63.6</ele></trkpt><trkpt lat="37.861000" lon="-122.534670"><ele>63.1</ele></trkpt><trkpt lat="37.860760" lon="-122.534910"><ele>64.5</ele></trkpt><trkpt lat="37.860540" lon="-122.534950"><ele>65.3</ele></trkpt><trkpt lat="37.860580" lon="-122.535040"><ele>65.5</ele></trkpt><trkpt lat="37.860550" lon="-122.535290"><ele>66.1</ele></trkpt><trkpt lat="37.860570" lon="-122.535580"><ele>66.8</ele></trkpt><trkpt lat="37.860760" lon="-122.535960"><ele>68.0</ele></trkpt><trkpt lat="37.860420" lon="-122.536290"><ele>68.9</ele></trkpt><trkpt lat="37.859850" lon="-122.536920"><ele>70.4</ele></trkpt><trkpt lat="37.859570" lon="-122.537140"><ele>70.2</ele></trkpt><trkpt lat="37.858560" lon="-122.537780"><ele>66.1</ele></trkpt><trkpt lat="37.858280" lon="-122.538010"><ele>64.2</ele></trkpt><trkpt lat="37.857630" lon="-122.538870"><ele>57.7</ele></trkpt><trkpt lat="37.857410" lon="-122.539010"><ele>56.3</ele></trkpt><trkpt lat="37.856460" lon="-122.539240"><ele>55.0</ele></trkpt><trkpt lat="37.856160" lon="-122.539360"><ele>54.1</ele></trkpt><trkpt lat="37.855560" lon="-122.539450"><ele>53.9</ele></trkpt><trkpt lat="37.855320" lon="-122.539520"><ele>53.7</ele></trkpt><trkpt lat="37.854930" lon="-122.539700"><ele>53.2</ele></trkpt><trkpt lat="37.854700" lon="-122.539750"><ele>52.9</ele></trkpt><trkpt lat="37.854460" lon="-122.539710"><ele>52.4</ele></trkpt><trkpt lat="37.854100" lon="-122.539580"><ele>50.3</ele></trkpt><trkpt lat="37.853560" lon="-122.539220"><ele>46.9</ele></trkpt><trkpt lat="37.853170" lon="-122.539020"><ele>46.8</ele></trkpt><trkpt lat="37.852440" lon="-122.538720"><ele>50.4</ele></trkpt><trkpt lat="37.852160" lon="-122.538570"><ele>52.0</ele></trkpt><trkpt lat="37.851850" lon="-122.538570"><ele>53.3</ele></trkpt><trkpt lat="37.851310" lon="-122.538530"><ele>55.5</ele></trkpt><trkpt lat="37.850980" lon="-122.538580"><ele>59.5</ele></trkpt><trkpt lat="37.850770" lon="-122.538680"><ele>59.9</ele></trkpt><trkpt lat="37.850260" lon="-122.539190"><ele>58.7</ele></trkpt><trkpt lat="37.849800" lon="-122.539750"><ele>59.1</ele></trkpt><trkpt lat="37.849490" lon="-122.540200"><ele>57.2</ele></trkpt><trkpt lat="37.849300" lon="-122.540620"><ele>54.3</ele></trkpt><trkpt lat="37.849180" lon="-122.540950"><ele>52.4</ele></trkpt><trkpt lat="37.849130" lon="-122.541460"><ele>51.8</ele></trkpt><trkpt lat="37.849130" lon="-122.542320"><ele>50.9</ele></trkpt><trkpt lat="37.849170" lon="-122.542550"><ele>49.8</ele></trkpt><trkpt lat="37.849270" lon="-122.542820"><ele>47.1</ele></trkpt><trkpt lat="37.849340" lon="-122.543140"><ele>44.7</ele></trkpt><trkpt lat="37.849280" lon="-122.543920"><ele>48.9</ele></trkpt><trkpt lat="37.849350" lon="-122.544200"><ele>48.5</ele></trkpt><trkpt lat="37.849480" lon="-122.544500"><ele>48.3</ele></trkpt><trkpt lat="37.849520" lon="-122.544700"><ele>48.5</ele></trkpt><trkpt lat="37.849510" lon="-122.545180"><ele>49.6</ele></trkpt><trkpt lat="37.849480" lon="-122.545310"><ele>50.3</ele></trkpt><trkpt lat="37.849010" lon="-122.545880"><ele>56.2</ele></trkpt><trkpt lat="37.848930" lon="-122.546380"><ele>61.7</ele></trkpt><trkpt lat="37.848820" lon="-122.546890"><ele>67.9</ele></trkpt><trkpt lat="37.848430" lon="-122.547930"><ele>78.2</ele></trkpt><trkpt lat="37.848310" lon="-122.548620"><ele>84.1</ele></trkpt><trkpt lat="37.848230" lon="-122.548990"><ele>87.1</ele></trkpt><trkpt lat="37.848140" lon="-122.549600"><ele>92.4</ele></trkpt><trkpt lat="37.848050" lon="-122.550000"><ele>96.9</ele></trkpt><trkpt lat="37.848050" lon="-122.550440"><ele>103.2</ele></trkpt><trkpt lat="37.848140" lon="-122.550910"><ele>109.8</ele></trkpt><trkpt lat="37.848180" lon="-122.551000"><ele>110.8</ele></trkpt><trkpt lat="37.848260" lon="-122.551090"><ele>112.0</ele></trkpt><trkpt lat="37.848390" lon="-122.551110"><ele>113.6</ele></trkpt><trkpt lat="37.848570" lon="-122.551070"><ele>116.2</ele></trkpt><trkpt lat="37.848690" lon="-122.551110"><ele>118.5</ele></trkpt><trkpt lat="37.848720" lon="-122.551160"><ele>119.4</ele></trkpt><trkpt lat="37.848750" lon="-122.551220"><ele>120.4</ele></trkpt><trkpt lat="37.848740" lon="-122.551360"><ele>122.4</ele></trkpt><trkpt lat="37.848660" lon="-122.551610"><ele>126.3</ele></trkpt><trkpt lat="37.848710" lon="-122.551750"><ele>128.5</ele></trkpt><trkpt lat="37.849110" lon="-122.552460"><ele>136.1</ele></trkpt><trkpt lat="37.849340" lon="-122.552970"><ele>140.8</ele></trkpt><trkpt lat="37.849430" lon="-122.553090"><ele>142.6</ele></trkpt><trkpt lat="37.849700" lon="-122.553320"><ele>148.1</ele></trkpt><trkpt lat="37.849920" lon="-122.553670"><ele>154.8</ele></trkpt><trkpt lat="37.850170" lon="-122.553880"><ele>157.0</ele></trkpt><trkpt lat="37.850210" lon="-122.554090"><ele>158.3</ele></trkpt><trkpt lat="37.850220" lon="-122.554510"><ele>160.9</ele></trkpt><trkpt lat="37.850150" lon="-122.554850"><ele>163.1</ele></trkpt><trkpt lat="37.849960" lon="-122.555390"><ele>168.7</ele></trkpt><trkpt lat="37.849900" lon="-122.556200"><ele>170.7</ele></trkpt><trkpt lat="37.849920" lon="-122.556380"><ele>170.6</ele></trkpt><trkpt lat="37.849980" lon="-122.556410"><ele>170.6</ele></trkpt><trkpt lat="37.850100" lon="-122.556420"><ele>170.5</ele></trkpt><trkpt lat="37.850130" lon="-122.556410"><ele>170.5</ele></trkpt><trkpt lat="37.850140" lon="-122.556410"><ele>170.5</ele></trkpt><trkpt lat="37.850360" lon="-122.556320"><ele>170.5</ele></trkpt><trkpt lat="37.850820" lon="-122.555960"><ele>171.8</ele></trkpt><trkpt lat="37.851290" lon="-122.555560"><ele>175.0</ele></trkpt><trkpt lat="37.851490" lon="-122.555250"><ele>176.8</ele></trkpt><trkpt lat="37.851590" lon="-122.554990"><ele>178.3</ele></trkpt><trkpt lat="37.851700" lon="-122.554850"><ele>179.6</ele></trkpt><trkpt lat="37.851850" lon="-122.554760"><ele>180.9</ele></trkpt><trkpt lat="37.853480" lon="-122.554470"><ele>200.5</ele></trkpt><trkpt lat="37.853570" lon="-122.554410"><ele>201.4</ele></trkpt><trkpt lat="37.853730" lon="-122.554090"><ele>204.4</ele></trkpt><trkpt lat="37.853890" lon="-122.553870"><ele>206.8</ele></trkpt><trkpt lat="37.854310" lon="-122.553490"><ele>211.1</ele></trkpt><trkpt lat="37.854840" lon="-122.553300"><ele>217.0</ele></trkpt><trkpt lat="37.855510" lon="-122.553110"><ele>222.2</ele></trkpt><trkpt lat="37.855920" lon="-122.552930"><ele>226.8</ele></trkpt><trkpt lat="37.856450" lon="-122.552840"><ele>231.9</ele></trkpt><trkpt lat="37.856690" lon="-122.552900"><ele>235.0</ele></trkpt><trkpt lat="37.857030" lon="-122.553100"><ele>238.9</ele></trkpt><trkpt lat="37.857550" lon="-122.553770"><ele>244.6</ele></trkpt><trkpt lat="37.857660" lon="-122.553860"><ele>246.0</ele></trkpt><trkpt lat="37.857810" lon="-122.553900"><ele>247.7</ele></trkpt><trkpt lat="37.858640" lon="-122.554000"><ele>258.4</ele></trkpt><trkpt lat="37.859220" lon="-122.554200"><ele>263.4</ele></trkpt><trkpt lat="37.859460" lon="-122.554610"><ele>265.7</ele></trkpt><trkpt lat="37.859730" lon="-122.555130"><ele>266.7</ele></trkpt><trkpt lat="37.860110" lon="-122.554930"><ele>265.3</ele></trkpt><trkpt lat="37.862220" lon="-122.554040"><ele>271.5</ele></trkpt><trkpt lat="37.863390" lon="-122.553520"><ele>283.1</ele></trkpt><trkpt lat="37.864280" lon="-122.553370"><ele>289.1</ele></trkpt><trkpt lat="37.865240" lon="-122.553060"><ele>296.9</ele></trkpt><trkpt lat="37.865700" lon="-122.552860"><ele>301.6</ele></trkpt><trkpt lat="37.866110" lon="-122.552630"><ele>303.4</ele></trkpt><trkpt lat="37.866200" lon="-122.552530"><ele>303.8</ele></trkpt><trkpt lat="37.866310" lon="-122.552170"><ele>304.0</ele></trkpt><trkpt lat="37.866560" lon="-122.552080"><ele>304.2</ele></trkpt><trkpt lat="37.866680" lon="-122.552070"><ele>303.3</ele></trkpt><trkpt lat="37.866790" lon="-122.552100"><ele>302.5</ele></trkpt><trkpt lat="37.866900" lon="-122.552210"><ele>301.5</ele></trkpt><trkpt lat="37.866930" lon="-122.552290"><ele>301.0</ele></trkpt><trkpt lat="37.866990" lon="-122.552350"><ele>300.4</ele></trkpt><trkpt lat="37.867020" lon="-122.552350"><ele>300.1</ele></trkpt><trkpt lat="37.867060" lon="-122.552270"><ele>299.1</ele></trkpt><trkpt lat="37.867020" lon="-122.552100"><ele>297.2</ele></trkpt><trkpt lat="37.867020" lon="-122.551610"><ele>291.8</ele></trkpt><trkpt lat="37.867050" lon="-122.551320"><ele>288.4</ele></trkpt><trkpt lat="37.867180" lon="-122.550900"><ele>283.2</ele></trkpt><trkpt lat="37.867200" lon="-122.550710"><ele>281.0</ele></trkpt><trkpt lat="37.867180" lon="-122.550540"><ele>279.0</ele></trkpt><trkpt lat="37.867100" lon="-122.550350"><ele>276.6</ele></trkpt><trkpt lat="37.867030" lon="-122.550150"><ele>274.1</ele></trkpt><trkpt lat="37.867000" lon="-122.549840"><ele>270.6</ele></trkpt><trkpt lat="37.867030" lon="-122.548940"><ele>267.0</ele></trkpt><trkpt lat="37.867090" lon="-122.548760"><ele>267.0</ele></trkpt><trkpt lat="37.867210" lon="-122.549020"><ele>267.0</ele></trkpt><trkpt lat="37.867320" lon="-122.549190"><ele>267.5</ele></trkpt><trkpt lat="37.867410" lon="-122.549410"><ele>268.4</ele></trkpt><trkpt lat="37.867410" lon="-122.549510"><ele>268.7</ele></trkpt><trkpt lat="37.867390" lon="-122.549640"><ele>269.2</ele></trkpt><trkpt lat="37.867350" lon="-122.549770"><ele>269.9</ele></trkpt><trkpt lat="37.867210" lon="-122.550020"><ele>271.5</ele></trkpt><trkpt lat="37.867210" lon="-122.550120"><ele>272.1</ele></trkpt><trkpt lat="37.867230" lon="-122.550230"><ele>272.7</ele></trkpt><trkpt lat="37.867320" lon="-122.550450"><ele>274.5</ele></trkpt><trkpt lat="37.867330" lon="-122.551370"><ele>279.6</ele></trkpt><trkpt lat="37.867350" lon="-122.551490"><ele>279.8</ele></trkpt><trkpt lat="37.867380" lon="-122.551570"><ele>280.0</ele></trkpt><trkpt lat="37.867450" lon="-122.551640"><ele>280.0</ele></trkpt><trkpt lat="37.867510" lon="-122.551650"><ele>279.9</ele></trkpt><trkpt lat="37.867580" lon="-122.551630"><ele>279.7</ele></trkpt><trkpt lat="37.867920" lon="-122.551370"><ele>278.5</ele></trkpt><trkpt lat="37.868000" lon="-122.551290"><ele>277.9</ele></trkpt><trkpt lat="37.868140" lon="-122.551040"><ele>276.5</ele></trkpt><trkpt lat="37.868250" lon="-122.550540"><ele>274.2</ele></trkpt><trkpt lat="37.868300" lon="-122.550430"><ele>273.7</ele></trkpt><trkpt lat="37.868340" lon="-122.550380"><ele>273.4</ele></trkpt><trkpt lat="37.868500" lon="-122.550300"><ele>272.1</ele></trkpt><trkpt lat="37.868610" lon="-122.550230"><ele>269.3</ele></trkpt><trkpt lat="37.868820" lon="-122.550030"><ele>263.2</ele></trkpt><trkpt lat="37.869000" lon="-122.549790"><ele>257.9</ele></trkpt><trkpt lat="37.869050" lon="-122.549670"><ele>256.0</ele></trkpt><trkpt lat="37.869080" lon="-122.549260"><ele>250.8</ele></trkpt><trkpt lat="37.869120" lon="-122.549160"><ele>250.5</ele></trkpt><trkpt lat="37.869200" lon="-122.549090"><ele>250.1</ele></trkpt><trkpt lat="37.869280" lon="-122.549060"><ele>249.9</ele></trkpt><trkpt lat="37.869430" lon="-122.549090"><ele>249.3</ele></trkpt><trkpt lat="37.869530" lon="-122.549240"><ele>249.3</ele></trkpt><trkpt lat="37.869550" lon="-122.549330"><ele>249.7</ele></trkpt><trkpt lat="37.869510" lon="-122.549560"><ele>250.6</ele></trkpt><trkpt lat="37.869470" lon="-122.549630"><ele>251.0</ele></trkpt><trkpt lat="37.869420" lon="-122.550120"><ele>252.8</ele></trkpt><trkpt lat="37.869320" lon="-122.550370"><ele>253.8</ele></trkpt><trkpt lat="37.869220" lon="-122.550790"><ele>258.8</ele></trkpt><trkpt lat="37.869090" lon="-122.551050"><ele>263.1</ele></trkpt><trkpt lat="37.869090" lon="-122.551100"><ele>263.7</ele></trkpt><trkpt lat="37.869110" lon="-122.551180"><ele>263.8</ele></trkpt><trkpt lat="37.869250" lon="-122.551240"><ele>264.0</ele></trkpt><trkpt lat="37.869380" lon="-122.551360"><ele>264.3</ele></trkpt><trkpt lat="37.869470" lon="-122.551370"><ele>264.4</ele></trkpt><trkpt lat="37.869660" lon="-122.551150"><ele>264.2</ele></trkpt><trkpt lat="37.870070" lon="-122.550770"><ele>262.8</ele></trkpt><trkpt lat="37.870180" lon="-122.550710"><ele>262.4</ele></trkpt><trkpt lat="37.870320" lon="-122.550670"><ele>261.9</ele></trkpt><trkpt lat="37.870420" lon="-122.550660"><ele>261.6</ele></trkpt><trkpt lat="37.870450" lon="-122.550680"><ele>261.4</ele></trkpt><trkpt lat="37.870480" lon="-122.550710"><ele>261.0</ele></trkpt><trkpt lat="37.870530" lon="-122.550830"><ele>259.8</ele></trkpt><trkpt lat="37.870550" lon="-122.551140"><ele>257.0</ele></trkpt><trkpt lat="37.870540" lon="-122.551290"><ele>255.6</ele></trkpt><trkpt lat="37.870490" lon="-122.551560"><ele>253.2</ele></trkpt><trkpt lat="37.870460" lon="-122.551810"><ele>251.0</ele></trkpt><trkpt lat="37.870460" lon="-122.551950"><ele>249.7</ele></trkpt><trkpt lat="37.870490" lon="-122.552050"><ele>250.0</ele></trkpt><trkpt lat="37.870520" lon="-122.552090"><ele>250.7</ele></trkpt><trkpt lat="37.870600" lon="-122.552100"><ele>251.9</ele></trkpt><trkpt lat="37.870870" lon="-122.551940"><ele>256.2</ele></trkpt><trkpt lat="37.871060" lon="-122.551850"><ele>258.2</ele></trkpt><trkpt lat="37.871160" lon="-122.551860"><ele>258.8</ele></trkpt><trkpt lat="37.871230" lon="-122.551950"><ele>259.5</ele></trkpt><trkpt lat="37.871290" lon="-122.552060"><ele>260.2</ele></trkpt><trkpt lat="37.871340" lon="-122.552400"><ele>260.4</ele></trkpt><trkpt lat="37.871360" lon="-122.552640"><ele>259.9</ele></trkpt><trkpt lat="37.871380" lon="-122.552720"><ele>259.7</ele></trkpt><trkpt lat="37.871420" lon="-122.552780"><ele>259.5</ele></trkpt><trkpt lat="37.871480" lon="-122.552830"><ele>259.4</ele></trkpt><trkpt lat="37.871580" lon="-122.552830"><ele>259.6</ele></trkpt><trkpt lat="37.871690" lon="-122.552760"><ele>259.8</ele></trkpt><trkpt lat="37.871900" lon="-122.552400"><ele>260.4</ele></trkpt><trkpt lat="37.872090" lon="-122.552250"><ele>260.9</ele></trkpt><trkpt lat="37.872150" lon="-122.552190"><ele>261.1</ele></trkpt><trkpt lat="37.872220" lon="-122.552060"><ele>261.4</ele></trkpt><trkpt lat="37.872220" lon="-122.552050"><ele>261.4</ele></trkpt><trkpt lat="37.872270" lon="-122.551980"><ele>261.0</ele></trkpt><trkpt lat="37.872560" lon="-122.551770"><ele>254.6</ele></trkpt><trkpt lat="37.872890" lon="-122.551490"><ele>251.0</ele></trkpt><trkpt lat="37.873030" lon="-122.551130"><ele>250.9</ele></trkpt><trkpt lat="37.873080" lon="-122.551090"><ele>250.6</ele></trkpt><trkpt lat="37.873120" lon="-122.551090"><ele>250.5</ele></trkpt><trkpt lat="37.873180" lon="-122.551110"><ele>250.2</ele></trkpt><trkpt lat="37.873450" lon="-122.551350"><ele>248.7</ele></trkpt><trkpt lat="37.873570" lon="-122.551420"><ele>248.4</ele></trkpt><trkpt lat="37.873610" lon="-122.551460"><ele>248.3</ele></trkpt><trkpt lat="37.873710" lon="-122.551670"><ele>248.2</ele></trkpt><trkpt lat="37.873760" lon="-122.551740"><ele>248.2</ele></trkpt><trkpt lat="37.873890" lon="-122.551810"><ele>248.1</ele></trkpt><trkpt lat="37.874100" lon="-122.551850"><ele>247.5</ele></trkpt><trkpt lat="37.874150" lon="-122.551890"><ele>247.4</ele></trkpt><trkpt lat="37.874320" lon="-122.552170"><ele>246.6</ele></trkpt><trkpt lat="37.874450" lon="-122.552310"><ele>246.4</ele></trkpt><trkpt lat="37.874500" lon="-122.552340"><ele>246.3</ele></trkpt><trkpt lat="37.874580" lon="-122.552340"><ele>246.2</ele></trkpt><trkpt lat="37.874740" lon="-122.552230"><ele>246.0</ele></trkpt><trkpt lat="37.874930" lon="-122.552220"><ele>243.0</ele></trkpt><trkpt lat="37.874990" lon="-122.552200"><ele>241.6</ele></trkpt><trkpt lat="37.875040" lon="-122.552150"><ele>240.1</ele></trkpt><trkpt lat="37.875150" lon="-122.551830"><ele>233.8</ele></trkpt><trkpt lat="37.875190" lon="-122.551760"><ele>232.9</ele></trkpt><trkpt lat="37.875260" lon="-122.551680"><ele>231.7</ele></trkpt><trkpt lat="37.875460" lon="-122.551510"><ele>228.6</ele></trkpt><trkpt lat="37.875580" lon="-122.551510"><ele>227.0</ele></trkpt><trkpt lat="37.875610" lon="-122.551550"><ele>226.5</ele></trkpt><trkpt lat="37.875670" lon="-122.551680"><ele>225.2</ele></trkpt><trkpt lat="37.875750" lon="-122.551720"><ele>224.3</ele></trkpt><trkpt lat="37.875910" lon="-122.551660"><ele>222.6</ele></trkpt><trkpt lat="37.876230" lon="-122.551680"><ele>219.1</ele></trkpt><trkpt lat="37.876340" lon="-122.551720"><ele>217.8</ele></trkpt><trkpt lat="37.876390" lon="-122.551800"><ele>216.9</ele></trkpt><trkpt lat="37.876440" lon="-122.552050"><ele>214.8</ele></trkpt><trkpt lat="37.876470" lon="-122.552100"><ele>214.7</ele></trkpt><trkpt lat="37.876510" lon="-122.552120"><ele>214.6</ele></trkpt><trkpt lat="37.876690" lon="-122.552150"><ele>214.2</ele></trkpt><trkpt lat="37.876730" lon="-122.552230"><ele>214.0</ele></trkpt><trkpt lat="37.876720" lon="-122.552290"><ele>213.9</ele></trkpt><trkpt lat="37.876600" lon="-122.552530"><ele>213.0</ele></trkpt><trkpt lat="37.876610" lon="-122.552670"><ele>212.3</ele></trkpt><trkpt lat="37.876700" lon="-122.552760"><ele>211.5</ele></trkpt><trkpt lat="37.876860" lon="-122.552860"><ele>210.4</ele></trkpt><trkpt lat="37.876880" lon="-122.552890"><ele>210.2</ele></trkpt><trkpt lat="37.876980" lon="-122.553160"><ele>207.2</ele></trkpt><trkpt lat="37.877020" lon="-122.553210"><ele>206.5</ele></trkpt><trkpt lat="37.877230" lon="-122.553320"><ele>203.6</ele></trkpt><trkpt lat="37.877390" lon="-122.553460"><ele>200.9</ele></trkpt><trkpt lat="37.877520" lon="-122.553700"><ele>197.8</ele></trkpt><trkpt lat="37.877570" lon="-122.553760"><ele>196.9</ele></trkpt><trkpt lat="37.877670" lon="-122.553810"><ele>195.6</ele></trkpt><trkpt lat="37.877780" lon="-122.553820"><ele>194.4</ele></trkpt><trkpt lat="37.878020" lon="-122.553660"><ele>191.7</ele></trkpt><trkpt lat="37.878080" lon="-122.553640"><ele>191.0</ele></trkpt><trkpt lat="37.878150" lon="-122.553630"><ele>190.4</ele></trkpt><trkpt lat="37.878290" lon="-122.553660"><ele>189.4</ele></trkpt><trkpt lat="37.878410" lon="-122.553740"><ele>188.4</ele></trkpt><trkpt lat="37.878530" lon="-122.553760"><ele>187.5</ele></trkpt><trkpt lat="37.878600" lon="-122.553720"><ele>187.0</ele></trkpt><trkpt lat="37.878760" lon="-122.553590"><ele>187.1</ele></trkpt><trkpt lat="37.878850" lon="-122.553570"><ele>187.5</ele></trkpt><trkpt lat="37.878960" lon="-122.553620"><ele>188.1</ele></trkpt><trkpt lat="37.879110" lon="-122.553860"><ele>189.2</ele></trkpt><trkpt lat="37.879230" lon="-122.553930"><ele>189.8</ele></trkpt><trkpt lat="37.879210" lon="-122.553990"><ele>190.0</ele></trkpt><trkpt lat="37.879210" lon="-122.554140"><ele>190.5</ele></trkpt><trkpt lat="37.879410" lon="-122.554520"><ele>192.9</ele></trkpt><trkpt lat="37.879410" lon="-122.554640"><ele>193.7</ele></trkpt><trkpt lat="37.879370" lon="-122.554710"><ele>194.3</ele></trkpt><trkpt lat="37.879440" lon="-122.554780"><ele>195.0</ele></trkpt><trkpt lat="37.879570" lon="-122.554770"><ele>196.1</ele></trkpt><trkpt lat="37.879720" lon="-122.554810"><ele>197.2</ele></trkpt><trkpt lat="37.879720" lon="-122.554840"><ele>197.4</ele></trkpt><trkpt lat="37.879520" lon="-122.554930"><ele>198.9</ele></trkpt><trkpt lat="37.879530" lon="-122.554960"><ele>199.1</ele></trkpt><trkpt lat="37.879600" lon="-122.554960"><ele>199.6</ele></trkpt><trkpt lat="37.879760" lon="-122.555030"><ele>200.3</ele></trkpt><trkpt lat="37.880080" lon="-122.555120"><ele>201.5</ele></trkpt><trkpt lat="37.880170" lon="-122.555170"><ele>201.8</ele></trkpt><trkpt lat="37.880300" lon="-122.555190"><ele>202.6</ele></trkpt><trkpt lat="37.880350" lon="-122.555160"><ele>203.0</ele></trkpt><trkpt lat="37.880360" lon="-122.555130"><ele>203.1</ele></trkpt><trkpt lat="37.880340" lon="-122.555020"><ele>203.7</ele></trkpt><trkpt lat="37.880220" lon="-122.554730"><ele>205.2</ele></trkpt><trkpt lat="37.880230" lon="-122.554650"><ele>205.5</ele></trkpt><trkpt lat="37.880260" lon="-122.554610"><ele>205.7</ele></trkpt><trkpt lat="37.880390" lon="-122.554620"><ele>206.2</ele></trkpt><trkpt lat="37.880550" lon="-122.554680"><ele>206.8</ele></trkpt><trkpt lat="37.880650" lon="-122.554670"><ele>207.2</ele></trkpt><trkpt lat="37.880770" lon="-122.554610"><ele>207.6</ele></trkpt><trkpt lat="37.881010" lon="-122.554690"><ele>208.3</ele></trkpt><trkpt lat="37.881110" lon="-122.554690"><ele>208.6</ele></trkpt><trkpt lat="37.881250" lon="-122.554650"><ele>209.0</ele></trkpt><trkpt lat="37.881410" lon="-122.554680"><ele>209.7</ele></trkpt><trkpt lat="37.881510" lon="-122.554680"><ele>210.1</ele></trkpt><trkpt lat="37.881550" lon="-122.554760"><ele>210.4</ele></trkpt><trkpt lat="37.881750" lon="-122.554960"><ele>211.4</ele></trkpt><trkpt lat="37.881980" lon="-122.555010"><ele>212.5</ele></trkpt><trkpt lat="37.882060" lon="-122.555060"><ele>212.9</ele></trkpt><trkpt lat="37.882190" lon="-122.555230"><ele>213.2</ele></trkpt><trkpt lat="37.882290" lon="-122.555500"><ele>212.6</ele></trkpt><trkpt lat="37.882350" lon="-122.555610"><ele>212.4</ele></trkpt><trkpt lat="37.882330" lon="-122.555710"><ele>212.2</ele></trkpt><trkpt lat="37.882270" lon="-122.555840"><ele>211.9</ele></trkpt><trkpt lat="37.882240" lon="-122.555880"><ele>211.7</ele></trkpt><trkpt lat="37.882220" lon="-122.555950"><ele>211.5</ele></trkpt><trkpt lat="37.882320" lon="-122.556240"><ele>210.7</ele></trkpt><trkpt lat="37.882280" lon="-122.556400"><ele>210.2</ele></trkpt><trkpt lat="37.882290" lon="-122.556610"><ele>209.8</ele></trkpt><trkpt lat="37.882240" lon="-122.556760"><ele>209.4</ele></trkpt><trkpt lat="37.882140" lon="-122.556890"><ele>209.0</ele></trkpt><trkpt lat="37.882040" lon="-122.557080"><ele>208.5</ele></trkpt><trkpt lat="37.881920" lon="-122.557490"><ele>207.5</ele></trkpt><trkpt lat="37.881750" lon="-122.557770"><ele>205.3</ele></trkpt><trkpt lat="37.881610" lon="-122.557920"><ele>203.3</ele></trkpt><trkpt lat="37.881480" lon="-122.557980"><ele>201.8</ele></trkpt><trkpt lat="37.881290" lon="-122.558010"><ele>202.6</ele></trkpt><trkpt lat="37.881120" lon="-122.557980"><ele>203.9</ele></trkpt><trkpt lat="37.881020" lon="-122.558050"><ele>204.7</ele></trkpt><trkpt lat="37.880940" lon="-122.558220"><ele>205.8</ele></trkpt><trkpt lat="37.880680" lon="-122.558270"><ele>207.3</ele></trkpt><trkpt lat="37.880520" lon="-122.558380"><ele>208.3</ele></trkpt><trkpt lat="37.880420" lon="-122.558390"><ele>208.8</ele></trkpt><trkpt lat="37.880320" lon="-122.558350"><ele>209.2</ele></trkpt><trkpt lat="37.880130" lon="-122.558250"><ele>210.0</ele></trkpt><trkpt lat="37.879940" lon="-122.558260"><ele>210.7</ele></trkpt><trkpt lat="37.879740" lon="-122.558340"><ele>212.2</ele></trkpt><trkpt lat="37.879640" lon="-122.558520"><ele>213.4</ele></trkpt><trkpt lat="37.879570" lon="-122.558720"><ele>214.6</ele></trkpt><trkpt lat="37.879560" lon="-122.558720"><ele>214.7</ele></trkpt><trkpt lat="37.879420" lon="-122.558980"><ele>217.1</ele></trkpt><trkpt lat="37.879180" lon="-122.559350"><ele>219.2</ele></trkpt><trkpt lat="37.879070" lon="-122.559430"><ele>218.9</ele></trkpt><trkpt lat="37.878890" lon="-122.559720"><ele>218.2</ele></trkpt><trkpt lat="37.878750" lon="-122.560010"><ele>218.7</ele></trkpt><trkpt lat="37.878610" lon="-122.560130"><ele>219.0</ele></trkpt><trkpt lat="37.878420" lon="-122.560200"><ele>219.2</ele></trkpt><trkpt lat="37.878290" lon="-122.560180"><ele>219.2</ele></trkpt><trkpt lat="37.878060" lon="-122.560270"><ele>219.2</ele></trkpt><trkpt lat="37.877950" lon="-122.560250"><ele>218.9</ele></trkpt><trkpt lat="37.877850" lon="-122.560170"><ele>218.4</ele></trkpt><trkpt lat="37.877760" lon="-122.559870"><ele>217.2</ele></trkpt><trkpt lat="37.877690" lon="-122.559850"><ele>216.9</ele></trkpt><trkpt lat="37.877540" lon="-122.559860"><ele>216.7</ele></trkpt><trkpt lat="37.877370" lon="-122.559960"><ele>216.7</ele></trkpt><trkpt lat="37.877260" lon="-122.559980"><ele>216.7</ele></trkpt><trkpt lat="37.877180" lon="-122.559950"><ele>216.7</ele></trkpt><trkpt lat="37.877070" lon="-122.559810"><ele>216.2</ele></trkpt><trkpt lat="37.876960" lon="-122.559840"><ele>215.6</ele></trkpt><trkpt lat="37.876930" lon="-122.560020"><ele>214.7</ele></trkpt><trkpt lat="37.877020" lon="-122.560150"><ele>214.0</ele></trkpt><trkpt lat="37.877080" lon="-122.560180"><ele>213.6</ele></trkpt><trkpt lat="37.877190" lon="-122.560310"><ele>212.1</ele></trkpt><trkpt lat="37.877240" lon="-122.560390"><ele>211.3</ele></trkpt><trkpt lat="37.877260" lon="-122.560490"><ele>210.5</ele></trkpt><trkpt lat="37.877190" lon="-122.560740"><ele>208.5</ele></trkpt><trkpt lat="37.877160" lon="-122.560820"><ele>207.8</ele></trkpt><trkpt lat="37.877180" lon="-122.560970"><ele>206.7</ele></trkpt><trkpt lat="37.877260" lon="-122.561090"><ele>205.5</ele></trkpt><trkpt lat="37.877310" lon="-122.561300"><ele>203.8</ele></trkpt><trkpt lat="37.877350" lon="-122.561620"><ele>201.5</ele></trkpt><trkpt lat="37.877300" lon="-122.561940"><ele>199.2</ele></trkpt><trkpt lat="37.877360" lon="-122.562060"><ele>198.2</ele></trkpt><trkpt lat="37.877380" lon="-122.562230"><ele>197.1</ele></trkpt><trkpt lat="37.877440" lon="-122.562330"><ele>196.2</ele></trkpt><trkpt lat="37.877500" lon="-122.562480"><ele>195.1</ele></trkpt><trkpt lat="37.877490" lon="-122.562510"><ele>194.9</ele></trkpt><trkpt lat="37.877440" lon="-122.562510"><ele>194.4</ele></trkpt><trkpt lat="37.877330" lon="-122.562450"><ele>193.5</ele></trkpt><trkpt lat="37.877360" lon="-122.562540"><ele>192.9</ele></trkpt><trkpt lat="37.877370" lon="-122.562890"><ele>190.9</ele></trkpt><trkpt lat="37.877350" lon="-122.562970"><ele>190.4</ele></trkpt><trkpt lat="37.877310" lon="-122.563070"><ele>189.9</ele></trkpt><trkpt lat="37.877280" lon="-122.563260"><ele>190.3</ele></trkpt><trkpt lat="37.877300" lon="-122.563480"><ele>190.7</ele></trkpt><trkpt lat="37.877520" lon="-122.563880"><ele>191.5</ele></trkpt><trkpt lat="37.877530" lon="-122.564040"><ele>191.8</ele></trkpt><trkpt lat="37.877500" lon="-122.564530"><ele>193.6</ele></trkpt><trkpt lat="37.877460" lon="-122.564600"><ele>194.1</ele></trkpt><trkpt lat="37.877350" lon="-122.564650"><ele>194.9</ele></trkpt><trkpt lat="37.877510" lon="-122.564900"><ele>196.8</ele></trkpt><trkpt lat="37.877610" lon="-122.565120"><ele>198.1</ele></trkpt><trkpt lat="37.877660" lon="-122.565290"><ele>199.1</ele></trkpt><trkpt lat="37.877670" lon="-122.565470"><ele>200.2</ele></trkpt><trkpt lat="37.877720" lon="-122.565620"><ele>201.7</ele></trkpt><trkpt lat="37.877680" lon="-122.565650"><ele>202.2</ele></trkpt><trkpt lat="37.877570" lon="-122.565490"><ele>204.2</ele></trkpt><trkpt lat="37.877430" lon="-122.565460"><ele>205.8</ele></trkpt><trkpt lat="37.877280" lon="-122.565540"><ele>206.9</ele></trkpt><trkpt lat="37.877170" lon="-122.565550"><ele>207.5</ele></trkpt><trkpt lat="37.877040" lon="-122.565430"><ele>208.3</ele></trkpt><trkpt lat="37.876900" lon="-122.565340"><ele>209.1</ele></trkpt><trkpt lat="37.876720" lon="-122.565150"><ele>211.7</ele></trkpt><trkpt lat="37.876640" lon="-122.565030"><ele>213.0</ele></trkpt><trkpt lat="37.876470" lon="-122.564890"><ele>215.1</ele></trkpt><trkpt lat="37.876320" lon="-122.564740"><ele>216.3</ele></trkpt><trkpt lat="37.876230" lon="-122.564750"><ele>216.9</ele></trkpt><trkpt lat="37.876160" lon="-122.564800"><ele>217.5</ele></trkpt><trkpt lat="37.876050" lon="-122.564930"><ele>218.5</ele></trkpt><trkpt lat="37.875840" lon="-122.565280"><ele>221.2</ele></trkpt><trkpt lat="37.875790" lon="-122.565350"><ele>221.8</ele></trkpt><trkpt lat="37.875550" lon="-122.565580"><ele>224.0</ele></trkpt><trkpt lat="37.875040" lon="-122.565990"><ele>229.9</ele></trkpt><trkpt lat="37.874750" lon="-122.566270"><ele>234.7</ele></trkpt><trkpt lat="37.874250" lon="-122.566670"><ele>239.6</ele></trkpt><trkpt lat="37.874160" lon="-122.566730"><ele>240.2</ele></trkpt><trkpt lat="37.873870" lon="-122.566850"><ele>241.9</ele></trkpt><trkpt lat="37.873700" lon="-122.566950"><ele>241.5</ele></trkpt><trkpt lat="37.873520" lon="-122.567180"><ele>240.8</ele></trkpt><trkpt lat="37.873390" lon="-122.567280"><ele>240.4</ele></trkpt><trkpt lat="37.873330" lon="-122.567370"><ele>240.2</ele></trkpt><trkpt lat="37.873220" lon="-122.567450"><ele>239.9</ele></trkpt><trkpt lat="37.872930" lon="-122.567510"><ele>239.3</ele></trkpt><trkpt lat="37.872750" lon="-122.567460"><ele>237.5</ele></trkpt><trkpt lat="37.872630" lon="-122.567470"><ele>236.4</ele></trkpt><trkpt lat="37.872570" lon="-122.567510"><ele>235.7</ele></trkpt><trkpt lat="37.872490" lon="-122.567650"><ele>234.4</ele></trkpt><trkpt lat="37.872470" lon="-122.567840"><ele>232.9</ele></trkpt><trkpt lat="37.872500" lon="-122.567930"><ele>232.2</ele></trkpt><trkpt lat="37.872540" lon="-122.568020"><ele>231.4</ele></trkpt><trkpt lat="37.872540" lon="-122.568050"><ele>231.2</ele></trkpt><trkpt lat="37.872500" lon="-122.568040"><ele>230.8</ele></trkpt><trkpt lat="37.872310" lon="-122.567760"><ele>228.3</ele></trkpt><trkpt lat="37.872210" lon="-122.567370"><ele>226.3</ele></trkpt><trkpt lat="37.872190" lon="-122.567080"><ele>224.8</ele></trkpt><trkpt lat="37.872220" lon="-122.566970"><ele>224.2</ele></trkpt><trkpt lat="37.872270" lon="-122.566870"><ele>223.6</ele></trkpt><trkpt lat="37.872360" lon="-122.566800"><ele>222.9</ele></trkpt><trkpt lat="37.872460" lon="-122.566770"><ele>222.2</ele></trkpt><trkpt lat="37.872470" lon="-122.566730"><ele>222.0</ele></trkpt><trkpt lat="37.872360" lon="-122.566670"><ele>221.2</ele></trkpt><trkpt lat="37.872330" lon="-122.566620"><ele>220.9</ele></trkpt><trkpt lat="37.872320" lon="-122.566560"><ele>220.6</ele></trkpt><trkpt lat="37.872270" lon="-122.566540"><ele>220.3</ele></trkpt><trkpt lat="37.872230" lon="-122.566550"><ele>220.0</ele></trkpt><trkpt lat="37.872190" lon="-122.566570"><ele>219.7</ele></trkpt><trkpt lat="37.872130" lon="-122.566680"><ele>219.1</ele></trkpt><trkpt lat="37.871950" lon="-122.566820"><ele>217.3</ele></trkpt><trkpt lat="37.871810" lon="-122.566920"><ele>215.6</ele></trkpt><trkpt lat="37.871680" lon="-122.566970"><ele>214.2</ele></trkpt><trkpt lat="37.871640" lon="-122.567010"><ele>213.7</ele></trkpt><trkpt lat="37.871600" lon="-122.567150"><ele>212.6</ele></trkpt><trkpt lat="37.871560" lon="-122.567180"><ele>212.1</ele></trkpt><trkpt lat="37.871500" lon="-122.567190"><ele>211.6</ele></trkpt><trkpt lat="37.871320" lon="-122.567100"><ele>209.7</ele></trkpt><trkpt lat="37.870910" lon="-122.567020"><ele>205.1</ele></trkpt><trkpt lat="37.870760" lon="-122.566980"><ele>203.1</ele></trkpt><trkpt lat="37.870610" lon="-122.566980"><ele>201.1</ele></trkpt><trkpt lat="37.870450" lon="-122.566920"><ele>198.7</ele></trkpt><trkpt lat="37.870380" lon="-122.566920"><ele>197.7</ele></trkpt><trkpt lat="37.870190" lon="-122.566960"><ele>194.8</ele></trkpt><trkpt lat="37.869950" lon="-122.566990"><ele>191.0</ele></trkpt><trkpt lat="37.869870" lon="-122.567020"><ele>189.5</ele></trkpt><trkpt lat="37.869550" lon="-122.567000"><ele>183.9</ele></trkpt><trkpt lat="37.869540" lon="-122.567000"><ele>183.7</ele></trkpt><trkpt lat="37.869330" lon="-122.567070"><ele>179.2</ele></trkpt><trkpt lat="37.869170" lon="-122.567070"><ele>175.9</ele></trkpt><trkpt lat="37.869110" lon="-122.567110"><ele>174.4</ele></trkpt><trkpt lat="37.869000" lon="-122.567240"><ele>171.3</ele></trkpt><trkpt lat="37.868940" lon="-122.567420"><ele>167.9</ele></trkpt><trkpt lat="37.868900" lon="-122.568240"><ele>153.9</ele></trkpt><trkpt lat="37.868830" lon="-122.568440"><ele>150.2</ele></trkpt><trkpt lat="37.868830" lon="-122.568520"><ele>148.8</ele></trkpt><trkpt lat="37.868890" lon="-122.568600"><ele>147.6</ele></trkpt><trkpt lat="37.868810" lon="-122.568570"><ele>146.5</ele></trkpt><trkpt lat="37.868760" lon="-122.568570"><ele>145.9</ele></trkpt><trkpt lat="37.868570" lon="-122.568600"><ele>143.3</ele></trkpt><trkpt lat="37.868370" lon="-122.568770"><ele>140.8</ele></trkpt><trkpt lat="37.868160" lon="-122.569000"><ele>139.1</ele></trkpt><trkpt lat="37.868090" lon="-122.569030"><ele>138.6</ele></trkpt><trkpt lat="37.867840" lon="-122.569080"><ele>137.3</ele></trkpt><trkpt lat="37.867690" lon="-122.569040"><ele>136.6</ele></trkpt><trkpt lat="37.867610" lon="-122.569010"><ele>136.3</ele></trkpt><trkpt lat="37.867520" lon="-122.568850"><ele>135.6</ele></trkpt><trkpt lat="37.867480" lon="-122.568610"><ele>134.8</ele></trkpt><trkpt lat="37.867480" lon="-122.568380"><ele>134.1</ele></trkpt><trkpt lat="37.867500" lon="-122.568320"><ele>133.9</ele></trkpt><trkpt lat="37.867610" lon="-122.568150"><ele>133.1</ele></trkpt><trkpt lat="37.867630" lon="-122.568100"><ele>132.9</ele></trkpt><trkpt lat="37.867620" lon="-122.568090"><ele>132.9</ele></trkpt><trkpt lat="37.867520" lon="-122.568160"><ele>132.4</ele></trkpt><trkpt lat="37.867450" lon="-122.568190"><ele>132.0</ele></trkpt><trkpt lat="37.867370" lon="-122.568200"><ele>131.7</ele></trkpt><trkpt lat="37.867300" lon="-122.568250"><ele>131.3</ele></trkpt><trkpt lat="37.867250" lon="-122.568320"><ele>131.0</ele></trkpt><trkpt lat="37.867170" lon="-122.568650"><ele>129.6</ele></trkpt><trkpt lat="37.867130" lon="-122.568690"><ele>129.3</ele></trkpt><trkpt lat="37.867070" lon="-122.568710"><ele>129.0</ele></trkpt><trkpt lat="37.866890" lon="-122.568700"><ele>127.9</ele></trkpt><trkpt lat="37.866730" lon="-122.568640"><ele>126.3</ele></trkpt><trkpt lat="37.866630" lon="-122.568650"><ele>125.4</ele></trkpt><trkpt lat="37.866450" lon="-122.568850"><ele>123.0</ele></trkpt><trkpt lat="37.866360" lon="-122.568930"><ele>121.4</ele></trkpt><trkpt lat="37.866290" lon="-122.569010"><ele>120.1</ele></trkpt><trkpt lat="37.866250" lon="-122.569100"><ele>118.9</ele></trkpt><trkpt lat="37.866230" lon="-122.569290"><ele>116.8</ele></trkpt><trkpt lat="37.866180" lon="-122.569400"><ele>115.3</ele></trkpt><trkpt lat="37.866080" lon="-122.569550"><ele>111.6</ele></trkpt><trkpt lat="37.865960" lon="-122.569680"><ele>107.8</ele></trkpt><trkpt lat="37.865960" lon="-122.569790"><ele>105.7</ele></trkpt><trkpt lat="37.865970" lon="-122.569880"><ele>104.0</ele></trkpt><trkpt lat="37.866080" lon="-122.570050"><ele>100.2</ele></trkpt><trkpt lat="37.866130" lon="-122.570160"><ele>98.1</ele></trkpt><trkpt lat="37.866200" lon="-122.570470"><ele>92.7</ele></trkpt><trkpt lat="37.866250" lon="-122.570490"><ele>91.6</ele></trkpt><trkpt lat="37.866310" lon="-122.570480"><ele>90.4</ele></trkpt><trkpt lat="37.866260" lon="-122.570560"><ele>88.9</ele></trkpt><trkpt lat="37.866230" lon="-122.570620"><ele>87.8</ele></trkpt><trkpt lat="37.866220" lon="-122.570700"><ele>86.5</ele></trkpt><trkpt lat="37.866220" lon="-122.570960"><ele>82.6</ele></trkpt><trkpt lat="37.866190" lon="-122.571020"><ele>81.5</ele></trkpt><trkpt lat="37.866140" lon="-122.571060"><ele>80.4</ele></trkpt><trkpt lat="37.866090" lon="-122.571060"><ele>79.7</ele></trkpt><trkpt lat="37.866040" lon="-122.571040"><ele>78.9</ele></trkpt><trkpt lat="37.865920" lon="-122.570880"><ele>76.3</ele></trkpt><trkpt lat="37.865860" lon="-122.570760"><ele>74.6</ele></trkpt><trkpt lat="37.865840" lon="-122.570750"><ele>74.3</ele></trkpt><trkpt lat="37.865830" lon="-122.570780"><ele>73.9</ele></trkpt><trkpt lat="37.865880" lon="-122.571090"><ele>71.6</ele></trkpt><trkpt lat="37.865930" lon="-122.571320"><ele>70.6</ele></trkpt><trkpt lat="37.865970" lon="-122.571400"><ele>70.1</ele></trkpt><trkpt lat="37.865960" lon="-122.571420"><ele>70.0</ele></trkpt><trkpt lat="37.865800" lon="-122.571270"><ele>69.0</ele></trkpt><trkpt lat="37.865650" lon="-122.570930"><ele>67.4</ele></trkpt><trkpt lat="37.865620" lon="-122.570900"><ele>67.2</ele></trkpt><trkpt lat="37.865590" lon="-122.570920"><ele>67.0</ele></trkpt><trkpt lat="37.865640" lon="-122.571060"><ele>66.4</ele></trkpt><trkpt lat="37.865630" lon="-122.571270"><ele>65.4</ele></trkpt><trkpt lat="37.865590" lon="-122.571400"><ele>64.8</ele></trkpt><trkpt lat="37.865460" lon="-122.571710"><ele>63.5</ele></trkpt><trkpt lat="37.865460" lon="-122.571780"><ele>63.3</ele></trkpt><trkpt lat="37.865500" lon="-122.571860"><ele>63.1</ele></trkpt><trkpt lat="37.865440" lon="-122.572010"><ele>62.7</ele></trkpt><trkpt lat="37.865400" lon="-122.572030"><ele>62.6</ele></trkpt><trkpt lat="37.865350" lon="-122.572010"><ele>62.5</ele></trkpt><trkpt lat="37.865280" lon="-122.571920"><ele>62.2</ele></trkpt><trkpt lat="37.865260" lon="-122.571860"><ele>61.5</ele></trkpt><trkpt lat="37.865270" lon="-122.571720"><ele>59.6</ele></trkpt><trkpt lat="37.865300" lon="-122.571500"><ele>56.7</ele></trkpt><trkpt lat="37.865290" lon="-122.571490"><ele>56.5</ele></trkpt><trkpt lat="37.865240" lon="-122.571640"><ele>54.4</ele></trkpt><trkpt lat="37.865200" lon="-122.571710"><ele>53.2</ele></trkpt><trkpt lat="37.865010" lon="-122.571920"><ele>48.5</ele></trkpt><trkpt lat="37.864920" lon="-122.572050"><ele>46.0</ele></trkpt><trkpt lat="37.864850" lon="-122.572110"><ele>44.4</ele></trkpt><trkpt lat="37.864820" lon="-122.572200"><ele>43.1</ele></trkpt><trkpt lat="37.864700" lon="-122.572250"><ele>41.9</ele></trkpt><trkpt lat="37.864670" lon="-122.572270"><ele>41.6</ele></trkpt><trkpt lat="37.864630" lon="-122.572410"><ele>40.5</ele></trkpt><trkpt lat="37.864580" lon="-122.572500"><ele>39.7</ele></trkpt><trkpt lat="37.864580" lon="-122.572530"><ele>39.5</ele></trkpt><trkpt lat="37.864590" lon="-122.572540"><ele>39.3</ele></trkpt><trkpt lat="37.864660" lon="-122.572520"><ele>38.7</ele></trkpt><trkpt lat="37.864820" lon="-122.572520"><ele>37.1</ele></trkpt><trkpt lat="37.864970" lon="-122.572580"><ele>35.6</ele></trkpt><trkpt lat="37.865040" lon="-122.572660"><ele>34.7</ele></trkpt><trkpt lat="37.865140" lon="-122.572850"><ele>33.0</ele></trkpt><trkpt lat="37.865280" lon="-122.572990"><ele>31.3</ele></trkpt><trkpt lat="37.865540" lon="-122.573000"><ele>28.8</ele></trkpt><trkpt lat="37.865720" lon="-122.572830"><ele>26.7</ele></trkpt><trkpt lat="37.865750" lon="-122.572810"><ele>26.4</ele></trkpt><trkpt lat="37.865760" lon="-122.572840"><ele>26.2</ele></trkpt><trkpt lat="37.865540" lon="-122.573120"><ele>23.6</ele></trkpt><trkpt lat="37.865480" lon="-122.573150"><ele>23.2</ele></trkpt><trkpt lat="37.865340" lon="-122.573130"><ele>23.2</ele></trkpt><trkpt lat="37.865230" lon="-122.573180"><ele>23.2</ele></trkpt><trkpt lat="37.865050" lon="-122.573170"><ele>23.2</ele></trkpt><trkpt lat="37.864990" lon="-122.573180"><ele>23.2</ele></trkpt><trkpt lat="37.864930" lon="-122.573250"><ele>23.2</ele></trkpt><trkpt lat="37.864900" lon="-122.573350"><ele>23.2</ele></trkpt><trkpt lat="37.864850" lon="-122.573360"><ele>23.2</ele></trkpt><trkpt lat="37.864770" lon="-122.573350"><ele>23.2</ele></trkpt><trkpt lat="37.864710" lon="-122.573380"><ele>23.2</ele></trkpt><trkpt lat="37.864620" lon="-122.573380"><ele>23.2</ele></trkpt><trkpt lat="37.864500" lon="-122.573430"><ele>23.1</ele></trkpt><trkpt lat="37.864430" lon="-122.573420"><ele>22.7</ele></trkpt><trkpt lat="37.864340" lon="-122.573360"><ele>22.2</ele></trkpt><trkpt lat="37.864190" lon="-122.573310"><ele>21.3</ele></trkpt><trkpt lat="37.864090" lon="-122.573300"><ele>20.7</ele></trkpt><trkpt lat="37.864050" lon="-122.573240"><ele>20.4</ele></trkpt><trkpt lat="37.863950" lon="-122.573240"><ele>19.7</ele></trkpt><trkpt lat="37.863780" lon="-122.573130"><ele>18.1</ele></trkpt><trkpt lat="37.863690" lon="-122.573060"><ele>17.2</ele></trkpt><trkpt lat="37.863670" lon="-122.573060"><ele>17.0</ele></trkpt><trkpt lat="37.863910" lon="-122.573470"><ele>15.3</ele></trkpt><trkpt lat="37.864210" lon="-122.573740"><ele>14.6</ele></trkpt><trkpt lat="37.864510" lon="-122.574050"><ele>11.9</ele></trkpt><trkpt lat="37.864600" lon="-122.574110"><ele>11.3</ele></trkpt><trkpt lat="37.864620" lon="-122.574190"><ele>11.0</ele></trkpt><trkpt lat="37.864700" lon="-122.574310"><ele>10.5</ele></trkpt><trkpt lat="37.864790" lon="-122.574370"><ele>10.1</ele></trkpt><trkpt lat="37.864830" lon="-122.574480"><ele>9.7</ele></trkpt><trkpt lat="37.864720" lon="-122.574510"><ele>9.3</ele></trkpt><trkpt lat="37.864520" lon="-122.574660"><ele>9.4</ele></trkpt><trkpt lat="37.863550" lon="-122.575230"><ele>15.6</ele></trkpt><trkpt lat="37.863480" lon="-122.575280"><ele>16.7</ele></trkpt><trkpt lat="37.863410" lon="-122.575310"><ele>17.6</ele></trkpt><trkpt lat="37.863450" lon="-122.575330"><ele>18.1</ele></trkpt><trkpt lat="37.863450" lon="-122.575390"><ele>18.7</ele></trkpt><trkpt lat="37.863490" lon="-122.575420"><ele>19.3</ele></trkpt><trkpt lat="37.863480" lon="-122.575440"><ele>19.5</ele></trkpt><trkpt lat="37.863400" lon="-122.575440"><ele>20.6</ele></trkpt><trkpt lat="37.863300" lon="-122.575510"><ele>22.3</ele></trkpt><trkpt lat="37.863320" lon="-122.575590"><ele>23.3</ele></trkpt><trkpt lat="37.863400" lon="-122.575660"><ele>24.7</ele></trkpt><trkpt lat="37.863410" lon="-122.575690"><ele>25.1</ele></trkpt><trkpt lat="37.863360" lon="-122.575720"><ele>25.9</ele></trkpt><trkpt lat="37.863280" lon="-122.575710"><ele>27.1</ele></trkpt><trkpt lat="37.863250" lon="-122.575860"><ele>28.9</ele></trkpt><trkpt lat="37.863280" lon="-122.576040"><ele>30.7</ele></trkpt><trkpt lat="37.863300" lon="-122.576110"><ele>31.4</ele></trkpt><trkpt lat="37.863340" lon="-122.576130"><ele>32.0</ele></trkpt><trkpt lat="37.863340" lon="-122.576220"><ele>32.8</ele></trkpt><trkpt lat="37.863240" lon="-122.576230"><ele>34.1</ele></trkpt><trkpt lat="37.863120" lon="-122.576270"><ele>35.8</ele></trkpt><trkpt lat="37.862980" lon="-122.576380"><ele>38.4</ele></trkpt><trkpt lat="37.862900" lon="-122.576500"><ele>40.4</ele></trkpt><trkpt lat="37.862850" lon="-122.576610"><ele>42.0</ele></trkpt><trkpt lat="37.862800" lon="-122.576850"><ele>44.6</ele></trkpt><trkpt lat="37.862790" lon="-122.577020"><ele>45.9</ele></trkpt><trkpt lat="37.862840" lon="-122.577220"><ele>47.6</ele></trkpt><trkpt lat="37.862930" lon="-122.577390"><ele>49.3</ele></trkpt><trkpt lat="37.863080" lon="-122.577570"><ele>51.7</ele></trkpt><trkpt lat="37.863230" lon="-122.577720"><ele>53.9</ele></trkpt><trkpt lat="37.863490" lon="-122.577920"><ele>55.7</ele></trkpt><trkpt lat="37.863620" lon="-122.578050"><ele>55.9</ele></trkpt><trkpt lat="37.863750" lon="-122.578240"><ele>56.1</ele></trkpt><trkpt lat="37.863910" lon="-122.578600"><ele>56.5</ele></trkpt><trkpt lat="37.863990" lon="-122.578730"><ele>56.6</ele></trkpt><trkpt lat="37.864090" lon="-122.578820"><ele>56.9</ele></trkpt><trkpt lat="37.864320" lon="-122.578960"><ele>58.3</ele></trkpt><trkpt lat="37.864420" lon="-122.579070"><ele>59.1</ele></trkpt><trkpt lat="37.864490" lon="-122.579200"><ele>59.8</ele></trkpt><trkpt lat="37.864530" lon="-122.579350"><ele>61.5</ele></trkpt><trkpt lat="37.864520" lon="-122.579470"><ele>62.8</ele></trkpt><trkpt lat="37.864370" lon="-122.579860"><ele>67.3</ele></trkpt><trkpt lat="37.864320" lon="-122.580020"><ele>68.4</ele></trkpt><trkpt lat="37.864290" lon="-122.580180"><ele>69.4</ele></trkpt><trkpt lat="37.864280" lon="-122.580510"><ele>71.6</ele></trkpt><trkpt lat="37.864310" lon="-122.580750"><ele>73.9</ele></trkpt><trkpt lat="37.864370" lon="-122.580900"><ele>75.5</ele></trkpt><trkpt lat="37.864580" lon="-122.581210"><ele>78.6</ele></trkpt><trkpt lat="37.864820" lon="-122.581690"><ele>81.7</ele></trkpt><trkpt lat="37.865140" lon="-122.582070"><ele>85.6</ele></trkpt><trkpt lat="37.865190" lon="-122.582160"><ele>86.3</ele></trkpt><trkpt lat="37.865210" lon="-122.582270"><ele>86.4</ele></trkpt><trkpt lat="37.865210" lon="-122.582380"><ele>86.5</ele></trkpt><trkpt lat="37.865160" lon="-122.582620"><ele>86.7</ele></trkpt><trkpt lat="37.864870" lon="-122.583350"><ele>93.2</ele></trkpt><trkpt lat="37.864720" lon="-122.583610"><ele>98.3</ele></trkpt><trkpt lat="37.864300" lon="-122.584070"><ele>110.1</ele></trkpt><trkpt lat="37.864180" lon="-122.584250"><ele>114.1</ele></trkpt><trkpt lat="37.864140" lon="-122.584370"><ele>116.2</ele></trkpt><trkpt lat="37.864070" lon="-122.584640"><ele>120.5</ele></trkpt><trkpt lat="37.864040" lon="-122.584880"><ele>124.1</ele></trkpt><trkpt lat="37.864070" lon="-122.585080"><ele>127.0</ele></trkpt><trkpt lat="37.864270" lon="-122.585480"><ele>130.5</ele></trkpt><trkpt lat="37.864300" lon="-122.585580"><ele>131.3</ele></trkpt><trkpt lat="37.864330" lon="-122.585940"><ele>132.8</ele></trkpt><trkpt lat="37.864360" lon="-122.586090"><ele>133.3</ele></trkpt><trkpt lat="37.864500" lon="-122.586520"><ele>134.5</ele></trkpt><trkpt lat="37.864560" lon="-122.586610"><ele>134.7</ele></trkpt><trkpt lat="37.864640" lon="-122.586700"><ele>134.9</ele></trkpt><trkpt lat="37.864830" lon="-122.586800"><ele>135.6</ele></trkpt><trkpt lat="37.865150" lon="-122.586840"><ele>138.2</ele></trkpt><trkpt lat="37.865580" lon="-122.586990"><ele>139.7</ele></trkpt><trkpt lat="37.866230" lon="-122.587280"><ele>141.7</ele></trkpt><trkpt lat="37.867470" lon="-122.587570"><ele>138.0</ele></trkpt><trkpt lat="37.867780" lon="-122.587700"><ele>136.7</ele></trkpt><trkpt lat="37.867890" lon="-122.587820"><ele>136.1</ele></trkpt><trkpt lat="37.868060" lon="-122.588370"><ele>133.5</ele></trkpt><trkpt lat="37.868180" lon="-122.588580"><ele>133.0</ele></trkpt><trkpt lat="37.869460" lon="-122.589560"><ele>136.7</ele></trkpt><trkpt lat="37.869550" lon="-122.589520"><ele>137.0</ele></trkpt><trkpt lat="37.869610" lon="-122.589520"><ele>137.1</ele></trkpt><trkpt lat="37.869690" lon="-122.589550"><ele>137.3</ele></trkpt><trkpt lat="37.870150" lon="-122.589820"><ele>138.9</ele></trkpt><trkpt lat="37.871100" lon="-122.590260"><ele>143.8</ele></trkpt><trkpt lat="37.871480" lon="-122.590480"><ele>146.2</ele></trkpt><trkpt lat="37.872430" lon="-122.590730"><ele>150.5</ele></trkpt><trkpt lat="37.872880" lon="-122.590790"><ele>152.7</ele></trkpt><trkpt lat="37.873260" lon="-122.590790"><ele>155.3</ele></trkpt><trkpt lat="37.873440" lon="-122.591020"><ele>157.6</ele></trkpt><trkpt lat="37.873690" lon="-122.591220"><ele>159.9</ele></trkpt><trkpt lat="37.874510" lon="-122.591600"><ele>166.0</ele></trkpt><trkpt lat="37.874730" lon="-122.591660"><ele>168.4</ele></trkpt><trkpt lat="37.874970" lon="-122.591810"><ele>171.6</ele></trkpt><trkpt lat="37.875090" lon="-122.591920"><ele>173.3</ele></trkpt><trkpt lat="37.875320" lon="-122.592070"><ele>175.9</ele></trkpt><trkpt lat="37.875600" lon="-122.592200"><ele>179.3</ele></trkpt><trkpt lat="37.875600" lon="-122.592200"><ele>179.3</ele></trkpt><trkpt lat="37.876000" lon="-122.592450"><ele>186.2</ele></trkpt><trkpt lat="37.876280" lon="-122.592680"><ele>190.7</ele></trkpt><trkpt lat="37.876500" lon="-122.592920"><ele>194.5</ele></trkpt><trkpt lat="37.876630" lon="-122.593140"><ele>197.3</ele></trkpt><trkpt lat="37.876770" lon="-122.593490"><ele>201.2</ele></trkpt><trkpt lat="37.876800" lon="-122.593470"><ele>201.5</ele></trkpt><trkpt lat="37.876790" lon="-122.593340"><ele>202.4</ele></trkpt><trkpt lat="37.876840" lon="-122.593210"><ele>203.4</ele></trkpt><trkpt lat="37.876920" lon="-122.592870"><ele>206.1</ele></trkpt><trkpt lat="37.876990" lon="-122.592700"><ele>208.9</ele></trkpt><trkpt lat="37.877060" lon="-122.592650"><ele>210.4</ele></trkpt><trkpt lat="37.877130" lon="-122.592670"><ele>211.8</ele></trkpt><trkpt lat="37.877220" lon="-122.592750"><ele>213.8</ele></trkpt><trkpt lat="37.877290" lon="-122.592790"><ele>215.3</ele></trkpt><trkpt lat="37.877410" lon="-122.592770"><ele>215.8</ele></trkpt><trkpt lat="37.877470" lon="-122.592780"><ele>215.8</ele></trkpt><trkpt lat="37.877530" lon="-122.592830"><ele>215.8</ele></trkpt><trkpt lat="37.877560" lon="-122.592930"><ele>215.8</ele></trkpt><trkpt lat="37.877560" lon="-122.593050"><ele>215.8</ele></trkpt><trkpt lat="37.877540" lon="-122.593160"><ele>215.8</ele></trkpt><trkpt lat="37.877550" lon="-122.593260"><ele>216.2</ele></trkpt><trkpt lat="37.877590" lon="-122.593320"><ele>216.7</ele></trkpt><trkpt lat="37.877690" lon="-122.593360"><ele>217.8</ele></trkpt><trkpt lat="37.878390" lon="-122.593340"><ele>224.0</ele></trkpt><trkpt lat="37.878610" lon="-122.593280"><ele>225.8</ele></trkpt><trkpt lat="37.878700" lon="-122.593290"><ele>226.3</ele></trkpt><trkpt lat="37.878750" lon="-122.593350"><ele>226.8</ele></trkpt><trkpt lat="37.878780" lon="-122.593420"><ele>227.2</ele></trkpt><trkpt lat="37.878840" lon="-122.593510"><ele>227.8</ele></trkpt><trkpt lat="37.879000" lon="-122.593590"><ele>228.8</ele></trkpt><trkpt lat="37.879100" lon="-122.593580"><ele>228.7</ele></trkpt><trkpt lat="37.879280" lon="-122.593510"><ele>228.3</ele></trkpt><trkpt lat="37.879350" lon="-122.593540"><ele>228.1</ele></trkpt><trkpt lat="37.879560" lon="-122.593750"><ele>228.5</ele></trkpt><trkpt lat="37.879690" lon="-122.593780"><ele>229.9</ele></trkpt><trkpt lat="37.879840" lon="-122.593750"><ele>231.5</ele></trkpt><trkpt lat="37.880010" lon="-122.593700"><ele>233.3</ele></trkpt><trkpt lat="37.880210" lon="-122.593690"><ele>234.2</ele></trkpt><trkpt lat="37.880530" lon="-122.593580"><ele>235.5</ele></trkpt><trkpt lat="37.880710" lon="-122.593570"><ele>236.4</ele></trkpt><trkpt lat="37.880780" lon="-122.593520"><ele>236.8</ele></trkpt><trkpt lat="37.880930" lon="-122.593330"><ele>237.9</ele></trkpt><trkpt lat="37.880980" lon="-122.593330"><ele>238.2</ele></trkpt><trkpt lat="37.881020" lon="-122.593380"><ele>238.5</ele></trkpt><trkpt lat="37.881040" lon="-122.593440"><ele>239.0</ele></trkpt><trkpt lat="37.880960" lon="-122.593600"><ele>240.5</ele></trkpt><trkpt lat="37.880960" lon="-122.593710"><ele>241.3</ele></trkpt><trkpt lat="37.880980" lon="-122.593840"><ele>242.3</ele></trkpt><trkpt lat="37.881030" lon="-122.593950"><ele>243.3</ele></trkpt><trkpt lat="37.881080" lon="-122.593980"><ele>244.0</ele></trkpt><trkpt lat="37.881120" lon="-122.593990"><ele>244.7</ele></trkpt><trkpt lat="37.881140" lon="-122.593950"><ele>245.3</ele></trkpt><trkpt lat="37.881100" lon="-122.593800"><ele>247.4</ele></trkpt><trkpt lat="37.881140" lon="-122.593720"><ele>248.7</ele></trkpt><trkpt lat="37.881250" lon="-122.593630"><ele>250.8</ele></trkpt><trkpt lat="37.881400" lon="-122.593560"><ele>253.3</ele></trkpt><trkpt lat="37.881500" lon="-122.593420"><ele>255.0</ele></trkpt><trkpt lat="37.881560" lon="-122.593270"><ele>256.6</ele></trkpt><trkpt lat="37.881580" lon="-122.592990"><ele>259.3</ele></trkpt><trkpt lat="37.881670" lon="-122.592730"><ele>262.5</ele></trkpt><trkpt lat="37.881770" lon="-122.592650"><ele>264.2</ele></trkpt><trkpt lat="37.881880" lon="-122.592590"><ele>265.9</ele></trkpt><trkpt lat="37.881990" lon="-122.592570"><ele>267.4</ele></trkpt><trkpt lat="37.882520" lon="-122.592640"><ele>274.1</ele></trkpt><trkpt lat="37.882770" lon="-122.592580"><ele>276.5</ele></trkpt><trkpt lat="37.882930" lon="-122.592600"><ele>278.0</ele></trkpt><trkpt lat="37.882990" lon="-122.592570"><ele>278.6</ele></trkpt><trkpt lat="37.883050" lon="-122.592480"><ele>279.0</ele></trkpt><trkpt lat="37.883120" lon="-122.592320"><ele>279.4</ele></trkpt><trkpt lat="37.883130" lon="-122.592130"><ele>279.7</ele></trkpt><trkpt lat="37.883120" lon="-122.591950"><ele>280.0</ele></trkpt><trkpt lat="37.883160" lon="-122.591820"><ele>280.5</ele></trkpt><trkpt lat="37.883340" lon="-122.591690"><ele>281.6</ele></trkpt><trkpt lat="37.883440" lon="-122.591690"><ele>282.1</ele></trkpt><trkpt lat="37.883510" lon="-122.591730"><ele>282.5</ele></trkpt><trkpt lat="37.883780" lon="-122.592170"><ele>284.1</ele></trkpt><trkpt lat="37.883870" lon="-122.592420"><ele>284.7</ele></trkpt><trkpt lat="37.883940" lon="-122.592570"><ele>284.6</ele></trkpt><trkpt lat="37.884040" lon="-122.592670"><ele>284.5</ele></trkpt><trkpt lat="37.884180" lon="-122.592780"><ele>284.4</ele></trkpt><trkpt lat="37.884430" lon="-122.592950"><ele>283.7</ele></trkpt><trkpt lat="37.884560" lon="-122.593000"><ele>283.2</ele></trkpt><trkpt lat="37.884670" lon="-122.593120"><ele>282.7</ele></trkpt><trkpt lat="37.884790" lon="-122.593580"><ele>283.1</ele></trkpt><trkpt lat="37.884870" lon="-122.593660"><ele>283.3</ele></trkpt><trkpt lat="37.884960" lon="-122.593690"><ele>283.5</ele></trkpt><trkpt lat="37.885150" lon="-122.593620"><ele>283.3</ele></trkpt><trkpt lat="37.885260" lon="-122.593620"><ele>283.1</ele></trkpt><trkpt lat="37.885430" lon="-122.593590"><ele>282.9</ele></trkpt><trkpt lat="37.885520" lon="-122.593620"><ele>282.9</ele></trkpt><trkpt lat="37.885600" lon="-122.593670"><ele>283.1</ele></trkpt><trkpt lat="37.885720" lon="-122.593700"><ele>283.5</ele></trkpt><trkpt lat="37.885810" lon="-122.593800"><ele>283.8</ele></trkpt><trkpt lat="37.885890" lon="-122.593840"><ele>284.1</ele></trkpt><trkpt lat="37.886010" lon="-122.593830"><ele>284.5</ele></trkpt><trkpt lat="37.886090" lon="-122.593790"><ele>285.1</ele></trkpt><trkpt lat="37.886170" lon="-122.593700"><ele>285.9</ele></trkpt><trkpt lat="37.886390" lon="-122.593590"><ele>287.6</ele></trkpt><trkpt lat="37.886490" lon="-122.593580"><ele>288.4</ele></trkpt><trkpt lat="37.886620" lon="-122.593650"><ele>289.7</ele></trkpt><trkpt lat="37.886740" lon="-122.593650"><ele>290.8</ele></trkpt><trkpt lat="37.886970" lon="-122.593500"><ele>293.2</ele></trkpt><trkpt lat="37.887100" lon="-122.593460"><ele>294.4</ele></trkpt><trkpt lat="37.887330" lon="-122.593450"><ele>296.4</ele></trkpt><trkpt lat="37.887450" lon="-122.593520"><ele>297.5</ele></trkpt><trkpt lat="37.887530" lon="-122.593590"><ele>298.4</ele></trkpt><trkpt lat="37.887600" lon="-122.593700"><ele>299.8</ele></trkpt><trkpt lat="37.887630" lon="-122.593830"><ele>301.1</ele></trkpt><trkpt lat="37.887690" lon="-122.593940"><ele>302.5</ele></trkpt><trkpt lat="37.888090" lon="-122.594260"><ele>306.7</ele></trkpt><trkpt lat="37.888150" lon="-122.594390"><ele>307.6</ele></trkpt><trkpt lat="37.888170" lon="-122.594500"><ele>308.2</ele></trkpt><trkpt lat="37.888190" lon="-122.594570"><ele>308.6</ele></trkpt><trkpt lat="37.888260" lon="-122.594610"><ele>309.6</ele></trkpt><trkpt lat="37.888360" lon="-122.594610"><ele>310.8</ele></trkpt><trkpt lat="37.888460" lon="-122.594570"><ele>312.1</ele></trkpt><trkpt lat="37.888560" lon="-122.594500"><ele>313.4</ele></trkpt><trkpt lat="37.888750" lon="-122.594520"><ele>315.7</ele></trkpt><trkpt lat="37.888890" lon="-122.594580"><ele>317.4</ele></trkpt><trkpt lat="37.888950" lon="-122.594660"><ele>318.4</ele></trkpt><trkpt lat="37.889080" lon="-122.594750"><ele>320.1</ele></trkpt><trkpt lat="37.889580" lon="-122.594910"><ele>323.8</ele></trkpt><trkpt lat="37.889620" lon="-122.594950"><ele>324.1</ele></trkpt><trkpt lat="37.889600" lon="-122.595000"><ele>324.4</ele></trkpt><trkpt lat="37.889180" lon="-122.595090"><ele>325.3</ele></trkpt><trkpt lat="37.889110" lon="-122.595160"><ele>325.4</ele></trkpt><trkpt lat="37.889040" lon="-122.595200"><ele>325.6</ele></trkpt><trkpt lat="37.888820" lon="-122.595240"><ele>327.7</ele></trkpt><trkpt lat="37.888640" lon="-122.595450"><ele>330.1</ele></trkpt><trkpt lat="37.888540" lon="-122.595590"><ele>331.5</ele></trkpt><trkpt lat="37.888470" lon="-122.595640"><ele>332.3</ele></trkpt><trkpt lat="37.888250" lon="-122.595650"><ele>334.4</ele></trkpt><trkpt lat="37.888200" lon="-122.595700"><ele>335.0</ele></trkpt><trkpt lat="37.888210" lon="-122.595800"><ele>335.8</ele></trkpt><trkpt lat="37.888370" lon="-122.596320"><ele>337.4</ele></trkpt><trkpt lat="37.888420" lon="-122.596970"><ele>340.5</ele></trkpt><trkpt lat="37.888380" lon="-122.597300"><ele>342.4</ele></trkpt><trkpt lat="37.888300" lon="-122.597560"><ele>344.1</ele></trkpt><trkpt lat="37.888280" lon="-122.597820"><ele>345.7</ele></trkpt><trkpt lat="37.888290" lon="-122.597970"><ele>346.0</ele></trkpt><trkpt lat="37.888390" lon="-122.598210"><ele>346.4</ele></trkpt><trkpt lat="37.888450" lon="-122.598280"><ele>346.6</ele></trkpt><trkpt lat="37.888560" lon="-122.598310"><ele>346.9</ele></trkpt><trkpt lat="37.888720" lon="-122.598300"><ele>346.6</ele></trkpt><trkpt lat="37.888960" lon="-122.598340"><ele>346.2</ele></trkpt><trkpt lat="37.889200" lon="-122.598280"><ele>346.6</ele></trkpt><trkpt lat="37.889510" lon="-122.598280"><ele>348.5</ele></trkpt><trkpt lat="37.889950" lon="-122.598360"><ele>351.6</ele></trkpt><trkpt lat="37.890500" lon="-122.598340"><ele>355.3</ele></trkpt><trkpt lat="37.890740" lon="-122.598400"><ele>356.9</ele></trkpt><trkpt lat="37.890910" lon="-122.598480"><ele>358.2</ele></trkpt><trkpt lat="37.891160" lon="-122.598470"><ele>360.0</ele></trkpt><trkpt lat="37.891300" lon="-122.598510"><ele>361.1</ele></trkpt><trkpt lat="37.891370" lon="-122.598510"><ele>361.7</ele></trkpt><trkpt lat="37.891430" lon="-122.598470"><ele>362.2</ele></trkpt><trkpt lat="37.891460" lon="-122.598380"><ele>362.9</ele></trkpt><trkpt lat="37.891420" lon="-122.598160"><ele>364.4</ele></trkpt><trkpt lat="37.891430" lon="-122.598070"><ele>365.0</ele></trkpt><trkpt lat="37.891480" lon="-122.598000"><ele>365.9</ele></trkpt><trkpt lat="37.891540" lon="-122.597970"><ele>366.6</ele></trkpt><trkpt lat="37.891720" lon="-122.598030"><ele>368.8</ele></trkpt><trkpt lat="37.891880" lon="-122.598120"><ele>370.9</ele></trkpt><trkpt lat="37.892330" lon="-122.598590"><ele>375.1</ele></trkpt><trkpt lat="37.892420" lon="-122.598670"><ele>376.0</ele></trkpt><trkpt lat="37.892560" lon="-122.598720"><ele>377.3</ele></trkpt><trkpt lat="37.892660" lon="-122.598680"><ele>378.3</ele></trkpt><trkpt lat="37.892720" lon="-122.598620"><ele>379.0</ele></trkpt><trkpt lat="37.892900" lon="-122.598280"><ele>381.6</ele></trkpt><trkpt lat="37.892950" lon="-122.598220"><ele>382.1</ele></trkpt><trkpt lat="37.892990" lon="-122.598210"><ele>382.4</ele></trkpt><trkpt lat="37.893090" lon="-122.598260"><ele>383.2</ele></trkpt><trkpt lat="37.893280" lon="-122.598460"><ele>384.2</ele></trkpt><trkpt lat="37.893380" lon="-122.598510"><ele>384.3</ele></trkpt><trkpt lat="37.893520" lon="-122.598460"><ele>384.5</ele></trkpt><trkpt lat="37.893710" lon="-122.598330"><ele>384.8</ele></trkpt><trkpt lat="37.893780" lon="-122.598300"><ele>385.0</ele></trkpt><trkpt lat="37.893810" lon="-122.598310"><ele>385.1</ele></trkpt><trkpt lat="37.893870" lon="-122.598360"><ele>385.3</ele></trkpt><trkpt lat="37.893930" lon="-122.598580"><ele>385.8</ele></trkpt><trkpt lat="37.894000" lon="-122.598680"><ele>386.1</ele></trkpt><trkpt lat="37.894050" lon="-122.598700"><ele>386.2</ele></trkpt><trkpt lat="37.894130" lon="-122.598740"><ele>386.3</ele></trkpt><trkpt lat="37.894280" lon="-122.598750"><ele>386.5</ele></trkpt><trkpt lat="37.894340" lon="-122.598790"><ele>386.6</ele></trkpt><trkpt lat="37.894360" lon="-122.598830"><ele>386.6</ele></trkpt><trkpt lat="37.894360" lon="-122.598920"><ele>386.7</ele></trkpt><trkpt lat="37.894300" lon="-122.599140"><ele>386.9</ele></trkpt><trkpt lat="37.894330" lon="-122.599220"><ele>387.1</ele></trkpt><trkpt lat="37.894390" lon="-122.599270"><ele>387.2</ele></trkpt><trkpt lat="37.894660" lon="-122.599400"><ele>387.7</ele></trkpt><trkpt lat="37.894850" lon="-122.599550"><ele>389.2</ele></trkpt><trkpt lat="37.895090" lon="-122.599830"><ele>391.5</ele></trkpt><trkpt lat="37.895380" lon="-122.600090"><ele>393.5</ele></trkpt><trkpt lat="37.895490" lon="-122.600220"><ele>394.4</ele></trkpt><trkpt lat="37.895670" lon="-122.600320"><ele>396.1</ele></trkpt><trkpt lat="37.895940" lon="-122.600400"><ele>398.7</ele></trkpt><trkpt lat="37.896050" lon="-122.600460"><ele>399.9</ele></trkpt><trkpt lat="37.896140" lon="-122.600560"><ele>401.3</ele></trkpt><trkpt lat="37.896340" lon="-122.600910"><ele>405.1</ele></trkpt><trkpt lat="37.896460" lon="-122.601040"><ele>407.5</ele></trkpt><trkpt lat="37.896640" lon="-122.601180"><ele>411.5</ele></trkpt><trkpt lat="37.896920" lon="-122.601430"><ele>418.2</ele></trkpt><trkpt lat="37.897010" lon="-122.601470"><ele>420.2</ele></trkpt><trkpt lat="37.897110" lon="-122.601480"><ele>422.4</ele></trkpt><trkpt lat="37.897360" lon="-122.601390"><ele>428.0</ele></trkpt><trkpt lat="37.897560" lon="-122.601590"><ele>434.3</ele></trkpt><trkpt lat="37.897630" lon="-122.601740"><ele>437.8</ele></trkpt><trkpt lat="37.897660" lon="-122.601880"><ele>440.6</ele></trkpt><trkpt lat="37.897650" lon="-122.602340"><ele>448.4</ele></trkpt><trkpt lat="37.897670" lon="-122.602430"><ele>450.0</ele></trkpt><trkpt lat="37.897750" lon="-122.602680"><ele>454.4</ele></trkpt><trkpt lat="37.897820" lon="-122.602780"><ele>456.6</ele></trkpt><trkpt lat="37.897940" lon="-122.602880"><ele>459.5</ele></trkpt><trkpt lat="37.898210" lon="-122.603020"><ele>464.4</ele></trkpt><trkpt lat="37.898300" lon="-122.603100"><ele>465.1</ele></trkpt><trkpt lat="37.898360" lon="-122.603220"><ele>465.8</ele></trkpt><trkpt lat="37.898420" lon="-122.603480"><ele>467.1</ele></trkpt><trkpt lat="37.898470" lon="-122.603600"><ele>467.2</ele></trkpt><trkpt lat="37.898690" lon="-122.603910"><ele>467.0</ele></trkpt><trkpt lat="37.898780" lon="-122.604060"><ele>467.0</ele></trkpt><trkpt lat="37.898860" lon="-122.604150"><ele>467.3</ele></trkpt><trkpt lat="37.898960" lon="-122.604200"><ele>467.6</ele></trkpt><trkpt lat="37.899030" lon="-122.604200"><ele>467.8</ele></trkpt><trkpt lat="37.899420" lon="-122.604080"><ele>467.5</ele></trkpt><trkpt lat="37.899600" lon="-122.604060"><ele>466.4</ele></trkpt><trkpt lat="37.899710" lon="-122.604070"><ele>465.7</ele></trkpt><trkpt lat="37.899980" lon="-122.604190"><ele>463.8</ele></trkpt><trkpt lat="37.900160" lon="-122.604240"><ele>462.5</ele></trkpt><trkpt lat="37.900410" lon="-122.604280"><ele>461.1</ele></trkpt><trkpt lat="37.900660" lon="-122.604210"><ele>460.1</ele></trkpt><trkpt lat="37.900910" lon="-122.604040"><ele>459.1</ele></trkpt><trkpt lat="37.901020" lon="-122.604010"><ele>458.9</ele></trkpt><trkpt lat="37.901160" lon="-122.604040"><ele>458.6</ele></trkpt><trkpt lat="37.901440" lon="-122.604240"><ele>457.5</ele></trkpt><trkpt lat="37.901580" lon="-122.604280"><ele>456.8</ele></trkpt><trkpt lat="37.901900" lon="-122.604200"><ele>455.5</ele></trkpt><trkpt lat="37.902160" lon="-122.604180"><ele>456.4</ele></trkpt><trkpt lat="37.902440" lon="-122.604120"><ele>457.2</ele></trkpt><trkpt lat="37.902930" lon="-122.604090"><ele>456.9</ele></trkpt><trkpt lat="37.903640" lon="-122.603980"><ele>459.3</ele></trkpt><trkpt lat="37.903990" lon="-122.603980"><ele>459.3</ele></trkpt></trkseg></trk>
</gpx>