<?xml version="1.0" encoding="UTF-8"?>
<gpx version="1.1" creator="north-bay-planning" xmlns="http://www.topografix.com/GPX/1/1">
<metadata><name>Sat Oct 24 Pantoll to Samuel P. Taylor</name><desc>Sat Oct 24 Pantoll to Samuel P. Taylor</desc></metadata>
<wpt lat="37.824620" lon="-122.526580"><name>Night 1 Bicentennial site 02</name><desc>Booked.</desc></wpt>
<wpt lat="37.903820" lon="-122.603640"><name>Night 2 Pantoll hike-and-bike</name><desc>Walk-up.</desc></wpt>
<wpt lat="38.018280" lon="-122.733140"><name>Night 3 Samuel P. Taylor hike-and-bike</name><desc>Walk-up.</desc></wpt>
<wpt lat="37.860800" lon="-122.545820"><name>Night 4 Haypress</name><desc>Reserve on recreation.gov.</desc></wpt>
<trk><name>Sat Oct 24 Pantoll to Samuel P. Taylor</name><trkseg><trkpt lat="37.903990" lon="-122.603980"><ele>477.3</ele></trkpt><trkpt lat="37.904160" lon="-122.604050"><ele>476.0</ele></trkpt><trkpt lat="37.904340" lon="-122.604060"><ele>474.7</ele></trkpt><trkpt lat="37.904200" lon="-122.604320"><ele>473.9</ele></trkpt><trkpt lat="37.903910" lon="-122.604650"><ele>476.7</ele></trkpt><trkpt lat="37.903840" lon="-122.604730"><ele>477.3</ele></trkpt><trkpt lat="37.903790" lon="-122.604820"><ele>478.1</ele></trkpt><trkpt lat="37.903780" lon="-122.604940"><ele>479.0</ele></trkpt><trkpt lat="37.903810" lon="-122.605060"><ele>479.9</ele></trkpt><trkpt lat="37.903880" lon="-122.605160"><ele>480.9</ele></trkpt><trkpt lat="37.904390" lon="-122.605790"><ele>481.5</ele></trkpt><trkpt lat="37.904540" lon="-122.605910"><ele>484.9</ele></trkpt><trkpt lat="37.904760" lon="-122.605990"><ele>489.3</ele></trkpt><trkpt lat="37.904830" lon="-122.606040"><ele>490.9</ele></trkpt><trkpt lat="37.904880" lon="-122.606100"><ele>491.7</ele></trkpt><trkpt lat="37.904910" lon="-122.606180"><ele>492.4</ele></trkpt><trkpt lat="37.904930" lon="-122.606580"><ele>495.2</ele></trkpt><trkpt lat="37.904940" lon="-122.606660"><ele>495.7</ele></trkpt><trkpt lat="37.905020" lon="-122.606770"><ele>496.7</ele></trkpt><trkpt lat="37.905210" lon="-122.606860"><ele>498.3</ele></trkpt><trkpt lat="37.905330" lon="-122.606950"><ele>499.4</ele></trkpt><trkpt lat="37.905370" lon="-122.607020"><ele>500.0</ele></trkpt><trkpt lat="37.905400" lon="-122.607100"><ele>500.5</ele></trkpt><trkpt lat="37.905410" lon="-122.607460"><ele>503.0</ele></trkpt><trkpt lat="37.905430" lon="-122.607540"><ele>503.5</ele></trkpt><trkpt lat="37.905470" lon="-122.607640"><ele>504.3</ele></trkpt><trkpt lat="37.905580" lon="-122.607750"><ele>505.6</ele></trkpt><trkpt lat="37.905710" lon="-122.607810"><ele>507.1</ele></trkpt><trkpt lat="37.906290" lon="-122.607880"><ele>510.9</ele></trkpt><trkpt lat="37.906410" lon="-122.607940"><ele>510.8</ele></trkpt><trkpt lat="37.906490" lon="-122.608030"><ele>510.6</ele></trkpt><trkpt lat="37.906560" lon="-122.608190"><ele>511.3</ele></trkpt><trkpt lat="37.906570" lon="-122.608280"><ele>512.1</ele></trkpt><trkpt lat="37.906550" lon="-122.608370"><ele>513.0</ele></trkpt><trkpt lat="37.906520" lon="-122.608440"><ele>513.8</ele></trkpt><trkpt lat="37.906320" lon="-122.608700"><ele>517.1</ele></trkpt><trkpt lat="37.906270" lon="-122.608800"><ele>517.6</ele></trkpt><trkpt lat="37.906240" lon="-122.609010"><ele>518.5</ele></trkpt><trkpt lat="37.906270" lon="-122.609190"><ele>519.4</ele></trkpt><trkpt lat="37.906500" lon="-122.609600"><ele>521.7</ele></trkpt><trkpt lat="37.906570" lon="-122.609820"><ele>522.9</ele></trkpt><trkpt lat="37.906650" lon="-122.610170"><ele>524.2</ele></trkpt><trkpt lat="37.906700" lon="-122.610290"><ele>524.6</ele></trkpt><trkpt lat="37.906750" lon="-122.610360"><ele>524.9</ele></trkpt><trkpt lat="37.906870" lon="-122.610470"><ele>525.6</ele></trkpt><trkpt lat="37.906970" lon="-122.610530"><ele>527.3</ele></trkpt><trkpt lat="37.907110" lon="-122.610570"><ele>529.5</ele></trkpt><trkpt lat="37.907240" lon="-122.610670"><ele>531.8</ele></trkpt><trkpt lat="37.907300" lon="-122.610810"><ele>533.7</ele></trkpt><trkpt lat="37.907440" lon="-122.611290"><ele>540.0</ele></trkpt><trkpt lat="37.907470" lon="-122.611400"><ele>541.4</ele></trkpt><trkpt lat="37.907460" lon="-122.611490"><ele>542.3</ele></trkpt><trkpt lat="37.907420" lon="-122.611580"><ele>542.4</ele></trkpt><trkpt lat="37.907260" lon="-122.611860"><ele>542.9</ele></trkpt><trkpt lat="37.907020" lon="-122.612360"><ele>547.2</ele></trkpt><trkpt lat="37.906910" lon="-122.612500"><ele>549.4</ele></trkpt><trkpt lat="37.906580" lon="-122.612760"><ele>552.6</ele></trkpt><trkpt lat="37.906570" lon="-122.612850"><ele>553.0</ele></trkpt><trkpt lat="37.906580" lon="-122.612920"><ele>553.4</ele></trkpt><trkpt lat="37.906620" lon="-122.613000"><ele>553.9</ele></trkpt><trkpt lat="37.906800" lon="-122.613260"><ele>554.7</ele></trkpt><trkpt lat="37.906860" lon="-122.613390"><ele>554.9</ele></trkpt><trkpt lat="37.906860" lon="-122.613490"><ele>555.1</ele></trkpt><trkpt lat="37.906810" lon="-122.613620"><ele>555.4</ele></trkpt><trkpt lat="37.906730" lon="-122.613680"><ele>555.5</ele></trkpt><trkpt lat="37.906630" lon="-122.613710"><ele>555.7</ele></trkpt><trkpt lat="37.905600" lon="-122.613680"><ele>559.8</ele></trkpt><trkpt lat="37.905130" lon="-122.613730"><ele>557.4</ele></trkpt><trkpt lat="37.904920" lon="-122.613700"><ele>555.6</ele></trkpt><trkpt lat="37.904660" lon="-122.613610"><ele>553.5</ele></trkpt><trkpt lat="37.904600" lon="-122.613620"><ele>553.3</ele></trkpt><trkpt lat="37.904540" lon="-122.613650"><ele>553.0</ele></trkpt><trkpt lat="37.904500" lon="-122.613710"><ele>552.8</ele></trkpt><trkpt lat="37.904480" lon="-122.613780"><ele>552.6</ele></trkpt><trkpt lat="37.904460" lon="-122.613890"><ele>552.3</ele></trkpt><trkpt lat="37.904470" lon="-122.614140"><ele>551.7</ele></trkpt><trkpt lat="37.904500" lon="-122.614210"><ele>551.9</ele></trkpt><trkpt lat="37.904550" lon="-122.614250"><ele>552.1</ele></trkpt><trkpt lat="37.904630" lon="-122.614300"><ele>552.5</ele></trkpt><trkpt lat="37.905020" lon="-122.614360"><ele>553.9</ele></trkpt><trkpt lat="37.905150" lon="-122.614400"><ele>554.6</ele></trkpt><trkpt lat="37.905250" lon="-122.614450"><ele>555.1</ele></trkpt><trkpt lat="37.905520" lon="-122.614670"><ele>556.2</ele></trkpt><trkpt lat="37.905690" lon="-122.614780"><ele>556.1</ele></trkpt><trkpt lat="37.905830" lon="-122.614820"><ele>556.0</ele></trkpt><trkpt lat="37.906030" lon="-122.614850"><ele>557.3</ele></trkpt><trkpt lat="37.906290" lon="-122.614860"><ele>561.2</ele></trkpt><trkpt lat="37.906030" lon="-122.614850"><ele>564.9</ele></trkpt><trkpt lat="37.905830" lon="-122.614820"><ele>567.1</ele></trkpt><trkpt lat="37.905690" lon="-122.614780"><ele>568.6</ele></trkpt><trkpt lat="37.905830" lon="-122.614820"><ele>570.1</ele></trkpt><trkpt lat="37.906030" lon="-122.614850"><ele>570.9</ele></trkpt><trkpt lat="37.907120" lon="-122.614870"><ele>578.8</ele></trkpt><trkpt lat="37.907210" lon="-122.614850"><ele>580.4</ele></trkpt><trkpt lat="37.907280" lon="-122.614800"><ele>581.8</ele></trkpt><trkpt lat="37.907340" lon="-122.614710"><ele>583.3</ele></trkpt><trkpt lat="37.907590" lon="-122.614280"><ele>588.7</ele></trkpt><trkpt lat="37.907680" lon="-122.614170"><ele>590.3</ele></trkpt><trkpt lat="37.907770" lon="-122.614110"><ele>591.2</ele></trkpt><trkpt lat="37.907870" lon="-122.614100"><ele>591.8</ele></trkpt><trkpt lat="37.907940" lon="-122.614110"><ele>592.2</ele></trkpt><trkpt lat="37.908110" lon="-122.614240"><ele>593.3</ele></trkpt><trkpt lat="37.908180" lon="-122.614270"><ele>593.7</ele></trkpt><trkpt lat="37.908260" lon="-122.614260"><ele>594.3</ele></trkpt><trkpt lat="37.908340" lon="-122.614210"><ele>595.2</ele></trkpt><trkpt lat="37.908400" lon="-122.614160"><ele>595.9</ele></trkpt><trkpt lat="37.908580" lon="-122.613900"><ele>598.5</ele></trkpt><trkpt lat="37.908640" lon="-122.613760"><ele>599.7</ele></trkpt><trkpt lat="37.908750" lon="-122.613440"><ele>602.2</ele></trkpt><trkpt lat="37.908830" lon="-122.613350"><ele>603.2</ele></trkpt><trkpt lat="37.908900" lon="-122.613300"><ele>603.9</ele></trkpt><trkpt lat="37.909040" lon="-122.613240"><ele>604.5</ele></trkpt><trkpt lat="37.909100" lon="-122.613190"><ele>604.8</ele></trkpt><trkpt lat="37.909140" lon="-122.613130"><ele>605.0</ele></trkpt><trkpt lat="37.909190" lon="-122.612960"><ele>605.4</ele></trkpt><trkpt lat="37.909260" lon="-122.612840"><ele>605.8</ele></trkpt><trkpt lat="37.909330" lon="-122.612750"><ele>606.1</ele></trkpt><trkpt lat="37.909420" lon="-122.612680"><ele>606.3</ele></trkpt><trkpt lat="37.909510" lon="-122.612640"><ele>606.5</ele></trkpt><trkpt lat="37.909620" lon="-122.612620"><ele>606.8</ele></trkpt><trkpt lat="37.909890" lon="-122.612680"><ele>607.4</ele></trkpt><trkpt lat="37.910180" lon="-122.612690"><ele>608.1</ele></trkpt><trkpt lat="37.910320" lon="-122.612670"><ele>608.3</ele></trkpt><trkpt lat="37.910450" lon="-122.612570"><ele>607.4</ele></trkpt><trkpt lat="37.910530" lon="-122.612870"><ele>605.9</ele></trkpt><trkpt lat="37.910520" lon="-122.613190"><ele>604.3</ele></trkpt><trkpt lat="37.910470" lon="-122.613460"><ele>603.0</ele></trkpt><trkpt lat="37.910360" lon="-122.613730"><ele>601.5</ele></trkpt><trkpt lat="37.910110" lon="-122.614240"><ele>599.4</ele></trkpt><trkpt lat="37.909740" lon="-122.614840"><ele>598.7</ele></trkpt><trkpt lat="37.909430" lon="-122.615280"><ele>599.2</ele></trkpt><trkpt lat="37.909090" lon="-122.615900"><ele>604.2</ele></trkpt><trkpt lat="37.909040" lon="-122.616140"><ele>606.3</ele></trkpt><trkpt lat="37.909050" lon="-122.616390"><ele>608.5</ele></trkpt><trkpt lat="37.909130" lon="-122.616880"><ele>612.7</ele></trkpt><trkpt lat="37.909270" lon="-122.617440"><ele>617.0</ele></trkpt><trkpt lat="37.909290" lon="-122.617780"><ele>619.0</ele></trkpt><trkpt lat="37.909260" lon="-122.618110"><ele>620.8</ele></trkpt><trkpt lat="37.909150" lon="-122.618700"><ele>623.4</ele></trkpt><trkpt lat="37.909170" lon="-122.618990"><ele>623.7</ele></trkpt><trkpt lat="37.909230" lon="-122.619300"><ele>624.1</ele></trkpt><trkpt lat="37.909340" lon="-122.619570"><ele>624.6</ele></trkpt><trkpt lat="37.909540" lon="-122.619870"><ele>625.2</ele></trkpt><trkpt lat="37.909710" lon="-122.620050"><ele>625.3</ele></trkpt><trkpt lat="37.909830" lon="-122.620130"><ele>625.4</ele></trkpt><trkpt lat="37.910220" lon="-122.620290"><ele>624.0</ele></trkpt><trkpt lat="37.910400" lon="-122.620450"><ele>622.8</ele></trkpt><trkpt lat="37.910500" lon="-122.620600"><ele>622.1</ele></trkpt><trkpt lat="37.910600" lon="-122.620820"><ele>621.2</ele></trkpt><trkpt lat="37.910820" lon="-122.621590"><ele>619.1</ele></trkpt><trkpt lat="37.910900" lon="-122.622200"><ele>616.8</ele></trkpt><trkpt lat="37.910880" lon="-122.622570"><ele>615.2</ele></trkpt><trkpt lat="37.910880" lon="-122.623710"><ele>609.6</ele></trkpt><trkpt lat="37.910920" lon="-122.623910"><ele>608.6</ele></trkpt><trkpt lat="37.911000" lon="-122.624120"><ele>607.4</ele></trkpt><trkpt lat="37.911100" lon="-122.624470"><ele>605.4</ele></trkpt><trkpt lat="37.911150" lon="-122.624910"><ele>602.2</ele></trkpt><trkpt lat="37.911210" lon="-122.625180"><ele>600.7</ele></trkpt><trkpt lat="37.911300" lon="-122.625360"><ele>599.9</ele></trkpt><trkpt lat="37.911450" lon="-122.625580"><ele>598.9</ele></trkpt><trkpt lat="37.911540" lon="-122.625650"><ele>598.6</ele></trkpt><trkpt lat="37.911610" lon="-122.625670"><ele>598.6</ele></trkpt><trkpt lat="37.911700" lon="-122.625670"><ele>598.5</ele></trkpt><trkpt lat="37.911770" lon="-122.625620"><ele>598.5</ele></trkpt><trkpt lat="37.912500" lon="-122.624650"><ele>600.6</ele></trkpt><trkpt lat="37.912570" lon="-122.624600"><ele>601.1</ele></trkpt><trkpt lat="37.912650" lon="-122.624590"><ele>601.6</ele></trkpt><trkpt lat="37.912750" lon="-122.624600"><ele>602.2</ele></trkpt><trkpt lat="37.912850" lon="-122.624640"><ele>602.8</ele></trkpt><trkpt lat="37.912960" lon="-122.624760"><ele>603.6</ele></trkpt><trkpt lat="37.913120" lon="-122.625130"><ele>605.5</ele></trkpt><trkpt lat="37.913210" lon="-122.625300"><ele>606.5</ele></trkpt><trkpt lat="37.913320" lon="-122.625430"><ele>607.4</ele></trkpt><trkpt lat="37.913640" lon="-122.625660"><ele>608.5</ele></trkpt><trkpt lat="37.913920" lon="-122.625790"><ele>608.2</ele></trkpt><trkpt lat="37.913990" lon="-122.625860"><ele>608.2</ele></trkpt><trkpt lat="37.914060" lon="-122.626000"><ele>608.9</ele></trkpt><trkpt lat="37.914200" lon="-122.626390"><ele>610.8</ele></trkpt><trkpt lat="37.914330" lon="-122.626530"><ele>611.1</ele></trkpt><trkpt lat="37.915880" lon="-122.627190"><ele>611.9</ele></trkpt><trkpt lat="37.916310" lon="-122.627510"><ele>608.6</ele></trkpt><trkpt lat="37.916390" lon="-122.627610"><ele>607.5</ele></trkpt><trkpt lat="37.916420" lon="-122.627720"><ele>606.6</ele></trkpt><trkpt lat="37.916410" lon="-122.627850"><ele>605.6</ele></trkpt><trkpt lat="37.916350" lon="-122.628120"><ele>603.5</ele></trkpt><trkpt lat="37.916330" lon="-122.628270"><ele>602.4</ele></trkpt><trkpt lat="37.916350" lon="-122.628420"><ele>601.3</ele></trkpt><trkpt lat="37.916470" lon="-122.628660"><ele>599.3</ele></trkpt><trkpt lat="37.916600" lon="-122.628790"><ele>597.4</ele></trkpt><trkpt lat="37.916740" lon="-122.628830"><ele>595.8</ele></trkpt><trkpt lat="37.917660" lon="-122.628910"><ele>588.4</ele></trkpt><trkpt lat="37.917840" lon="-122.628910"><ele>588.2</ele></trkpt><trkpt lat="37.918450" lon="-122.628740"><ele>588.4</ele></trkpt><trkpt lat="37.918650" lon="-122.628730"><ele>588.6</ele></trkpt><trkpt lat="37.918860" lon="-122.628750"><ele>588.9</ele></trkpt><trkpt lat="37.919180" lon="-122.628890"><ele>589.3</ele></trkpt><trkpt lat="37.919340" lon="-122.629020"><ele>589.6</ele></trkpt><trkpt lat="37.920320" lon="-122.629980"><ele>587.6</ele></trkpt><trkpt lat="37.920450" lon="-122.630170"><ele>585.7</ele></trkpt><trkpt lat="37.920840" lon="-122.631350"><ele>577.3</ele></trkpt><trkpt lat="37.920980" lon="-122.631930"><ele>573.2</ele></trkpt><trkpt lat="37.921050" lon="-122.632100"><ele>571.3</ele></trkpt><trkpt lat="37.921250" lon="-122.632440"><ele>566.3</ele></trkpt><trkpt lat="37.921300" lon="-122.632550"><ele>564.8</ele></trkpt><trkpt lat="37.921330" lon="-122.632680"><ele>564.2</ele></trkpt><trkpt lat="37.921340" lon="-122.632820"><ele>563.8</ele></trkpt><trkpt lat="37.921330" lon="-122.632980"><ele>563.4</ele></trkpt><trkpt lat="37.921360" lon="-122.633110"><ele>563.0</ele></trkpt><trkpt lat="37.921420" lon="-122.633220"><ele>562.7</ele></trkpt><trkpt lat="37.921660" lon="-122.633440"><ele>561.7</ele></trkpt><trkpt lat="37.921720" lon="-122.633530"><ele>561.3</ele></trkpt><trkpt lat="37.921840" lon="-122.633910"><ele>558.7</ele></trkpt><trkpt lat="37.921910" lon="-122.634040"><ele>557.1</ele></trkpt><trkpt lat="37.922660" lon="-122.635110"><ele>546.5</ele></trkpt><trkpt lat="37.922810" lon="-122.635550"><ele>543.7</ele></trkpt><trkpt lat="37.923180" lon="-122.636410"><ele>536.6</ele></trkpt><trkpt lat="37.923320" lon="-122.636890"><ele>534.9</ele></trkpt><trkpt lat="37.923480" lon="-122.637290"><ele>534.3</ele></trkpt><trkpt lat="37.923730" lon="-122.637770"><ele>534.0</ele></trkpt><trkpt lat="37.923890" lon="-122.638030"><ele>533.6</ele></trkpt><trkpt lat="37.924080" lon="-122.638280"><ele>533.1</ele></trkpt><trkpt lat="37.924560" lon="-122.638800"><ele>534.5</ele></trkpt><trkpt lat="37.924710" lon="-122.639080"><ele>533.3</ele></trkpt><trkpt lat="37.924760" lon="-122.639210"><ele>532.8</ele></trkpt><trkpt lat="37.924810" lon="-122.639460"><ele>531.6</ele></trkpt><trkpt lat="37.924800" lon="-122.639580"><ele>531.1</ele></trkpt><trkpt lat="37.924760" lon="-122.639670"><ele>530.5</ele></trkpt><trkpt lat="37.924550" lon="-122.639890"><ele>528.5</ele></trkpt><trkpt lat="37.924480" lon="-122.640010"><ele>526.9</ele></trkpt><trkpt lat="37.924460" lon="-122.640140"><ele>525.4</ele></trkpt><trkpt lat="37.924490" lon="-122.640230"><ele>524.3</ele></trkpt><trkpt lat="37.924600" lon="-122.640390"><ele>522.0</ele></trkpt><trkpt lat="37.925360" lon="-122.640790"><ele>513.5</ele></trkpt><trkpt lat="37.925650" lon="-122.640890"><ele>510.5</ele></trkpt><trkpt lat="37.925890" lon="-122.641040"><ele>509.6</ele></trkpt><trkpt lat="37.926220" lon="-122.641180"><ele>508.5</ele></trkpt><trkpt lat="37.926360" lon="-122.641270"><ele>508.0</ele></trkpt><trkpt lat="37.927150" lon="-122.642080"><ele>508.6</ele></trkpt><trkpt lat="37.927400" lon="-122.642300"><ele>507.9</ele></trkpt><trkpt lat="37.927710" lon="-122.642520"><ele>507.0</ele></trkpt><trkpt lat="37.928060" lon="-122.642810"><ele>506.3</ele></trkpt><trkpt lat="37.928720" lon="-122.643420"><ele>505.8</ele></trkpt><trkpt lat="37.929500" lon="-122.644090"><ele>506.8</ele></trkpt><trkpt lat="37.929770" lon="-122.644270"><ele>507.4</ele></trkpt><trkpt lat="37.930070" lon="-122.644430"><ele>506.6</ele></trkpt><trkpt lat="37.930510" lon="-122.644630"><ele>504.9</ele></trkpt><trkpt lat="37.930710" lon="-122.644740"><ele>503.9</ele></trkpt><trkpt lat="37.931840" lon="-122.645400"><ele>497.2</ele></trkpt><trkpt lat="37.932260" lon="-122.645700"><ele>494.4</ele></trkpt><trkpt lat="37.932820" lon="-122.646000"><ele>495.9</ele></trkpt><trkpt lat="37.933130" lon="-122.646220"><ele>495.9</ele></trkpt><trkpt lat="37.933300" lon="-122.646300"><ele>495.6</ele></trkpt><trkpt lat="37.933680" lon="-122.646420"><ele>494.7</ele></trkpt><trkpt lat="37.933820" lon="-122.646570"><ele>494.8</ele></trkpt><trkpt lat="37.934690" lon="-122.648390"><ele>487.0</ele></trkpt><trkpt lat="37.935030" lon="-122.649150"><ele>482.0</ele></trkpt><trkpt lat="37.935750" lon="-122.650630"><ele>477.3</ele></trkpt><trkpt lat="37.935760" lon="-122.650910"><ele>477.3</ele></trkpt><trkpt lat="37.935740" lon="-122.651060"><ele>477.3</ele></trkpt><trkpt lat="37.935570" lon="-122.651610"><ele>476.8</ele></trkpt><trkpt lat="37.935460" lon="-122.651880"><ele>476.7</ele></trkpt><trkpt lat="37.935320" lon="-122.652580"><ele>476.9</ele></trkpt><trkpt lat="37.935330" lon="-122.652790"><ele>477.1</ele></trkpt><trkpt lat="37.935350" lon="-122.652920"><ele>477.2</ele></trkpt><trkpt lat="37.935490" lon="-122.653370"><ele>477.9</ele></trkpt><trkpt lat="37.935640" lon="-122.653760"><ele>478.6</ele></trkpt><trkpt lat="37.935830" lon="-122.654090"><ele>479.2</ele></trkpt><trkpt lat="37.935960" lon="-122.654230"><ele>479.5</ele></trkpt><trkpt lat="37.936080" lon="-122.654440"><ele>479.9</ele></trkpt><trkpt lat="37.936380" lon="-122.655160"><ele>481.7</ele></trkpt><trkpt lat="37.936590" lon="-122.655600"><ele>481.9</ele></trkpt><trkpt lat="37.936770" lon="-122.656110"><ele>480.7</ele></trkpt><trkpt lat="37.936880" lon="-122.656630"><ele>481.0</ele></trkpt><trkpt lat="37.936940" lon="-122.656830"><ele>480.9</ele></trkpt><trkpt lat="37.937000" lon="-122.656930"><ele>480.8</ele></trkpt><trkpt lat="37.937110" lon="-122.656980"><ele>480.8</ele></trkpt><trkpt lat="37.937440" lon="-122.657060"><ele>481.3</ele></trkpt><trkpt lat="37.937760" lon="-122.657100"><ele>482.8</ele></trkpt><trkpt lat="37.937900" lon="-122.657210"><ele>483.5</ele></trkpt><trkpt lat="37.938100" lon="-122.657440"><ele>484.7</ele></trkpt><trkpt lat="37.938160" lon="-122.657550"><ele>485.2</ele></trkpt><trkpt lat="37.938220" lon="-122.657750"><ele>485.7</ele></trkpt><trkpt lat="37.938280" lon="-122.657880"><ele>486.0</ele></trkpt><trkpt lat="37.938330" lon="-122.657950"><ele>486.2</ele></trkpt><trkpt lat="37.938470" lon="-122.658030"><ele>486.5</ele></trkpt><trkpt lat="37.938750" lon="-122.658070"><ele>488.0</ele></trkpt><trkpt lat="37.938930" lon="-122.658150"><ele>489.3</ele></trkpt><trkpt lat="37.939360" lon="-122.658390"><ele>493.0</ele></trkpt><trkpt lat="37.939480" lon="-122.658540"><ele>494.4</ele></trkpt><trkpt lat="37.939640" lon="-122.658450"><ele>495.4</ele></trkpt><trkpt lat="37.940180" lon="-122.658310"><ele>497.3</ele></trkpt><trkpt lat="37.940420" lon="-122.658360"><ele>497.7</ele></trkpt><trkpt lat="37.940740" lon="-122.658690"><ele>499.2</ele></trkpt><trkpt lat="37.940800" lon="-122.658820"><ele>499.8</ele></trkpt><trkpt lat="37.940870" lon="-122.659000"><ele>500.6</ele></trkpt><trkpt lat="37.940950" lon="-122.659590"><ele>501.0</ele></trkpt><trkpt lat="37.941250" lon="-122.659490"><ele>500.7</ele></trkpt><trkpt lat="37.941370" lon="-122.659450"><ele>500.4</ele></trkpt><trkpt lat="37.941450" lon="-122.659490"><ele>500.2</ele></trkpt><trkpt lat="37.941950" lon="-122.659900"><ele>498.8</ele></trkpt><trkpt lat="37.942110" lon="-122.660500"><ele>498.7</ele></trkpt><trkpt lat="37.942230" lon="-122.660760"><ele>498.7</ele></trkpt><trkpt lat="37.942510" lon="-122.660800"><ele>498.7</ele></trkpt><trkpt lat="37.942670" lon="-122.660880"><ele>498.5</ele></trkpt><trkpt lat="37.942770" lon="-122.661050"><ele>497.3</ele></trkpt><trkpt lat="37.943030" lon="-122.661390"><ele>494.9</ele></trkpt><trkpt lat="37.943330" lon="-122.661320"><ele>494.4</ele></trkpt><trkpt lat="37.943460" lon="-122.661430"><ele>494.2</ele></trkpt><trkpt lat="37.943580" lon="-122.661480"><ele>493.6</ele></trkpt><trkpt lat="37.944040" lon="-122.661980"><ele>490.4</ele></trkpt><trkpt lat="37.944180" lon="-122.662220"><ele>489.3</ele></trkpt><trkpt lat="37.944480" lon="-122.662430"><ele>488.6</ele></trkpt><trkpt lat="37.944970" lon="-122.662890"><ele>488.5</ele></trkpt><trkpt lat="37.945220" lon="-122.663090"><ele>488.3</ele></trkpt><trkpt lat="37.945390" lon="-122.663310"><ele>488.0</ele></trkpt><trkpt lat="37.945420" lon="-122.663460"><ele>487.9</ele></trkpt><trkpt lat="37.945430" lon="-122.663640"><ele>487.7</ele></trkpt><trkpt lat="37.945420" lon="-122.663850"><ele>488.4</ele></trkpt><trkpt lat="37.945600" lon="-122.664140"><ele>490.1</ele></trkpt><trkpt lat="37.945870" lon="-122.664310"><ele>492.1</ele></trkpt><trkpt lat="37.945930" lon="-122.664390"><ele>492.7</ele></trkpt><trkpt lat="37.946100" lon="-122.664810"><ele>494.1</ele></trkpt><trkpt lat="37.946430" lon="-122.665550"><ele>492.6</ele></trkpt><trkpt lat="37.946480" lon="-122.665710"><ele>493.0</ele></trkpt><trkpt lat="37.946530" lon="-122.666130"><ele>494.1</ele></trkpt><trkpt lat="37.946600" lon="-122.666320"><ele>494.8</ele></trkpt><trkpt lat="37.946780" lon="-122.666660"><ele>495.4</ele></trkpt><trkpt lat="37.946930" lon="-122.667080"><ele>494.8</ele></trkpt><trkpt lat="37.946960" lon="-122.667250"><ele>494.4</ele></trkpt><trkpt lat="37.946950" lon="-122.667430"><ele>493.8</ele></trkpt><trkpt lat="37.946880" lon="-122.667850"><ele>492.7</ele></trkpt><trkpt lat="37.947010" lon="-122.668370"><ele>496.9</ele></trkpt><trkpt lat="37.947000" lon="-122.668680"><ele>498.6</ele></trkpt><trkpt lat="37.947080" lon="-122.668980"><ele>500.0</ele></trkpt><trkpt lat="37.947230" lon="-122.669090"><ele>501.0</ele></trkpt><trkpt lat="37.947410" lon="-122.669040"><ele>501.9</ele></trkpt><trkpt lat="37.947620" lon="-122.668900"><ele>503.1</ele></trkpt><trkpt lat="37.947790" lon="-122.668810"><ele>504.4</ele></trkpt><trkpt lat="37.948150" lon="-122.668690"><ele>507.5</ele></trkpt><trkpt lat="37.948310" lon="-122.668690"><ele>508.3</ele></trkpt><trkpt lat="37.948770" lon="-122.668870"><ele>509.3</ele></trkpt><trkpt lat="37.948920" lon="-122.668960"><ele>508.9</ele></trkpt><trkpt lat="37.948990" lon="-122.669060"><ele>508.6</ele></trkpt><trkpt lat="37.949120" lon="-122.669700"><ele>506.5</ele></trkpt><trkpt lat="37.949220" lon="-122.670080"><ele>504.9</ele></trkpt><trkpt lat="37.949280" lon="-122.670260"><ele>504.5</ele></trkpt><trkpt lat="37.949300" lon="-122.670400"><ele>504.1</ele></trkpt><trkpt lat="37.949300" lon="-122.670560"><ele>503.8</ele></trkpt><trkpt lat="37.949330" lon="-122.670670"><ele>503.5</ele></trkpt><trkpt lat="37.949490" lon="-122.670990"><ele>502.0</ele></trkpt><trkpt lat="37.949580" lon="-122.671090"><ele>501.4</ele></trkpt><trkpt lat="37.949880" lon="-122.671410"><ele>499.2</ele></trkpt><trkpt lat="37.949990" lon="-122.671620"><ele>498.1</ele></trkpt><trkpt lat="37.950160" lon="-122.672080"><ele>497.0</ele></trkpt><trkpt lat="37.950200" lon="-122.672520"><ele>496.5</ele></trkpt><trkpt lat="37.950280" lon="-122.672640"><ele>496.5</ele></trkpt><trkpt lat="37.950390" lon="-122.672750"><ele>496.5</ele></trkpt><trkpt lat="37.950540" lon="-122.672820"><ele>496.3</ele></trkpt><trkpt lat="37.950900" lon="-122.672780"><ele>493.2</ele></trkpt><trkpt lat="37.951080" lon="-122.672820"><ele>491.7</ele></trkpt><trkpt lat="37.951600" lon="-122.673350"><ele>487.9</ele></trkpt><trkpt lat="37.951670" lon="-122.673460"><ele>487.8</ele></trkpt><trkpt lat="37.951810" lon="-122.673780"><ele>487.7</ele></trkpt><trkpt lat="37.951890" lon="-122.674240"><ele>487.5</ele></trkpt><trkpt lat="37.951960" lon="-122.674410"><ele>487.4</ele></trkpt><trkpt lat="37.952060" lon="-122.674580"><ele>487.6</ele></trkpt><trkpt lat="37.952090" lon="-122.674760"><ele>487.7</ele></trkpt><trkpt lat="37.952010" lon="-122.674890"><ele>487.9</ele></trkpt><trkpt lat="37.951840" lon="-122.675060"><ele>489.0</ele></trkpt><trkpt lat="37.951700" lon="-122.675240"><ele>490.8</ele></trkpt><trkpt lat="37.951640" lon="-122.675450"><ele>492.4</ele></trkpt><trkpt lat="37.951560" lon="-122.675610"><ele>493.7</ele></trkpt><trkpt lat="37.951410" lon="-122.675740"><ele>495.4</ele></trkpt><trkpt lat="37.951300" lon="-122.675900"><ele>496.9</ele></trkpt><trkpt lat="37.951320" lon="-122.676040"><ele>497.9</ele></trkpt><trkpt lat="37.951450" lon="-122.676130"><ele>499.6</ele></trkpt><trkpt lat="37.951610" lon="-122.676200"><ele>501.5</ele></trkpt><trkpt lat="37.951830" lon="-122.676230"><ele>504.0</ele></trkpt><trkpt lat="37.952250" lon="-122.676350"><ele>507.3</ele></trkpt><trkpt lat="37.952410" lon="-122.676450"><ele>508.5</ele></trkpt><trkpt lat="37.952710" lon="-122.676720"><ele>510.4</ele></trkpt><trkpt lat="37.952870" lon="-122.676800"><ele>511.0</ele></trkpt><trkpt lat="37.952950" lon="-122.676810"><ele>511.1</ele></trkpt><trkpt lat="37.953330" lon="-122.676710"><ele>511.8</ele></trkpt><trkpt lat="37.953530" lon="-122.676850"><ele>512.2</ele></trkpt><trkpt lat="37.953620" lon="-122.677120"><ele>512.6</ele></trkpt><trkpt lat="37.953770" lon="-122.677250"><ele>512.0</ele></trkpt><trkpt lat="37.953920" lon="-122.677410"><ele>510.8</ele></trkpt><trkpt lat="37.953950" lon="-122.677780"><ele>509.1</ele></trkpt><trkpt lat="37.954030" lon="-122.678250"><ele>507.9</ele></trkpt><trkpt lat="37.954110" lon="-122.678460"><ele>507.5</ele></trkpt><trkpt lat="37.954150" lon="-122.678510"><ele>507.5</ele></trkpt><trkpt lat="37.954250" lon="-122.678570"><ele>507.5</ele></trkpt><trkpt lat="37.954340" lon="-122.678730"><ele>507.5</ele></trkpt><trkpt lat="37.954360" lon="-122.678910"><ele>507.4</ele></trkpt><trkpt lat="37.954370" lon="-122.678970"><ele>507.1</ele></trkpt><trkpt lat="37.954540" lon="-122.679330"><ele>504.9</ele></trkpt><trkpt lat="37.954870" lon="-122.679700"><ele>501.4</ele></trkpt><trkpt lat="37.954950" lon="-122.680240"><ele>499.0</ele></trkpt><trkpt lat="37.955040" lon="-122.680470"><ele>498.6</ele></trkpt><trkpt lat="37.955230" lon="-122.680780"><ele>497.1</ele></trkpt><trkpt lat="37.955360" lon="-122.680870"><ele>495.8</ele></trkpt><trkpt lat="37.955520" lon="-122.680860"><ele>494.5</ele></trkpt><trkpt lat="37.955700" lon="-122.680950"><ele>492.9</ele></trkpt><trkpt lat="37.955840" lon="-122.681130"><ele>491.4</ele></trkpt><trkpt lat="37.956300" lon="-122.681870"><ele>484.9</ele></trkpt><trkpt lat="37.956480" lon="-122.682030"><ele>484.1</ele></trkpt><trkpt lat="37.957060" lon="-122.682360"><ele>480.7</ele></trkpt><trkpt lat="37.957570" lon="-122.682920"><ele>479.2</ele></trkpt><trkpt lat="37.957800" lon="-122.683320"><ele>479.9</ele></trkpt><trkpt lat="37.957920" lon="-122.683420"><ele>480.1</ele></trkpt><trkpt lat="37.958040" lon="-122.683480"><ele>480.4</ele></trkpt><trkpt lat="37.958360" lon="-122.683420"><ele>484.9</ele></trkpt><trkpt lat="37.958580" lon="-122.683490"><ele>488.1</ele></trkpt><trkpt lat="37.958680" lon="-122.683530"><ele>489.1</ele></trkpt><trkpt lat="37.958780" lon="-122.683590"><ele>490.2</ele></trkpt><trkpt lat="37.958880" lon="-122.683610"><ele>491.2</ele></trkpt><trkpt lat="37.958970" lon="-122.683560"><ele>492.2</ele></trkpt><trkpt lat="37.959210" lon="-122.683240"><ele>496.5</ele></trkpt><trkpt lat="37.959360" lon="-122.682820"><ele>501.2</ele></trkpt><trkpt lat="37.959570" lon="-122.682660"><ele>503.1</ele></trkpt><trkpt lat="37.959790" lon="-122.682640"><ele>504.9</ele></trkpt><trkpt lat="37.960120" lon="-122.683010"><ele>507.9</ele></trkpt><trkpt lat="37.960500" lon="-122.683600"><ele>508.7</ele></trkpt><trkpt lat="37.961020" lon="-122.683620"><ele>507.7</ele></trkpt><trkpt lat="37.961450" lon="-122.683810"><ele>507.9</ele></trkpt><trkpt lat="37.961770" lon="-122.684000"><ele>507.9</ele></trkpt><trkpt lat="37.961790" lon="-122.684030"><ele>507.9</ele></trkpt><trkpt lat="37.961860" lon="-122.684190"><ele>507.7</ele></trkpt><trkpt lat="37.961940" lon="-122.685330"><ele>507.1</ele></trkpt><trkpt lat="37.962190" lon="-122.686080"><ele>502.2</ele></trkpt><trkpt lat="37.962390" lon="-122.686300"><ele>500.7</ele></trkpt><trkpt lat="37.962840" lon="-122.686540"><ele>497.8</ele></trkpt><trkpt lat="37.963080" lon="-122.686690"><ele>496.1</ele></trkpt><trkpt lat="37.963140" lon="-122.687410"><ele>492.0</ele></trkpt><trkpt lat="37.963220" lon="-122.687540"><ele>490.9</ele></trkpt><trkpt lat="37.963360" lon="-122.687680"><ele>489.5</ele></trkpt><trkpt lat="37.963890" lon="-122.688000"><ele>490.5</ele></trkpt><trkpt lat="37.964290" lon="-122.688530"><ele>488.3</ele></trkpt><trkpt lat="37.964370" lon="-122.688580"><ele>488.0</ele></trkpt><trkpt lat="37.964700" lon="-122.688700"><ele>486.8</ele></trkpt><trkpt lat="37.964870" lon="-122.688710"><ele>484.5</ele></trkpt><trkpt lat="37.965200" lon="-122.688900"><ele>479.4</ele></trkpt><trkpt lat="37.965470" lon="-122.689330"><ele>475.2</ele></trkpt><trkpt lat="37.965590" lon="-122.689460"><ele>473.8</ele></trkpt><trkpt lat="37.966010" lon="-122.690100"><ele>470.3</ele></trkpt><trkpt lat="37.966420" lon="-122.691160"><ele>468.8</ele></trkpt><trkpt lat="37.966430" lon="-122.691330"><ele>470.2</ele></trkpt><trkpt lat="37.966390" lon="-122.691670"><ele>473.3</ele></trkpt><trkpt lat="37.966410" lon="-122.691710"><ele>473.7</ele></trkpt><trkpt lat="37.966500" lon="-122.691780"><ele>474.9</ele></trkpt><trkpt lat="37.966970" lon="-122.692340"><ele>475.9</ele></trkpt><trkpt lat="37.967550" lon="-122.693100"><ele>477.8</ele></trkpt><trkpt lat="37.968050" lon="-122.694030"><ele>476.5</ele></trkpt><trkpt lat="37.968070" lon="-122.694130"><ele>476.2</ele></trkpt><trkpt lat="37.968170" lon="-122.694370"><ele>475.3</ele></trkpt><trkpt lat="37.968270" lon="-122.694500"><ele>475.1</ele></trkpt><trkpt lat="37.968400" lon="-122.694630"><ele>474.9</ele></trkpt><trkpt lat="37.968510" lon="-122.694640"><ele>474.8</ele></trkpt><trkpt lat="37.969030" lon="-122.694770"><ele>471.9</ele></trkpt><trkpt lat="37.969120" lon="-122.694840"><ele>471.1</ele></trkpt><trkpt lat="37.969310" lon="-122.695140"><ele>469.9</ele></trkpt><trkpt lat="37.969650" lon="-122.695560"><ele>469.0</ele></trkpt><trkpt lat="37.969960" lon="-122.695810"><ele>468.8</ele></trkpt><trkpt lat="37.970130" lon="-122.695990"><ele>468.9</ele></trkpt><trkpt lat="37.970310" lon="-122.696140"><ele>469.0</ele></trkpt><trkpt lat="37.970570" lon="-122.696320"><ele>470.2</ele></trkpt><trkpt lat="37.970620" lon="-122.696370"><ele>470.6</ele></trkpt><trkpt lat="37.970750" lon="-122.696450"><ele>471.5</ele></trkpt><trkpt lat="37.970870" lon="-122.696560"><ele>472.4</ele></trkpt><trkpt lat="37.971070" lon="-122.696660"><ele>473.8</ele></trkpt><trkpt lat="37.971250" lon="-122.696690"><ele>474.9</ele></trkpt><trkpt lat="37.971570" lon="-122.696780"><ele>476.5</ele></trkpt><trkpt lat="37.971720" lon="-122.696910"><ele>477.3</ele></trkpt><trkpt lat="37.971820" lon="-122.696940"><ele>477.7</ele></trkpt><trkpt lat="37.971900" lon="-122.697040"><ele>478.1</ele></trkpt><trkpt lat="37.972050" lon="-122.697170"><ele>478.7</ele></trkpt><trkpt lat="37.972140" lon="-122.697310"><ele>479.2</ele></trkpt><trkpt lat="37.972290" lon="-122.697450"><ele>479.8</ele></trkpt><trkpt lat="37.972510" lon="-122.697600"><ele>479.9</ele></trkpt><trkpt lat="37.972600" lon="-122.697680"><ele>480.0</ele></trkpt><trkpt lat="37.972930" lon="-122.698050"><ele>480.1</ele></trkpt><trkpt lat="37.973060" lon="-122.698220"><ele>480.1</ele></trkpt><trkpt lat="37.973210" lon="-122.698480"><ele>479.2</ele></trkpt><trkpt lat="37.973350" lon="-122.698860"><ele>477.6</ele></trkpt><trkpt lat="37.973590" lon="-122.699210"><ele>476.2</ele></trkpt><trkpt lat="37.973980" lon="-122.699630"><ele>474.5</ele></trkpt><trkpt lat="37.974470" lon="-122.700020"><ele>473.7</ele></trkpt><trkpt lat="37.974620" lon="-122.700160"><ele>473.7</ele></trkpt><trkpt lat="37.974810" lon="-122.700370"><ele>472.0</ele></trkpt><trkpt lat="37.975070" lon="-122.700700"><ele>469.8</ele></trkpt><trkpt lat="37.975210" lon="-122.700840"><ele>470.0</ele></trkpt><trkpt lat="37.975620" lon="-122.701130"><ele>469.5</ele></trkpt><trkpt lat="37.975740" lon="-122.701250"><ele>468.7</ele></trkpt><trkpt lat="37.975830" lon="-122.701390"><ele>468.0</ele></trkpt><trkpt lat="37.976000" lon="-122.701760"><ele>466.9</ele></trkpt><trkpt lat="37.976120" lon="-122.702150"><ele>465.8</ele></trkpt><trkpt lat="37.976270" lon="-122.702480"><ele>463.6</ele></trkpt><trkpt lat="37.976440" lon="-122.702660"><ele>462.1</ele></trkpt><trkpt lat="37.976630" lon="-122.702780"><ele>462.9</ele></trkpt><trkpt lat="37.976880" lon="-122.702990"><ele>463.9</ele></trkpt><trkpt lat="37.977150" lon="-122.703310"><ele>462.2</ele></trkpt><trkpt lat="37.977340" lon="-122.703590"><ele>461.9</ele></trkpt><trkpt lat="37.977610" lon="-122.703820"><ele>462.9</ele></trkpt><trkpt lat="37.977850" lon="-122.704100"><ele>464.5</ele></trkpt><trkpt lat="37.977970" lon="-122.704210"><ele>465.4</ele></trkpt><trkpt lat="37.978130" lon="-122.704320"><ele>466.4</ele></trkpt><trkpt lat="37.978330" lon="-122.704430"><ele>468.2</ele></trkpt><trkpt lat="37.978760" lon="-122.704510"><ele>471.0</ele></trkpt><trkpt lat="37.978970" lon="-122.704600"><ele>471.6</ele></trkpt><trkpt lat="37.979210" lon="-122.704670"><ele>472.4</ele></trkpt><trkpt lat="37.979640" lon="-122.704940"><ele>475.7</ele></trkpt><trkpt lat="37.980120" lon="-122.705150"><ele>477.5</ele></trkpt><trkpt lat="37.980220" lon="-122.705170"><ele>477.6</ele></trkpt><trkpt lat="37.980370" lon="-122.705180"><ele>477.4</ele></trkpt><trkpt lat="37.980530" lon="-122.705280"><ele>477.2</ele></trkpt><trkpt lat="37.980580" lon="-122.705450"><ele>477.0</ele></trkpt><trkpt lat="37.980650" lon="-122.705560"><ele>476.4</ele></trkpt><trkpt lat="37.980710" lon="-122.705610"><ele>476.0</ele></trkpt><trkpt lat="37.980890" lon="-122.705950"><ele>474.0</ele></trkpt><trkpt lat="37.981130" lon="-122.706300"><ele>471.4</ele></trkpt><trkpt lat="37.981370" lon="-122.706820"><ele>468.0</ele></trkpt><trkpt lat="37.981500" lon="-122.707050"><ele>466.5</ele></trkpt><trkpt lat="37.981670" lon="-122.707290"><ele>464.3</ele></trkpt><trkpt lat="37.981720" lon="-122.707350"><ele>463.6</ele></trkpt><trkpt lat="37.981820" lon="-122.707410"><ele>462.6</ele></trkpt><trkpt lat="37.982040" lon="-122.707650"><ele>459.9</ele></trkpt><trkpt lat="37.982130" lon="-122.707800"><ele>458.5</ele></trkpt><trkpt lat="37.982440" lon="-122.708250"><ele>454.8</ele></trkpt><trkpt lat="37.982690" lon="-122.708720"><ele>452.3</ele></trkpt><trkpt lat="37.982890" lon="-122.709050"><ele>451.2</ele></trkpt><trkpt lat="37.982990" lon="-122.709170"><ele>450.7</ele></trkpt><trkpt lat="37.983180" lon="-122.709460"><ele>449.9</ele></trkpt><trkpt lat="37.983370" lon="-122.709800"><ele>449.2</ele></trkpt><trkpt lat="37.983460" lon="-122.710100"><ele>449.1</ele></trkpt><trkpt lat="37.983490" lon="-122.710280"><ele>449.0</ele></trkpt><trkpt lat="37.983670" lon="-122.710730"><ele>449.8</ele></trkpt><trkpt lat="37.983690" lon="-122.710820"><ele>450.0</ele></trkpt><trkpt lat="37.983680" lon="-122.711380"><ele>451.1</ele></trkpt><trkpt lat="37.983510" lon="-122.711890"><ele>449.9</ele></trkpt><trkpt lat="37.983440" lon="-122.712060"><ele>448.7</ele></trkpt><trkpt lat="37.983420" lon="-122.712390"><ele>446.9</ele></trkpt><trkpt lat="37.983420" lon="-122.712790"><ele>445.3</ele></trkpt><trkpt lat="37.983470" lon="-122.712990"><ele>444.4</ele></trkpt><trkpt lat="37.983510" lon="-122.713080"><ele>443.9</ele></trkpt><trkpt lat="37.983700" lon="-122.713370"><ele>442.2</ele></trkpt><trkpt lat="37.983810" lon="-122.713480"><ele>441.3</ele></trkpt><trkpt lat="37.984160" lon="-122.713760"><ele>437.4</ele></trkpt><trkpt lat="37.984210" lon="-122.713780"><ele>436.9</ele></trkpt><trkpt lat="37.984360" lon="-122.713800"><ele>435.7</ele></trkpt><trkpt lat="37.984810" lon="-122.714070"><ele>433.0</ele></trkpt><trkpt lat="37.985010" lon="-122.714250"><ele>434.8</ele></trkpt><trkpt lat="37.985230" lon="-122.714390"><ele>436.4</ele></trkpt><trkpt lat="37.986040" lon="-122.714760"><ele>432.9</ele></trkpt><trkpt lat="37.986100" lon="-122.714770"><ele>432.6</ele></trkpt><trkpt lat="37.986180" lon="-122.714730"><ele>432.2</ele></trkpt><trkpt lat="37.986560" lon="-122.714960"><ele>431.1</ele></trkpt><trkpt lat="37.986770" lon="-122.715140"><ele>430.5</ele></trkpt><trkpt lat="37.987190" lon="-122.715290"><ele>429.5</ele></trkpt><trkpt lat="37.987380" lon="-122.715260"><ele>427.7</ele></trkpt><trkpt lat="37.987660" lon="-122.715230"><ele>424.4</ele></trkpt><trkpt lat="37.987760" lon="-122.715230"><ele>423.2</ele></trkpt><trkpt lat="37.987890" lon="-122.715260"><ele>422.6</ele></trkpt><trkpt lat="37.988340" lon="-122.715160"><ele>420.8</ele></trkpt><trkpt lat="37.988710" lon="-122.715020"><ele>419.5</ele></trkpt><trkpt lat="37.988780" lon="-122.714960"><ele>419.2</ele></trkpt><trkpt lat="37.988920" lon="-122.714950"><ele>419.0</ele></trkpt><trkpt lat="37.989360" lon="-122.715140"><ele>418.5</ele></trkpt><trkpt lat="37.989920" lon="-122.715300"><ele>418.0</ele></trkpt><trkpt lat="37.990690" lon="-122.715710"><ele>422.5</ele></trkpt><trkpt lat="37.991400" lon="-122.716290"><ele>424.7</ele></trkpt><trkpt lat="37.991620" lon="-122.716540"><ele>422.5</ele></trkpt><trkpt lat="37.991820" lon="-122.716860"><ele>421.2</ele></trkpt><trkpt lat="37.992150" lon="-122.717260"><ele>419.7</ele></trkpt><trkpt lat="37.993150" lon="-122.718300"><ele>407.1</ele></trkpt><trkpt lat="37.994340" lon="-122.719110"><ele>404.5</ele></trkpt><trkpt lat="37.995210" lon="-122.719660"><ele>405.6</ele></trkpt><trkpt lat="37.995390" lon="-122.719790"><ele>405.4</ele></trkpt><trkpt lat="37.996000" lon="-122.720300"><ele>404.8</ele></trkpt><trkpt lat="37.996870" lon="-122.721000"><ele>406.6</ele></trkpt><trkpt lat="37.998000" lon="-122.721800"><ele>405.2</ele></trkpt><trkpt lat="37.998120" lon="-122.721900"><ele>404.8</ele></trkpt><trkpt lat="37.998220" lon="-122.722020"><ele>404.3</ele></trkpt><trkpt lat="37.998330" lon="-122.722200"><ele>403.7</ele></trkpt><trkpt lat="37.998510" lon="-122.722570"><ele>402.6</ele></trkpt><trkpt lat="37.998740" lon="-122.722950"><ele>401.4</ele></trkpt><trkpt lat="37.999360" lon="-122.723680"><ele>402.1</ele></trkpt><trkpt lat="37.999700" lon="-122.724050"><ele>402.6</ele></trkpt><trkpt lat="38.000240" lon="-122.724600"><ele>402.5</ele></trkpt><trkpt lat="38.000390" lon="-122.724820"><ele>401.9</ele></trkpt><trkpt lat="38.000460" lon="-122.724870"><ele>401.4</ele></trkpt><trkpt lat="38.000610" lon="-122.724940"><ele>400.5</ele></trkpt><trkpt lat="38.000760" lon="-122.724960"><ele>399.7</ele></trkpt><trkpt lat="38.001020" lon="-122.724950"><ele>398.1</ele></trkpt><trkpt lat="38.001080" lon="-122.724960"><ele>397.7</ele></trkpt><trkpt lat="38.001220" lon="-122.725040"><ele>396.7</ele></trkpt><trkpt lat="38.002150" lon="-122.725870"><ele>387.3</ele></trkpt><trkpt lat="38.002450" lon="-122.726100"><ele>384.5</ele></trkpt><trkpt lat="38.002500" lon="-122.726160"><ele>384.0</ele></trkpt><trkpt lat="38.002540" lon="-122.726240"><ele>383.4</ele></trkpt><trkpt lat="38.002610" lon="-122.726500"><ele>381.6</ele></trkpt><trkpt lat="38.002760" lon="-122.726780"><ele>379.1</ele></trkpt><trkpt lat="38.002970" lon="-122.727100"><ele>375.2</ele></trkpt><trkpt lat="38.003060" lon="-122.727190"><ele>373.5</ele></trkpt><trkpt lat="38.003590" lon="-122.727600"><ele>364.3</ele></trkpt><trkpt lat="38.003950" lon="-122.727840"><ele>358.2</ele></trkpt><trkpt lat="38.004250" lon="-122.728080"><ele>352.9</ele></trkpt><trkpt lat="38.004430" lon="-122.728350"><ele>348.2</ele></trkpt><trkpt lat="38.004550" lon="-122.728490"><ele>345.4</ele></trkpt><trkpt lat="38.004690" lon="-122.728620"><ele>342.9</ele></trkpt><trkpt lat="38.005070" lon="-122.728880"><ele>337.4</ele></trkpt><trkpt lat="38.005150" lon="-122.728970"><ele>336.5</ele></trkpt><trkpt lat="38.005880" lon="-122.729870"><ele>331.3</ele></trkpt><trkpt lat="38.005970" lon="-122.729990"><ele>331.0</ele></trkpt><trkpt lat="38.006030" lon="-122.730160"><ele>330.6</ele></trkpt><trkpt lat="38.006090" lon="-122.730360"><ele>330.2</ele></trkpt><trkpt lat="38.006130" lon="-122.730900"><ele>330.3</ele></trkpt><trkpt lat="38.006060" lon="-122.731450"><ele>329.4</ele></trkpt><trkpt lat="38.006060" lon="-122.731580"><ele>329.0</ele></trkpt><trkpt lat="38.006130" lon="-122.731720"><ele>328.5</ele></trkpt><trkpt lat="38.006370" lon="-122.732120"><ele>326.5</ele></trkpt><trkpt lat="38.007880" lon="-122.734860"><ele>304.4</ele></trkpt><trkpt lat="38.008010" lon="-122.735070"><ele>302.5</ele></trkpt><trkpt lat="38.008210" lon="-122.735280"><ele>300.2</ele></trkpt><trkpt lat="38.008320" lon="-122.735330"><ele>299.1</ele></trkpt><trkpt lat="38.009220" lon="-122.735350"><ele>291.6</ele></trkpt><trkpt lat="38.009450" lon="-122.735370"><ele>290.1</ele></trkpt><trkpt lat="38.009520" lon="-122.735390"><ele>289.6</ele></trkpt><trkpt lat="38.009590" lon="-122.735430"><ele>289.1</ele></trkpt><trkpt lat="38.009670" lon="-122.735500"><ele>288.7</ele></trkpt><trkpt lat="38.009840" lon="-122.735790"><ele>287.7</ele></trkpt><trkpt lat="38.009950" lon="-122.735950"><ele>287.2</ele></trkpt><trkpt lat="38.010100" lon="-122.736150"><ele>286.0</ele></trkpt><trkpt lat="38.010380" lon="-122.736440"><ele>283.9</ele></trkpt><trkpt lat="38.010640" lon="-122.736890"><ele>280.6</ele></trkpt><trkpt lat="38.010710" lon="-122.736970"><ele>279.9</ele></trkpt><trkpt lat="38.010830" lon="-122.737070"><ele>279.0</ele></trkpt><trkpt lat="38.011160" lon="-122.737290"><ele>276.5</ele></trkpt><trkpt lat="38.011400" lon="-122.737470"><ele>274.9</ele></trkpt><trkpt lat="38.011660" lon="-122.737780"><ele>272.9</ele></trkpt><trkpt lat="38.011860" lon="-122.737970"><ele>271.7</ele></trkpt><trkpt lat="38.012080" lon="-122.738150"><ele>270.4</ele></trkpt><trkpt lat="38.013670" lon="-122.739200"><ele>264.7</ele></trkpt><trkpt lat="38.014020" lon="-122.739490"><ele>264.4</ele></trkpt><trkpt lat="38.014170" lon="-122.739560"><ele>264.1</ele></trkpt><trkpt lat="38.014270" lon="-122.739570"><ele>264.0</ele></trkpt><trkpt lat="38.014700" lon="-122.740010"><ele>263.9</ele></trkpt><trkpt lat="38.014990" lon="-122.740460"><ele>264.5</ele></trkpt><trkpt lat="38.015440" lon="-122.740980"><ele>263.9</ele></trkpt><trkpt lat="38.015850" lon="-122.741280"><ele>262.4</ele></trkpt><trkpt lat="38.016520" lon="-122.741850"><ele>260.2</ele></trkpt><trkpt lat="38.017530" lon="-122.742520"><ele>257.1</ele></trkpt><trkpt lat="38.018170" lon="-122.743020"><ele>256.5</ele></trkpt><trkpt lat="38.018450" lon="-122.743320"><ele>256.9</ele></trkpt><trkpt lat="38.018530" lon="-122.743370"><ele>256.9</ele></trkpt><trkpt lat="38.018770" lon="-122.743470"><ele>256.9</ele></trkpt><trkpt lat="38.018890" lon="-122.743570"><ele>257.1</ele></trkpt><trkpt lat="38.019410" lon="-122.744000"><ele>258.2</ele></trkpt><trkpt lat="38.019760" lon="-122.744330"><ele>257.2</ele></trkpt><trkpt lat="38.020540" lon="-122.744920"><ele>253.9</ele></trkpt><trkpt lat="38.020660" lon="-122.745050"><ele>253.0</ele></trkpt><trkpt lat="38.020850" lon="-122.745410"><ele>252.2</ele></trkpt><trkpt lat="38.021130" lon="-122.746400"><ele>252.6</ele></trkpt><trkpt lat="38.021210" lon="-122.746590"><ele>252.4</ele></trkpt><trkpt lat="38.021700" lon="-122.747520"><ele>252.3</ele></trkpt><trkpt lat="38.022150" lon="-122.748160"><ele>251.6</ele></trkpt><trkpt lat="38.022260" lon="-122.748320"><ele>251.7</ele></trkpt><trkpt lat="38.022330" lon="-122.748470"><ele>251.7</ele></trkpt><trkpt lat="38.022390" lon="-122.748710"><ele>250.8</ele></trkpt><trkpt lat="38.022440" lon="-122.749300"><ele>248.3</ele></trkpt><trkpt lat="38.022530" lon="-122.749530"><ele>247.4</ele></trkpt><trkpt lat="38.023120" lon="-122.751000"><ele>248.1</ele></trkpt><trkpt lat="38.023360" lon="-122.751490"><ele>245.7</ele></trkpt><trkpt lat="38.023490" lon="-122.751740"><ele>244.6</ele></trkpt><trkpt lat="38.024510" lon="-122.753400"><ele>235.4</ele></trkpt><trkpt lat="38.025100" lon="-122.754400"><ele>230.7</ele></trkpt><trkpt lat="38.026240" lon="-122.756170"><ele>213.2</ele></trkpt><trkpt lat="38.026960" lon="-122.757350"><ele>199.9</ele></trkpt><trkpt lat="38.027050" lon="-122.757520"><ele>198.5</ele></trkpt><trkpt lat="38.027350" lon="-122.757940"><ele>194.9</ele></trkpt><trkpt lat="38.027650" lon="-122.758590"><ele>192.8</ele></trkpt><trkpt lat="38.028280" lon="-122.759470"><ele>194.4</ele></trkpt><trkpt lat="38.028470" lon="-122.759590"><ele>195.0</ele></trkpt><trkpt lat="38.029250" lon="-122.759820"><ele>197.6</ele></trkpt><trkpt lat="38.030080" lon="-122.759900"><ele>198.4</ele></trkpt><trkpt lat="38.031480" lon="-122.760220"><ele>199.8</ele></trkpt><trkpt lat="38.032160" lon="-122.760480"><ele>199.9</ele></trkpt><trkpt lat="38.032320" lon="-122.760510"><ele>200.2</ele></trkpt><trkpt lat="38.032470" lon="-122.760520"><ele>200.5</ele></trkpt><trkpt lat="38.032630" lon="-122.760490"><ele>200.9</ele></trkpt><trkpt lat="38.032760" lon="-122.760440"><ele>201.2</ele></trkpt><trkpt lat="38.033030" lon="-122.760260"><ele>201.0</ele></trkpt><trkpt lat="38.033440" lon="-122.759910"><ele>200.6</ele></trkpt><trkpt lat="38.033620" lon="-122.759820"><ele>200.3</ele></trkpt><trkpt lat="38.034470" lon="-122.759570"><ele>196.9</ele></trkpt><trkpt lat="38.034840" lon="-122.759430"><ele>194.1</ele></trkpt><trkpt lat="38.034990" lon="-122.759340"><ele>191.6</ele></trkpt><trkpt lat="38.035110" lon="-122.759220"><ele>189.3</ele></trkpt><trkpt lat="38.035340" lon="-122.758900"><ele>184.5</ele></trkpt><trkpt lat="38.035800" lon="-122.758430"><ele>176.6</ele></trkpt><trkpt lat="38.035870" lon="-122.758300"><ele>175.0</ele></trkpt><trkpt lat="38.035950" lon="-122.758050"><ele>172.3</ele></trkpt><trkpt lat="38.035990" lon="-122.758010"><ele>171.7</ele></trkpt><trkpt lat="38.036040" lon="-122.757890"><ele>170.5</ele></trkpt><trkpt lat="38.036430" lon="-122.757440"><ele>162.7</ele></trkpt><trkpt lat="38.036510" lon="-122.757300"><ele>160.0</ele></trkpt><trkpt lat="38.036570" lon="-122.757120"><ele>156.9</ele></trkpt><trkpt lat="38.036610" lon="-122.756900"><ele>154.7</ele></trkpt><trkpt lat="38.036590" lon="-122.756370"><ele>150.7</ele></trkpt><trkpt lat="38.036610" lon="-122.756250"><ele>150.0</ele></trkpt><trkpt lat="38.036940" lon="-122.755420"><ele>144.0</ele></trkpt><trkpt lat="38.036980" lon="-122.755260"><ele>142.9</ele></trkpt><trkpt lat="38.037000" lon="-122.755070"><ele>141.7</ele></trkpt><trkpt lat="38.037010" lon="-122.754960"><ele>140.9</ele></trkpt><trkpt lat="38.036980" lon="-122.754520"><ele>137.9</ele></trkpt><trkpt lat="38.036910" lon="-122.754140"><ele>137.5</ele></trkpt><trkpt lat="38.036530" lon="-122.753460"><ele>136.8</ele></trkpt><trkpt lat="38.036460" lon="-122.753250"><ele>136.4</ele></trkpt><trkpt lat="38.036350" lon="-122.752780"><ele>133.6</ele></trkpt><trkpt lat="38.036230" lon="-122.752500"><ele>131.6</ele></trkpt><trkpt lat="38.036210" lon="-122.752380"><ele>130.6</ele></trkpt><trkpt lat="38.036240" lon="-122.752250"><ele>129.6</ele></trkpt><trkpt lat="38.036310" lon="-122.752110"><ele>128.3</ele></trkpt><trkpt lat="38.036580" lon="-122.751680"><ele>124.7</ele></trkpt><trkpt lat="38.036650" lon="-122.751360"><ele>122.4</ele></trkpt><trkpt lat="38.036710" lon="-122.751200"><ele>120.8</ele></trkpt><trkpt lat="38.036940" lon="-122.750750"><ele>115.7</ele></trkpt><trkpt lat="38.036960" lon="-122.750670"><ele>114.8</ele></trkpt><trkpt lat="38.036950" lon="-122.750550"><ele>113.5</ele></trkpt><trkpt lat="38.036890" lon="-122.750310"><ele>110.8</ele></trkpt><trkpt lat="38.036860" lon="-122.749940"><ele>107.5</ele></trkpt><trkpt lat="38.036850" lon="-122.749640"><ele>105.0</ele></trkpt><trkpt lat="38.036880" lon="-122.749390"><ele>102.7</ele></trkpt><trkpt lat="38.036940" lon="-122.749270"><ele>101.3</ele></trkpt><trkpt lat="38.037040" lon="-122.749170"><ele>99.6</ele></trkpt><trkpt lat="38.037300" lon="-122.749020"><ele>96.0</ele></trkpt><trkpt lat="38.037360" lon="-122.748950"><ele>95.0</ele></trkpt><trkpt lat="38.037360" lon="-122.748840"><ele>93.9</ele></trkpt><trkpt lat="38.037310" lon="-122.748740"><ele>92.8</ele></trkpt><trkpt lat="38.037000" lon="-122.748560"><ele>88.6</ele></trkpt><trkpt lat="38.036800" lon="-122.748490"><ele>86.0</ele></trkpt><trkpt lat="38.036740" lon="-122.748450"><ele>85.2</ele></trkpt><trkpt lat="38.036740" lon="-122.748400"><ele>84.7</ele></trkpt><trkpt lat="38.036770" lon="-122.748350"><ele>84.1</ele></trkpt><trkpt lat="38.036820" lon="-122.748330"><ele>83.5</ele></trkpt><trkpt lat="38.037080" lon="-122.748330"><ele>82.3</ele></trkpt><trkpt lat="38.037320" lon="-122.748170"><ele>81.1</ele></trkpt><trkpt lat="38.037630" lon="-122.748050"><ele>79.5</ele></trkpt><trkpt lat="38.037750" lon="-122.747950"><ele>78.7</ele></trkpt><trkpt lat="38.037830" lon="-122.747810"><ele>77.9</ele></trkpt><trkpt lat="38.037820" lon="-122.747690"><ele>77.2</ele></trkpt><trkpt lat="38.037760" lon="-122.747630"><ele>76.5</ele></trkpt><trkpt lat="38.037220" lon="-122.747720"><ele>72.1</ele></trkpt><trkpt lat="38.036840" lon="-122.747710"><ele>69.2</ele></trkpt><trkpt lat="38.036640" lon="-122.747660"><ele>68.2</ele></trkpt><trkpt lat="38.036540" lon="-122.747530"><ele>67.6</ele></trkpt><trkpt lat="38.036360" lon="-122.747240"><ele>65.8</ele></trkpt><trkpt lat="38.036270" lon="-122.747010"><ele>64.4</ele></trkpt><trkpt lat="38.036220" lon="-122.746950"><ele>63.9</ele></trkpt><trkpt lat="38.035850" lon="-122.746600"><ele>57.9</ele></trkpt><trkpt lat="38.035610" lon="-122.746120"><ele>54.0</ele></trkpt><trkpt lat="38.035650" lon="-122.745980"><ele>53.4</ele></trkpt><trkpt lat="38.035560" lon="-122.745930"><ele>53.0</ele></trkpt><trkpt lat="38.035110" lon="-122.745340"><ele>50.0</ele></trkpt><trkpt lat="38.034910" lon="-122.744930"><ele>49.7</ele></trkpt><trkpt lat="38.034820" lon="-122.744780"><ele>49.6</ele></trkpt><trkpt lat="38.034760" lon="-122.744730"><ele>49.6</ele></trkpt><trkpt lat="38.034650" lon="-122.744580"><ele>49.4</ele></trkpt><trkpt lat="38.034310" lon="-122.744040"><ele>51.7</ele></trkpt><trkpt lat="38.034040" lon="-122.743710"><ele>55.1</ele></trkpt><trkpt lat="38.033670" lon="-122.743300"><ele>59.2</ele></trkpt><trkpt lat="38.033400" lon="-122.743070"><ele>63.4</ele></trkpt><trkpt lat="38.033080" lon="-122.742860"><ele>67.0</ele></trkpt><trkpt lat="38.032910" lon="-122.742790"><ele>68.3</ele></trkpt><trkpt lat="38.032620" lon="-122.742750"><ele>70.6</ele></trkpt><trkpt lat="38.032400" lon="-122.742770"><ele>72.4</ele></trkpt><trkpt lat="38.032050" lon="-122.742840"><ele>75.5</ele></trkpt><trkpt lat="38.031840" lon="-122.742900"><ele>77.4</ele></trkpt><trkpt lat="38.031500" lon="-122.743060"><ele>80.8</ele></trkpt><trkpt lat="38.031050" lon="-122.743340"><ele>85.0</ele></trkpt><trkpt lat="38.030700" lon="-122.743670"><ele>87.5</ele></trkpt><trkpt lat="38.030470" lon="-122.743960"><ele>89.5</ele></trkpt><trkpt lat="38.030300" lon="-122.744140"><ele>90.7</ele></trkpt><trkpt lat="38.030110" lon="-122.744280"><ele>91.3</ele></trkpt><trkpt lat="38.029820" lon="-122.744460"><ele>91.4</ele></trkpt><trkpt lat="38.029580" lon="-122.744570"><ele>88.4</ele></trkpt><trkpt lat="38.029440" lon="-122.744590"><ele>86.7</ele></trkpt><trkpt lat="38.029180" lon="-122.744600"><ele>84.9</ele></trkpt><trkpt lat="38.029040" lon="-122.744570"><ele>84.3</ele></trkpt><trkpt lat="38.028900" lon="-122.744520"><ele>83.6</ele></trkpt><trkpt lat="38.028780" lon="-122.744430"><ele>82.9</ele></trkpt><trkpt lat="38.028630" lon="-122.744300"><ele>81.8</ele></trkpt><trkpt lat="38.028490" lon="-122.744090"><ele>80.4</ele></trkpt><trkpt lat="38.028400" lon="-122.743890"><ele>78.3</ele></trkpt><trkpt lat="38.028330" lon="-122.743530"><ele>73.2</ele></trkpt><trkpt lat="38.028310" lon="-122.743070"><ele>67.1</ele></trkpt><trkpt lat="38.028330" lon="-122.742470"><ele>61.2</ele></trkpt><trkpt lat="38.028430" lon="-122.741750"><ele>57.8</ele></trkpt><trkpt lat="38.028650" lon="-122.741280"><ele>53.4</ele></trkpt><trkpt lat="38.028800" lon="-122.741070"><ele>50.6</ele></trkpt><trkpt lat="38.029340" lon="-122.740480"><ele>46.8</ele></trkpt><trkpt lat="38.029500" lon="-122.740270"><ele>46.4</ele></trkpt><trkpt lat="38.029580" lon="-122.740110"><ele>46.1</ele></trkpt><trkpt lat="38.029650" lon="-122.739900"><ele>45.8</ele></trkpt><trkpt lat="38.029710" lon="-122.739680"><ele>45.6</ele></trkpt><trkpt lat="38.029720" lon="-122.739500"><ele>45.4</ele></trkpt><trkpt lat="38.029700" lon="-122.739220"><ele>45.2</ele></trkpt><trkpt lat="38.029620" lon="-122.738860"><ele>44.0</ele></trkpt><trkpt lat="38.029520" lon="-122.738570"><ele>42.9</ele></trkpt><trkpt lat="38.029360" lon="-122.738210"><ele>42.4</ele></trkpt><trkpt lat="38.029210" lon="-122.737950"><ele>42.1</ele></trkpt><trkpt lat="38.029060" lon="-122.737740"><ele>43.6</ele></trkpt><trkpt lat="38.028760" lon="-122.737400"><ele>47.1</ele></trkpt><trkpt lat="38.028550" lon="-122.737220"><ele>50.9</ele></trkpt><trkpt lat="38.028230" lon="-122.737020"><ele>56.1</ele></trkpt><trkpt lat="38.027850" lon="-122.736870"><ele>62.1</ele></trkpt><trkpt lat="38.027490" lon="-122.736810"><ele>70.3</ele></trkpt><trkpt lat="38.027280" lon="-122.736810"><ele>75.0</ele></trkpt><trkpt lat="38.026920" lon="-122.736850"><ele>83.4</ele></trkpt><trkpt lat="38.025650" lon="-122.737190"><ele>98.8</ele></trkpt><trkpt lat="38.025330" lon="-122.737230"><ele>102.2</ele></trkpt><trkpt lat="38.025000" lon="-122.737230"><ele>101.9</ele></trkpt><trkpt lat="38.024750" lon="-122.737190"><ele>98.9</ele></trkpt><trkpt lat="38.024470" lon="-122.737110"><ele>96.4</ele></trkpt><trkpt lat="38.024240" lon="-122.736990"><ele>94.7</ele></trkpt><trkpt lat="38.023930" lon="-122.736750"><ele>90.2</ele></trkpt><trkpt lat="38.022810" lon="-122.735590"><ele>75.8</ele></trkpt><trkpt lat="38.022470" lon="-122.735270"><ele>77.2</ele></trkpt><trkpt lat="38.022190" lon="-122.735060"><ele>76.8</ele></trkpt><trkpt lat="38.021750" lon="-122.734860"><ele>78.0</ele></trkpt><trkpt lat="38.021600" lon="-122.734850"><ele>79.5</ele></trkpt><trkpt lat="38.021180" lon="-122.734760"><ele>82.0</ele></trkpt><trkpt lat="38.020720" lon="-122.734640"><ele>83.3</ele></trkpt><trkpt lat="38.020520" lon="-122.734550"><ele>83.7</ele></trkpt><trkpt lat="38.020060" lon="-122.734440"><ele>85.6</ele></trkpt><trkpt lat="38.019580" lon="-122.734240"><ele>88.0</ele></trkpt><trkpt lat="38.018480" lon="-122.733630"><ele>88.7</ele></trkpt><trkpt lat="38.018120" lon="-122.733360"><ele>88.4</ele></trkpt></trkseg></trk>
</gpx>