<?xml version="1.0" encoding="UTF-8"?>
<gpx version="1.1" creator="north-bay-planning" xmlns="http://www.topografix.com/GPX/1/1">
<metadata><name>Mon Oct 26 A Haypress to Sausalito ferry</name><desc>Mon Oct 26 A Haypress to Sausalito ferry</desc></metadata>
<wpt lat="37.824620" lon="-122.526580"><name>Night 1 Bicentennial site 02</name><desc>Booked.</desc></wpt>
<wpt lat="37.903820" lon="-122.603640"><name>Night 2 Pantoll hike-and-bike</name><desc>Walk-up.</desc></wpt>
<wpt lat="38.018280" lon="-122.733140"><name>Night 3 Samuel P. Taylor hike-and-bike</name><desc>Walk-up.</desc></wpt>
<wpt lat="37.860800" lon="-122.545820"><name>Night 4 Haypress</name><desc>Reserve on recreation.gov.</desc></wpt>
<trk><name>Mon Oct 26 A Haypress to Sausalito ferry</name><trkseg><trkpt lat="37.860875" lon="-122.545730"><ele>98.1</ele></trkpt><trkpt lat="37.860875" lon="-122.545730"><ele>98.1</ele></trkpt><trkpt lat="37.860893" lon="-122.545726"><ele>98.0</ele></trkpt><trkpt lat="37.860909" lon="-122.545716"><ele>97.9</ele></trkpt><trkpt lat="37.860922" lon="-122.545698"><ele>97.8</ele></trkpt><trkpt lat="37.860938" lon="-122.545671"><ele>97.6</ele></trkpt><trkpt lat="37.861010" lon="-122.545530"><ele>96.6</ele></trkpt><trkpt lat="37.861080" lon="-122.545422"><ele>95.8</ele></trkpt><trkpt lat="37.861122" lon="-122.545375"><ele>95.4</ele></trkpt><trkpt lat="37.861482" lon="-122.545065"><ele>92.1</ele></trkpt><trkpt lat="37.861542" lon="-122.545003"><ele>91.5</ele></trkpt><trkpt lat="37.861579" lon="-122.544948"><ele>90.9</ele></trkpt><trkpt lat="37.861594" lon="-122.544878"><ele>90.4</ele></trkpt><trkpt lat="37.861593" lon="-122.544817"><ele>90.0</ele></trkpt><trkpt lat="37.861585" lon="-122.544765"><ele>89.6</ele></trkpt><trkpt lat="37.861558" lon="-122.544717"><ele>89.2</ele></trkpt><trkpt lat="37.861529" lon="-122.544686"><ele>88.8</ele></trkpt><trkpt lat="37.861487" lon="-122.544667"><ele>88.4</ele></trkpt><trkpt lat="37.861440" lon="-122.544660"><ele>88.0</ele></trkpt><trkpt lat="37.861294" lon="-122.544675"><ele>86.7</ele></trkpt><trkpt lat="37.861193" lon="-122.544677"><ele>85.9</ele></trkpt><trkpt lat="37.861139" lon="-122.544669"><ele>85.5</ele></trkpt><trkpt lat="37.861087" lon="-122.544651"><ele>85.1</ele></trkpt><trkpt lat="37.860924" lon="-122.544558"><ele>83.8</ele></trkpt><trkpt lat="37.860783" lon="-122.544451"><ele>82.5</ele></trkpt><trkpt lat="37.860605" lon="-122.544293"><ele>81.0</ele></trkpt><trkpt lat="37.860223" lon="-122.543894"><ele>79.1</ele></trkpt><trkpt lat="37.859847" lon="-122.543445"><ele>79.0</ele></trkpt><trkpt lat="37.859763" lon="-122.543319"><ele>79.3</ele></trkpt><trkpt lat="37.859701" lon="-122.543220"><ele>79.5</ele></trkpt><trkpt lat="37.859637" lon="-122.543095"><ele>79.7</ele></trkpt><trkpt lat="37.859353" lon="-122.542466"><ele>77.0</ele></trkpt><trkpt lat="37.859290" lon="-122.542355"><ele>76.4</ele></trkpt><trkpt lat="37.859239" lon="-122.542271"><ele>76.0</ele></trkpt><trkpt lat="37.859153" lon="-122.542170"><ele>75.1</ele></trkpt><trkpt lat="37.858966" lon="-122.541972"><ele>73.2</ele></trkpt><trkpt lat="37.858877" lon="-122.541865"><ele>72.3</ele></trkpt><trkpt lat="37.858663" lon="-122.541559"><ele>69.7</ele></trkpt><trkpt lat="37.858570" lon="-122.541430"><ele>68.2</ele></trkpt><trkpt lat="37.858332" lon="-122.541129"><ele>64.7</ele></trkpt><trkpt lat="37.858200" lon="-122.540950"><ele>62.6</ele></trkpt><trkpt lat="37.858147" lon="-122.540856"><ele>61.6</ele></trkpt><trkpt lat="37.858088" lon="-122.540711"><ele>60.2</ele></trkpt><trkpt lat="37.858012" lon="-122.540523"><ele>58.3</ele></trkpt><trkpt lat="37.857972" lon="-122.540443"><ele>57.5</ele></trkpt><trkpt lat="37.857912" lon="-122.540351"><ele>56.4</ele></trkpt><trkpt lat="37.857811" lon="-122.540229"><ele>54.9</ele></trkpt><trkpt lat="37.857730" lon="-122.540122"><ele>54.2</ele></trkpt><trkpt lat="37.857684" lon="-122.540044"><ele>53.8</ele></trkpt><trkpt lat="37.857645" lon="-122.539966"><ele>53.4</ele></trkpt><trkpt lat="37.857621" lon="-122.539877"><ele>53.0</ele></trkpt><trkpt lat="37.857603" lon="-122.539782"><ele>52.6</ele></trkpt><trkpt lat="37.857586" lon="-122.539674"><ele>52.1</ele></trkpt><trkpt lat="37.857568" lon="-122.539566"><ele>51.6</ele></trkpt><trkpt lat="37.857547" lon="-122.539465"><ele>51.2</ele></trkpt><trkpt lat="37.857521" lon="-122.539359"><ele>50.6</ele></trkpt><trkpt lat="37.857488" lon="-122.539243"><ele>49.8</ele></trkpt><trkpt lat="37.857448" lon="-122.539108"><ele>48.9</ele></trkpt><trkpt lat="37.857412" lon="-122.538995"><ele>48.1</ele></trkpt><trkpt lat="37.857471" lon="-122.538964"><ele>47.6</ele></trkpt><trkpt lat="37.857526" lon="-122.538929"><ele>47.1</ele></trkpt><trkpt lat="37.857583" lon="-122.538885"><ele>46.6</ele></trkpt><trkpt lat="37.857636" lon="-122.538838"><ele>46.1</ele></trkpt><trkpt lat="37.857701" lon="-122.538767"><ele>45.4</ele></trkpt><trkpt lat="37.857769" lon="-122.538689"><ele>45.1</ele></trkpt><trkpt lat="37.857835" lon="-122.538603"><ele>45.0</ele></trkpt><trkpt lat="37.858026" lon="-122.538342"><ele>44.7</ele></trkpt><trkpt lat="37.858099" lon="-122.538247"><ele>44.7</ele></trkpt><trkpt lat="37.858167" lon="-122.538163"><ele>44.6</ele></trkpt><trkpt lat="37.858230" lon="-122.538091"><ele>44.5</ele></trkpt><trkpt lat="37.858300" lon="-122.538017"><ele>44.8</ele></trkpt><trkpt lat="37.858378" lon="-122.537943"><ele>45.2</ele></trkpt><trkpt lat="37.858456" lon="-122.537879"><ele>45.5</ele></trkpt><trkpt lat="37.858539" lon="-122.537817"><ele>45.9</ele></trkpt><trkpt lat="37.858630" lon="-122.537754"><ele>46.3</ele></trkpt><trkpt lat="37.858730" lon="-122.537690"><ele>46.7</ele></trkpt><trkpt lat="37.859154" lon="-122.537413"><ele>49.6</ele></trkpt><trkpt lat="37.859614" lon="-122.537106"><ele>53.2</ele></trkpt><trkpt lat="37.859709" lon="-122.537038"><ele>54.1</ele></trkpt><trkpt lat="37.859794" lon="-122.536965"><ele>54.9</ele></trkpt><trkpt lat="37.859867" lon="-122.536892"><ele>55.7</ele></trkpt><trkpt lat="37.859945" lon="-122.536809"><ele>56.5</ele></trkpt><trkpt lat="37.860018" lon="-122.536725"><ele>57.3</ele></trkpt><trkpt lat="37.860101" lon="-122.536630"><ele>58.0</ele></trkpt><trkpt lat="37.860190" lon="-122.536531"><ele>58.2</ele></trkpt><trkpt lat="37.860328" lon="-122.536379"><ele>58.5</ele></trkpt><trkpt lat="37.860360" lon="-122.536345"><ele>58.6</ele></trkpt><trkpt lat="37.860549" lon="-122.536165"><ele>59.0</ele></trkpt><trkpt lat="37.860755" lon="-122.535969"><ele>58.9</ele></trkpt><trkpt lat="37.860840" lon="-122.535885"><ele>58.7</ele></trkpt><trkpt lat="37.860939" lon="-122.535781"><ele>58.5</ele></trkpt><trkpt lat="37.861031" lon="-122.535678"><ele>58.3</ele></trkpt><trkpt lat="37.861128" lon="-122.535567"><ele>58.0</ele></trkpt><trkpt lat="37.861222" lon="-122.535465"><ele>57.7</ele></trkpt><trkpt lat="37.861317" lon="-122.535367"><ele>57.2</ele></trkpt><trkpt lat="37.861368" lon="-122.535320"><ele>56.9</ele></trkpt><trkpt lat="37.861414" lon="-122.535279"><ele>56.7</ele></trkpt><trkpt lat="37.861467" lon="-122.535237"><ele>56.4</ele></trkpt><trkpt lat="37.861522" lon="-122.535196"><ele>56.2</ele></trkpt><trkpt lat="37.861581" lon="-122.535160"><ele>55.9</ele></trkpt><trkpt lat="37.861651" lon="-122.535124"><ele>55.6</ele></trkpt><trkpt lat="37.861826" lon="-122.535029"><ele>54.8</ele></trkpt><trkpt lat="37.861968" lon="-122.534927"><ele>54.1</ele></trkpt><trkpt lat="37.862069" lon="-122.534845"><ele>53.6</ele></trkpt><trkpt lat="37.862160" lon="-122.534741"><ele>53.1</ele></trkpt><trkpt lat="37.862235" lon="-122.534644"><ele>52.6</ele></trkpt><trkpt lat="37.862297" lon="-122.534553"><ele>52.2</ele></trkpt><trkpt lat="37.862364" lon="-122.534441"><ele>51.7</ele></trkpt><trkpt lat="37.862428" lon="-122.534341"><ele>51.3</ele></trkpt><trkpt lat="37.862502" lon="-122.534249"><ele>50.8</ele></trkpt><trkpt lat="37.862575" lon="-122.534173"><ele>50.4</ele></trkpt><trkpt lat="37.862660" lon="-122.534099"><ele>50.0</ele></trkpt><trkpt lat="37.862754" lon="-122.534032"><ele>49.6</ele></trkpt><trkpt lat="37.862838" lon="-122.533984"><ele>49.2</ele></trkpt><trkpt lat="37.862942" lon="-122.533938"><ele>48.7</ele></trkpt><trkpt lat="37.863436" lon="-122.533704"><ele>47.0</ele></trkpt><trkpt lat="37.863562" lon="-122.533653"><ele>46.5</ele></trkpt><trkpt lat="37.863900" lon="-122.533543"><ele>45.3</ele></trkpt><trkpt lat="37.864044" lon="-122.533481"><ele>44.8</ele></trkpt><trkpt lat="37.864163" lon="-122.533412"><ele>44.4</ele></trkpt><trkpt lat="37.864416" lon="-122.533226"><ele>43.0</ele></trkpt><trkpt lat="37.864515" lon="-122.533166"><ele>42.4</ele></trkpt><trkpt lat="37.864617" lon="-122.533124"><ele>41.7</ele></trkpt><trkpt lat="37.864776" lon="-122.533062"><ele>40.7</ele></trkpt><trkpt lat="37.864878" lon="-122.533018"><ele>40.1</ele></trkpt><trkpt lat="37.865089" lon="-122.532911"><ele>38.6</ele></trkpt><trkpt lat="37.865204" lon="-122.532840"><ele>37.8</ele></trkpt><trkpt lat="37.865302" lon="-122.532762"><ele>37.0</ele></trkpt><trkpt lat="37.865375" lon="-122.532679"><ele>36.3</ele></trkpt><trkpt lat="37.865450" lon="-122.532574"><ele>35.6</ele></trkpt><trkpt lat="37.865673" lon="-122.532206"><ele>33.4</ele></trkpt><trkpt lat="37.865763" lon="-122.532078"><ele>32.7</ele></trkpt><trkpt lat="37.865909" lon="-122.531894"><ele>31.6</ele></trkpt><trkpt lat="37.866001" lon="-122.531760"><ele>30.8</ele></trkpt><trkpt lat="37.866166" lon="-122.531540"><ele>30.4</ele></trkpt><trkpt lat="37.866232" lon="-122.531474"><ele>30.2</ele></trkpt><trkpt lat="37.866300" lon="-122.531425"><ele>30.1</ele></trkpt><trkpt lat="37.866373" lon="-122.531386"><ele>30.0</ele></trkpt><trkpt lat="37.866591" lon="-122.531293"><ele>29.6</ele></trkpt><trkpt lat="37.866681" lon="-122.531241"><ele>29.0</ele></trkpt><trkpt lat="37.866799" lon="-122.531152"><ele>28.1</ele></trkpt><trkpt lat="37.866910" lon="-122.531039"><ele>27.2</ele></trkpt><trkpt lat="37.867030" lon="-122.530892"><ele>26.1</ele></trkpt><trkpt lat="37.867128" lon="-122.530760"><ele>25.2</ele></trkpt><trkpt lat="37.867599" lon="-122.530084"><ele>21.6</ele></trkpt><trkpt lat="37.867704" lon="-122.529962"><ele>20.9</ele></trkpt><trkpt lat="37.867925" lon="-122.529757"><ele>19.5</ele></trkpt><trkpt lat="37.867999" lon="-122.529665"><ele>19.0</ele></trkpt><trkpt lat="37.868072" lon="-122.529548"><ele>18.4</ele></trkpt><trkpt lat="37.868258" lon="-122.529193"><ele>16.5</ele></trkpt><trkpt lat="37.868328" lon="-122.529089"><ele>15.9</ele></trkpt><trkpt lat="37.868425" lon="-122.528979"><ele>15.1</ele></trkpt><trkpt lat="37.868599" lon="-122.528804"><ele>13.7</ele></trkpt><trkpt lat="37.868807" lon="-122.528602"><ele>12.2</ele></trkpt><trkpt lat="37.868932" lon="-122.528490"><ele>11.3</ele></trkpt><trkpt lat="37.869069" lon="-122.528359"><ele>10.3</ele></trkpt><trkpt lat="37.869209" lon="-122.528213"><ele>9.2</ele></trkpt><trkpt lat="37.869388" lon="-122.528001"><ele>8.0</ele></trkpt><trkpt lat="37.869476" lon="-122.527886"><ele>7.3</ele></trkpt><trkpt lat="37.869544" lon="-122.527798"><ele>6.8</ele></trkpt><trkpt lat="37.869866" lon="-122.527393"><ele>6.7</ele></trkpt><trkpt lat="37.870050" lon="-122.527166"><ele>8.5</ele></trkpt><trkpt lat="37.870140" lon="-122.527070"><ele>9.3</ele></trkpt><trkpt lat="37.870222" lon="-122.527005"><ele>10.0</ele></trkpt><trkpt lat="37.870304" lon="-122.526953"><ele>10.4</ele></trkpt><trkpt lat="37.870409" lon="-122.526901"><ele>10.5</ele></trkpt><trkpt lat="37.870522" lon="-122.526853"><ele>10.6</ele></trkpt><trkpt lat="37.870932" lon="-122.526683"><ele>10.9</ele></trkpt><trkpt lat="37.871356" lon="-122.526495"><ele>11.3</ele></trkpt><trkpt lat="37.872011" lon="-122.526191"><ele>9.3</ele></trkpt><trkpt lat="37.872387" lon="-122.526039"><ele>7.4</ele></trkpt><trkpt lat="37.872935" lon="-122.525832"><ele>7.9</ele></trkpt><trkpt lat="37.873005" lon="-122.525818"><ele>7.9</ele></trkpt><trkpt lat="37.873060" lon="-122.525819"><ele>7.9</ele></trkpt><trkpt lat="37.873120" lon="-122.525833"><ele>7.9</ele></trkpt><trkpt lat="37.873394" lon="-122.525913"><ele>7.9</ele></trkpt><trkpt lat="37.873510" lon="-122.525941"><ele>7.9</ele></trkpt><trkpt lat="37.873689" lon="-122.525971"><ele>7.9</ele></trkpt><trkpt lat="37.873841" lon="-122.525995"><ele>8.0</ele></trkpt><trkpt lat="37.873962" lon="-122.526004"><ele>8.0</ele></trkpt><trkpt lat="37.874058" lon="-122.526000"><ele>8.1</ele></trkpt><trkpt lat="37.874231" lon="-122.525985"><ele>8.1</ele></trkpt><trkpt lat="37.874314" lon="-122.525983"><ele>8.2</ele></trkpt><trkpt lat="37.874379" lon="-122.525985"><ele>8.2</ele></trkpt><trkpt lat="37.874800" lon="-122.526056"><ele>8.5</ele></trkpt><trkpt lat="37.874892" lon="-122.526064"><ele>8.6</ele></trkpt><trkpt lat="37.874984" lon="-122.526069"><ele>8.7</ele></trkpt><trkpt lat="37.875073" lon="-122.526060"><ele>8.8</ele></trkpt><trkpt lat="37.875162" lon="-122.526045"><ele>8.8</ele></trkpt><trkpt lat="37.875401" lon="-122.525970"><ele>9.0</ele></trkpt><trkpt lat="37.875593" lon="-122.525905"><ele>9.2</ele></trkpt><trkpt lat="37.875675" lon="-122.525889"><ele>9.3</ele></trkpt><trkpt lat="37.875758" lon="-122.525887"><ele>9.3</ele></trkpt><trkpt lat="37.875851" lon="-122.525895"><ele>9.4</ele></trkpt><trkpt lat="37.875923" lon="-122.525923"><ele>9.4</ele></trkpt><trkpt lat="37.876010" lon="-122.525963"><ele>9.2</ele></trkpt><trkpt lat="37.876132" lon="-122.526047"><ele>9.0</ele></trkpt><trkpt lat="37.876245" lon="-122.526138"><ele>8.8</ele></trkpt><trkpt lat="37.876420" lon="-122.526297"><ele>8.4</ele></trkpt><trkpt lat="37.876518" lon="-122.526377"><ele>8.1</ele></trkpt><trkpt lat="37.876594" lon="-122.526418"><ele>7.7</ele></trkpt><trkpt lat="37.876664" lon="-122.526438"><ele>7.4</ele></trkpt><trkpt lat="37.876758" lon="-122.526443"><ele>6.9</ele></trkpt><trkpt lat="37.876862" lon="-122.526444"><ele>6.4</ele></trkpt><trkpt lat="37.876992" lon="-122.526434"><ele>5.7</ele></trkpt><trkpt lat="37.877058" lon="-122.526488"><ele>5.3</ele></trkpt><trkpt lat="37.877174" lon="-122.526428"><ele>4.7</ele></trkpt><trkpt lat="37.877288" lon="-122.526362"><ele>4.2</ele></trkpt><trkpt lat="37.877372" lon="-122.526283"><ele>3.8</ele></trkpt><trkpt lat="37.877461" lon="-122.526177"><ele>3.3</ele></trkpt><trkpt lat="37.877515" lon="-122.526086"><ele>3.0</ele></trkpt><trkpt lat="37.877588" lon="-122.525933"><ele>2.4</ele></trkpt><trkpt lat="37.877650" lon="-122.525784"><ele>1.9</ele></trkpt><trkpt lat="37.877681" lon="-122.525669"><ele>1.7</ele></trkpt><trkpt lat="37.877691" lon="-122.525581"><ele>1.6</ele></trkpt><trkpt lat="37.877695" lon="-122.525473"><ele>1.5</ele></trkpt><trkpt lat="37.877620" lon="-122.525037"><ele>1.1</ele></trkpt><trkpt lat="37.877630" lon="-122.524897"><ele>0.9</ele></trkpt><trkpt lat="37.877755" lon="-122.524516"><ele>1.3</ele></trkpt><trkpt lat="37.877855" lon="-122.524062"><ele>1.8</ele></trkpt><trkpt lat="37.877939" lon="-122.523883"><ele>2.0</ele></trkpt><trkpt lat="37.878026" lon="-122.523755"><ele>2.1</ele></trkpt><trkpt lat="37.878104" lon="-122.523670"><ele>2.3</ele></trkpt><trkpt lat="37.878188" lon="-122.523601"><ele>2.4</ele></trkpt><trkpt lat="37.878282" lon="-122.523543"><ele>2.5</ele></trkpt><trkpt lat="37.878398" lon="-122.523525"><ele>2.7</ele></trkpt><trkpt lat="37.878474" lon="-122.523529"><ele>2.8</ele></trkpt><trkpt lat="37.878598" lon="-122.523543"><ele>2.9</ele></trkpt><trkpt lat="37.878675" lon="-122.523545"><ele>2.9</ele></trkpt><trkpt lat="37.878797" lon="-122.523534"><ele>3.0</ele></trkpt><trkpt lat="37.878924" lon="-122.523509"><ele>3.2</ele></trkpt><trkpt lat="37.879015" lon="-122.523489"><ele>3.2</ele></trkpt><trkpt lat="37.879101" lon="-122.523457"><ele>3.3</ele></trkpt><trkpt lat="37.879210" lon="-122.523379"><ele>3.3</ele></trkpt><trkpt lat="37.879372" lon="-122.523249"><ele>3.2</ele></trkpt><trkpt lat="37.879435" lon="-122.523171"><ele>3.2</ele></trkpt><trkpt lat="37.879437" lon="-122.523126"><ele>3.2</ele></trkpt><trkpt lat="37.879441" lon="-122.523038"><ele>3.2</ele></trkpt><trkpt lat="37.879474" lon="-122.522959"><ele>3.1</ele></trkpt><trkpt lat="37.879520" lon="-122.522908"><ele>3.1</ele></trkpt><trkpt lat="37.879580" lon="-122.522886"><ele>3.1</ele></trkpt><trkpt lat="37.879691" lon="-122.522857"><ele>3.0</ele></trkpt><trkpt lat="37.879698" lon="-122.522838"><ele>3.0</ele></trkpt><trkpt lat="37.879765" lon="-122.522778"><ele>3.0</ele></trkpt><trkpt lat="37.880358" lon="-122.522236"><ele>2.9</ele></trkpt><trkpt lat="37.880541" lon="-122.522062"><ele>2.7</ele></trkpt><trkpt lat="37.880597" lon="-122.521996"><ele>2.7</ele></trkpt><trkpt lat="37.880883" lon="-122.521584"><ele>2.4</ele></trkpt><trkpt lat="37.881506" lon="-122.520647"><ele>2.4</ele></trkpt><trkpt lat="37.881538" lon="-122.520592"><ele>2.4</ele></trkpt><trkpt lat="37.881558" lon="-122.520545"><ele>2.4</ele></trkpt><trkpt lat="37.881567" lon="-122.520494"><ele>2.4</ele></trkpt><trkpt lat="37.881562" lon="-122.520406"><ele>2.4</ele></trkpt><trkpt lat="37.881563" lon="-122.520361"><ele>2.4</ele></trkpt><trkpt lat="37.881573" lon="-122.520309"><ele>2.4</ele></trkpt><trkpt lat="37.881589" lon="-122.520263"><ele>2.4</ele></trkpt><trkpt lat="37.881649" lon="-122.520152"><ele>2.4</ele></trkpt><trkpt lat="37.881791" lon="-122.520022"><ele>2.3</ele></trkpt><trkpt lat="37.881819" lon="-122.519976"><ele>2.3</ele></trkpt><trkpt lat="37.881877" lon="-122.519873"><ele>2.3</ele></trkpt><trkpt lat="37.881893" lon="-122.519829"><ele>2.2</ele></trkpt><trkpt lat="37.881940" lon="-122.519653"><ele>2.2</ele></trkpt><trkpt lat="37.881968" lon="-122.519576"><ele>2.1</ele></trkpt><trkpt lat="37.882118" lon="-122.519326"><ele>2.1</ele></trkpt><trkpt lat="37.882275" lon="-122.519068"><ele>2.1</ele></trkpt><trkpt lat="37.882298" lon="-122.519034"><ele>2.1</ele></trkpt><trkpt lat="37.882327" lon="-122.519003"><ele>2.1</ele></trkpt><trkpt lat="37.882350" lon="-122.518992"><ele>2.1</ele></trkpt><trkpt lat="37.882384" lon="-122.518982"><ele>2.1</ele></trkpt><trkpt lat="37.882426" lon="-122.518982"><ele>2.1</ele></trkpt><trkpt lat="37.882462" lon="-122.518992"><ele>2.1</ele></trkpt><trkpt lat="37.882510" lon="-122.518998"><ele>2.1</ele></trkpt><trkpt lat="37.882549" lon="-122.518993"><ele>2.1</ele></trkpt><trkpt lat="37.882598" lon="-122.518970"><ele>2.0</ele></trkpt><trkpt lat="37.882625" lon="-122.518954"><ele>2.0</ele></trkpt><trkpt lat="37.882680" lon="-122.518910"><ele>1.9</ele></trkpt><trkpt lat="37.882508" lon="-122.518687"><ele>1.6</ele></trkpt><trkpt lat="37.882230" lon="-122.518328"><ele>1.2</ele></trkpt><trkpt lat="37.882013" lon="-122.518028"><ele>1.0</ele></trkpt><trkpt lat="37.881799" lon="-122.517737"><ele>1.0</ele></trkpt><trkpt lat="37.881214" lon="-122.516975"><ele>2.3</ele></trkpt><trkpt lat="37.880170" lon="-122.515620"><ele>3.2</ele></trkpt><trkpt lat="37.879836" lon="-122.515185"><ele>2.8</ele></trkpt><trkpt lat="37.879797" lon="-122.515140"><ele>2.7</ele></trkpt><trkpt lat="37.879768" lon="-122.515116"><ele>2.7</ele></trkpt><trkpt lat="37.879733" lon="-122.515099"><ele>2.7</ele></trkpt><trkpt lat="37.879676" lon="-122.515081"><ele>2.6</ele></trkpt><trkpt lat="37.879647" lon="-122.515077"><ele>2.6</ele></trkpt><trkpt lat="37.879560" lon="-122.514962"><ele>2.5</ele></trkpt><trkpt lat="37.879447" lon="-122.514812"><ele>2.3</ele></trkpt><trkpt lat="37.879446" lon="-122.514779"><ele>2.3</ele></trkpt><trkpt lat="37.879441" lon="-122.514751"><ele>2.3</ele></trkpt><trkpt lat="37.879426" lon="-122.514705"><ele>2.3</ele></trkpt><trkpt lat="37.879408" lon="-122.514661"><ele>2.2</ele></trkpt><trkpt lat="37.879385" lon="-122.514620"><ele>2.2</ele></trkpt><trkpt lat="37.879358" lon="-122.514577"><ele>2.2</ele></trkpt><trkpt lat="37.879330" lon="-122.514539"><ele>2.1</ele></trkpt><trkpt lat="37.879095" lon="-122.514230"><ele>2.1</ele></trkpt><trkpt lat="37.878977" lon="-122.514078"><ele>2.1</ele></trkpt><trkpt lat="37.878852" lon="-122.513924"><ele>2.1</ele></trkpt><trkpt lat="37.878678" lon="-122.513703"><ele>2.0</ele></trkpt><trkpt lat="37.878518" lon="-122.513496"><ele>1.8</ele></trkpt><trkpt lat="37.878330" lon="-122.513251"><ele>1.5</ele></trkpt><trkpt lat="37.878049" lon="-122.512883"><ele>2.0</ele></trkpt><trkpt lat="37.877704" lon="-122.512432"><ele>2.2</ele></trkpt><trkpt lat="37.876709" lon="-122.511137"><ele>0.7</ele></trkpt><trkpt lat="37.876262" lon="-122.510556"><ele>0.0</ele></trkpt><trkpt lat="37.875831" lon="-122.509993"><ele>0.0</ele></trkpt><trkpt lat="37.875296" lon="-122.509298"><ele>0.6</ele></trkpt><trkpt lat="37.874505" lon="-122.508269"><ele>0.8</ele></trkpt><trkpt lat="37.874123" lon="-122.507767"><ele>1.0</ele></trkpt><trkpt lat="37.873844" lon="-122.507403"><ele>1.2</ele></trkpt><trkpt lat="37.873790" lon="-122.507330"><ele>1.2</ele></trkpt><trkpt lat="37.873752" lon="-122.507276"><ele>1.3</ele></trkpt><trkpt lat="37.873717" lon="-122.507222"><ele>1.4</ele></trkpt><trkpt lat="37.873683" lon="-122.507170"><ele>1.5</ele></trkpt><trkpt lat="37.873649" lon="-122.507122"><ele>1.6</ele></trkpt><trkpt lat="37.873611" lon="-122.507072"><ele>1.7</ele></trkpt><trkpt lat="37.873577" lon="-122.507029"><ele>1.8</ele></trkpt><trkpt lat="37.873545" lon="-122.506990"><ele>1.8</ele></trkpt><trkpt lat="37.873511" lon="-122.506949"><ele>1.9</ele></trkpt><trkpt lat="37.873475" lon="-122.506910"><ele>2.0</ele></trkpt><trkpt lat="37.873444" lon="-122.506876"><ele>2.1</ele></trkpt><trkpt lat="37.873416" lon="-122.506844"><ele>2.1</ele></trkpt><trkpt lat="37.873387" lon="-122.506810"><ele>2.2</ele></trkpt><trkpt lat="37.873345" lon="-122.506755"><ele>2.3</ele></trkpt><trkpt lat="37.873297" lon="-122.506685"><ele>2.4</ele></trkpt><trkpt lat="37.873227" lon="-122.506571"><ele>2.6</ele></trkpt><trkpt lat="37.873191" lon="-122.506508"><ele>2.6</ele></trkpt><trkpt lat="37.872768" lon="-122.505719"><ele>3.4</ele></trkpt><trkpt lat="37.872740" lon="-122.505680"><ele>3.4</ele></trkpt><trkpt lat="37.872683" lon="-122.505600"><ele>3.4</ele></trkpt><trkpt lat="37.872598" lon="-122.505455"><ele>3.4</ele></trkpt><trkpt lat="37.872449" lon="-122.505200"><ele>3.4</ele></trkpt><trkpt lat="37.872112" lon="-122.504728"><ele>4.0</ele></trkpt><trkpt lat="37.871775" lon="-122.504334"><ele>5.1</ele></trkpt><trkpt lat="37.871671" lon="-122.504225"><ele>5.5</ele></trkpt><trkpt lat="37.871618" lon="-122.504168"><ele>5.8</ele></trkpt><trkpt lat="37.871254" lon="-122.503899"><ele>6.8</ele></trkpt><trkpt lat="37.870937" lon="-122.503717"><ele>7.1</ele></trkpt><trkpt lat="37.870815" lon="-122.503651"><ele>7.2</ele></trkpt><trkpt lat="37.870780" lon="-122.503638"><ele>7.3</ele></trkpt><trkpt lat="37.870709" lon="-122.503611"><ele>7.3</ele></trkpt><trkpt lat="37.870645" lon="-122.503580"><ele>7.3</ele></trkpt><trkpt lat="37.870587" lon="-122.503556"><ele>7.3</ele></trkpt><trkpt lat="37.870549" lon="-122.503540"><ele>7.2</ele></trkpt><trkpt lat="37.870414" lon="-122.503480"><ele>7.2</ele></trkpt><trkpt lat="37.869954" lon="-122.503277"><ele>6.7</ele></trkpt><trkpt lat="37.869743" lon="-122.503174"><ele>5.9</ele></trkpt><trkpt lat="37.869493" lon="-122.503055"><ele>5.0</ele></trkpt><trkpt lat="37.869361" lon="-122.502985"><ele>4.6</ele></trkpt><trkpt lat="37.869316" lon="-122.502957"><ele>4.6</ele></trkpt><trkpt lat="37.869286" lon="-122.502955"><ele>4.6</ele></trkpt><trkpt lat="37.869210" lon="-122.502914"><ele>4.6</ele></trkpt><trkpt lat="37.869089" lon="-122.502837"><ele>4.6</ele></trkpt><trkpt lat="37.869014" lon="-122.502784"><ele>4.6</ele></trkpt><trkpt lat="37.868990" lon="-122.502757"><ele>4.6</ele></trkpt><trkpt lat="37.868945" lon="-122.502724"><ele>4.6</ele></trkpt><trkpt lat="37.868774" lon="-122.502600"><ele>4.6</ele></trkpt><trkpt lat="37.868724" lon="-122.502556"><ele>4.6</ele></trkpt><trkpt lat="37.868657" lon="-122.502503"><ele>4.5</ele></trkpt><trkpt lat="37.868611" lon="-122.502459"><ele>4.5</ele></trkpt><trkpt lat="37.868455" lon="-122.502324"><ele>4.4</ele></trkpt><trkpt lat="37.868202" lon="-122.502086"><ele>4.3</ele></trkpt><trkpt lat="37.868063" lon="-122.501935"><ele>4.4</ele></trkpt><trkpt lat="37.867959" lon="-122.501813"><ele>4.5</ele></trkpt><trkpt lat="37.867928" lon="-122.501776"><ele>4.5</ele></trkpt><trkpt lat="37.867707" lon="-122.501534"><ele>4.8</ele></trkpt><trkpt lat="37.867370" lon="-122.501191"><ele>4.8</ele></trkpt><trkpt lat="37.867023" lon="-122.500854"><ele>4.6</ele></trkpt><trkpt lat="37.866984" lon="-122.500811"><ele>4.6</ele></trkpt><trkpt lat="37.866946" lon="-122.500769"><ele>4.6</ele></trkpt><trkpt lat="37.866956" lon="-122.500755"><ele>4.6</ele></trkpt><trkpt lat="37.867126" lon="-122.500529"><ele>4.7</ele></trkpt><trkpt lat="37.867033" lon="-122.500424"><ele>4.8</ele></trkpt><trkpt lat="37.866948" lon="-122.500328"><ele>4.8</ele></trkpt><trkpt lat="37.866813" lon="-122.500180"><ele>4.8</ele></trkpt><trkpt lat="37.866667" lon="-122.500019"><ele>4.7</ele></trkpt><trkpt lat="37.866256" lon="-122.499594"><ele>4.3</ele></trkpt><trkpt lat="37.866217" lon="-122.499554"><ele>4.3</ele></trkpt><trkpt lat="37.865706" lon="-122.499006"><ele>4.3</ele></trkpt><trkpt lat="37.865134" lon="-122.498393"><ele>4.6</ele></trkpt><trkpt lat="37.865122" lon="-122.498381"><ele>4.6</ele></trkpt><trkpt lat="37.864985" lon="-122.498372"><ele>4.6</ele></trkpt><trkpt lat="37.864953" lon="-122.498365"><ele>4.6</ele></trkpt><trkpt lat="37.864924" lon="-122.498345"><ele>4.6</ele></trkpt><trkpt lat="37.864879" lon="-122.498310"><ele>4.6</ele></trkpt><trkpt lat="37.864704" lon="-122.498101"><ele>4.6</ele></trkpt><trkpt lat="37.864504" lon="-122.497872"><ele>4.6</ele></trkpt><trkpt lat="37.864234" lon="-122.497555"><ele>4.6</ele></trkpt><trkpt lat="37.864217" lon="-122.497429"><ele>4.6</ele></trkpt><trkpt lat="37.864293" lon="-122.497329"><ele>4.6</ele></trkpt><trkpt lat="37.864312" lon="-122.497304"><ele>4.6</ele></trkpt><trkpt lat="37.864466" lon="-122.497099"><ele>4.5</ele></trkpt><trkpt lat="37.864493" lon="-122.497062"><ele>4.4</ele></trkpt><trkpt lat="37.864515" lon="-122.497035"><ele>4.4</ele></trkpt><trkpt lat="37.864374" lon="-122.496864"><ele>4.3</ele></trkpt><trkpt lat="37.863883" lon="-122.496271"><ele>5.3</ele></trkpt><trkpt lat="37.863876" lon="-122.496262"><ele>5.3</ele></trkpt><trkpt lat="37.863601" lon="-122.495927"><ele>6.1</ele></trkpt><trkpt lat="37.863586" lon="-122.495912"><ele>6.1</ele></trkpt><trkpt lat="37.863544" lon="-122.495871"><ele>6.2</ele></trkpt><trkpt lat="37.863496" lon="-122.495836"><ele>6.3</ele></trkpt><trkpt lat="37.863473" lon="-122.495803"><ele>6.3</ele></trkpt><trkpt lat="37.862735" lon="-122.494898"><ele>7.0</ele></trkpt><trkpt lat="37.862642" lon="-122.494782"><ele>7.0</ele></trkpt><trkpt lat="37.862578" lon="-122.494703"><ele>6.8</ele></trkpt><trkpt lat="37.862532" lon="-122.494650"><ele>6.8</ele></trkpt><trkpt lat="37.862466" lon="-122.494563"><ele>6.6</ele></trkpt><trkpt lat="37.862434" lon="-122.494503"><ele>6.6</ele></trkpt><trkpt lat="37.862390" lon="-122.494425"><ele>6.5</ele></trkpt><trkpt lat="37.862341" lon="-122.494296"><ele>6.3</ele></trkpt><trkpt lat="37.862300" lon="-122.494274"><ele>6.3</ele></trkpt><trkpt lat="37.862276" lon="-122.494252"><ele>6.2</ele></trkpt><trkpt lat="37.862253" lon="-122.494217"><ele>6.2</ele></trkpt><trkpt lat="37.862226" lon="-122.494157"><ele>6.1</ele></trkpt><trkpt lat="37.862180" lon="-122.494022"><ele>6.0</ele></trkpt><trkpt lat="37.862129" lon="-122.493856"><ele>5.8</ele></trkpt><trkpt lat="37.862087" lon="-122.493734"><ele>5.7</ele></trkpt><trkpt lat="37.862048" lon="-122.493657"><ele>5.6</ele></trkpt><trkpt lat="37.862010" lon="-122.493616"><ele>5.5</ele></trkpt><trkpt lat="37.861990" lon="-122.493585"><ele>5.5</ele></trkpt><trkpt lat="37.861932" lon="-122.493616"><ele>5.4</ele></trkpt><trkpt lat="37.861835" lon="-122.493674"><ele>5.3</ele></trkpt><trkpt lat="37.861832" lon="-122.493598"><ele>5.2</ele></trkpt><trkpt lat="37.861830" lon="-122.493511"><ele>5.2</ele></trkpt><trkpt lat="37.861806" lon="-122.492460"><ele>5.1</ele></trkpt><trkpt lat="37.861801" lon="-122.492251"><ele>5.0</ele></trkpt><trkpt lat="37.861799" lon="-122.492148"><ele>5.0</ele></trkpt><trkpt lat="37.861798" lon="-122.492110"><ele>5.0</ele></trkpt><trkpt lat="37.861793" lon="-122.491913"><ele>4.9</ele></trkpt><trkpt lat="37.861792" lon="-122.491890"><ele>4.9</ele></trkpt><trkpt lat="37.861785" lon="-122.491761"><ele>4.9</ele></trkpt><trkpt lat="37.861773" lon="-122.491590"><ele>5.3</ele></trkpt><trkpt lat="37.861758" lon="-122.491438"><ele>5.6</ele></trkpt><trkpt lat="37.861756" lon="-122.491417"><ele>5.6</ele></trkpt><trkpt lat="37.861739" lon="-122.491279"><ele>5.9</ele></trkpt><trkpt lat="37.861716" lon="-122.491123"><ele>6.2</ele></trkpt><trkpt lat="37.861690" lon="-122.490963"><ele>6.5</ele></trkpt><trkpt lat="37.861679" lon="-122.490909"><ele>6.6</ele></trkpt><trkpt lat="37.861668" lon="-122.490852"><ele>6.7</ele></trkpt><trkpt lat="37.861659" lon="-122.490807"><ele>6.7</ele></trkpt><trkpt lat="37.861625" lon="-122.490652"><ele>6.8</ele></trkpt><trkpt lat="37.861587" lon="-122.490494"><ele>6.8</ele></trkpt><trkpt lat="37.861552" lon="-122.490333"><ele>6.9</ele></trkpt><trkpt lat="37.861512" lon="-122.490192"><ele>6.9</ele></trkpt><trkpt lat="37.861462" lon="-122.490051"><ele>7.0</ele></trkpt><trkpt lat="37.861402" lon="-122.489904"><ele>7.1</ele></trkpt><trkpt lat="37.861342" lon="-122.489766"><ele>7.1</ele></trkpt><trkpt lat="37.861259" lon="-122.489583"><ele>7.2</ele></trkpt><trkpt lat="37.861246" lon="-122.489532"><ele>7.2</ele></trkpt><trkpt lat="37.861253" lon="-122.489434"><ele>7.2</ele></trkpt><trkpt lat="37.861205" lon="-122.489335"><ele>7.3</ele></trkpt><trkpt lat="37.861152" lon="-122.489229"><ele>7.3</ele></trkpt><trkpt lat="37.861101" lon="-122.489123"><ele>7.0</ele></trkpt><trkpt lat="37.861034" lon="-122.488985"><ele>6.6</ele></trkpt><trkpt lat="37.860978" lon="-122.488869"><ele>6.2</ele></trkpt><trkpt lat="37.860853" lon="-122.488613"><ele>5.4</ele></trkpt><trkpt lat="37.860826" lon="-122.488557"><ele>5.3</ele></trkpt><trkpt lat="37.860778" lon="-122.488454"><ele>4.9</ele></trkpt><trkpt lat="37.860433" lon="-122.487725"><ele>4.1</ele></trkpt><trkpt lat="37.860400" lon="-122.487653"><ele>4.0</ele></trkpt><trkpt lat="37.860363" lon="-122.487572"><ele>3.9</ele></trkpt><trkpt lat="37.860236" lon="-122.487295"><ele>3.7</ele></trkpt><trkpt lat="37.860155" lon="-122.487116"><ele>3.6</ele></trkpt><trkpt lat="37.860074" lon="-122.486937"><ele>3.4</ele></trkpt><trkpt lat="37.860021" lon="-122.486821"><ele>3.3</ele></trkpt><trkpt lat="37.859982" lon="-122.486727"><ele>3.3</ele></trkpt><trkpt lat="37.859955" lon="-122.486666"><ele>3.2</ele></trkpt><trkpt lat="37.859742" lon="-122.486189"><ele>2.8</ele></trkpt><trkpt lat="37.859648" lon="-122.485975"><ele>2.8</ele></trkpt><trkpt lat="37.859623" lon="-122.485917"><ele>2.8</ele></trkpt><trkpt lat="37.859587" lon="-122.485836"><ele>2.8</ele></trkpt><trkpt lat="37.859551" lon="-122.485760"><ele>2.9</ele></trkpt><trkpt lat="37.859431" lon="-122.485511"><ele>3.0</ele></trkpt><trkpt lat="37.859282" lon="-122.485201"><ele>3.0</ele></trkpt><trkpt lat="37.859196" lon="-122.485020"><ele>2.9</ele></trkpt><trkpt lat="37.859159" lon="-122.484941"><ele>2.9</ele></trkpt><trkpt lat="37.859126" lon="-122.484867"><ele>2.9</ele></trkpt><trkpt lat="37.858952" lon="-122.484469"><ele>2.7</ele></trkpt><trkpt lat="37.858937" lon="-122.484433"><ele>2.8</ele></trkpt><trkpt lat="37.858901" lon="-122.484349"><ele>2.8</ele></trkpt><trkpt lat="37.858868" lon="-122.484271"><ele>2.8</ele></trkpt><trkpt lat="37.858835" lon="-122.484189"><ele>2.9</ele></trkpt><trkpt lat="37.858803" lon="-122.484105"><ele>2.9</ele></trkpt><trkpt lat="37.858772" lon="-122.484019"><ele>2.9</ele></trkpt><trkpt lat="37.858744" lon="-122.483939"><ele>2.9</ele></trkpt><trkpt lat="37.858566" lon="-122.483430"><ele>3.4</ele></trkpt><trkpt lat="37.858531" lon="-122.483329"><ele>3.5</ele></trkpt><trkpt lat="37.858499" lon="-122.483238"><ele>3.7</ele></trkpt><trkpt lat="37.858474" lon="-122.483163"><ele>3.8</ele></trkpt><trkpt lat="37.858441" lon="-122.483060"><ele>3.9</ele></trkpt><trkpt lat="37.858422" lon="-122.482983"><ele>4.0</ele></trkpt><trkpt lat="37.858405" lon="-122.482910"><ele>4.1</ele></trkpt><trkpt lat="37.858387" lon="-122.482837"><ele>4.2</ele></trkpt><trkpt lat="37.858379" lon="-122.482808"><ele>4.3</ele></trkpt><trkpt lat="37.858366" lon="-122.482763"><ele>4.3</ele></trkpt><trkpt lat="37.858339" lon="-122.482680"><ele>4.3</ele></trkpt><trkpt lat="37.858310" lon="-122.482598"><ele>4.3</ele></trkpt><trkpt lat="37.858249" lon="-122.482424"><ele>4.3</ele></trkpt><trkpt lat="37.858218" lon="-122.482349"><ele>4.3</ele></trkpt><trkpt lat="37.858183" lon="-122.482278"><ele>4.3</ele></trkpt><trkpt lat="37.858146" lon="-122.482211"><ele>4.3</ele></trkpt><trkpt lat="37.858025" lon="-122.482006"><ele>4.3</ele></trkpt><trkpt lat="37.857972" lon="-122.481917"><ele>4.4</ele></trkpt><trkpt lat="37.857919" lon="-122.481833"><ele>4.4</ele></trkpt><trkpt lat="37.857865" lon="-122.481754"><ele>4.5</ele></trkpt><trkpt lat="37.857805" lon="-122.481672"><ele>4.6</ele></trkpt><trkpt lat="37.857741" lon="-122.481588"><ele>4.7</ele></trkpt><trkpt lat="37.857677" lon="-122.481506"><ele>4.7</ele></trkpt><trkpt lat="37.857529" lon="-122.481323"><ele>5.2</ele></trkpt><trkpt lat="37.857463" lon="-122.481236"><ele>5.8</ele></trkpt><trkpt lat="37.857455" lon="-122.481227"><ele>5.9</ele></trkpt><trkpt lat="37.857378" lon="-122.481122"><ele>6.6</ele></trkpt><trkpt lat="37.857304" lon="-122.481016"><ele>7.4</ele></trkpt><trkpt lat="37.857213" lon="-122.480887"><ele>8.3</ele></trkpt><trkpt lat="37.857109" lon="-122.480733"><ele>9.4</ele></trkpt><trkpt lat="37.857024" lon="-122.480604"><ele>9.9</ele></trkpt><trkpt lat="37.856978" lon="-122.480533"><ele>10.1</ele></trkpt><trkpt lat="37.856937" lon="-122.480470"><ele>10.2</ele></trkpt><trkpt lat="37.856772" lon="-122.480216"><ele>10.7</ele></trkpt><trkpt lat="37.856737" lon="-122.480166"><ele>10.9</ele></trkpt><trkpt lat="37.856698" lon="-122.480115"><ele>11.0</ele></trkpt><trkpt lat="37.856661" lon="-122.480071"><ele>11.1</ele></trkpt><trkpt lat="37.856621" lon="-122.480032"><ele>11.2</ele></trkpt><trkpt lat="37.856575" lon="-122.479997"><ele>11.3</ele></trkpt><trkpt lat="37.856528" lon="-122.479967"><ele>11.6</ele></trkpt><trkpt lat="37.856461" lon="-122.479928"><ele>11.9</ele></trkpt><trkpt lat="37.856429" lon="-122.479908"><ele>12.1</ele></trkpt><trkpt lat="37.856400" lon="-122.479890"><ele>12.2</ele></trkpt><trkpt lat="37.855976" lon="-122.479596"><ele>14.5</ele></trkpt><trkpt lat="37.855915" lon="-122.479554"><ele>14.6</ele></trkpt><trkpt lat="37.855874" lon="-122.479526"><ele>14.6</ele></trkpt><trkpt lat="37.855879" lon="-122.479425"><ele>14.6</ele></trkpt><trkpt lat="37.855820" lon="-122.479385"><ele>14.6</ele></trkpt><trkpt lat="37.855828" lon="-122.479371"><ele>14.6</ele></trkpt><trkpt lat="37.855830" lon="-122.479000"><ele>14.6</ele></trkpt></trkseg></trk>
</gpx>