<?xml version="1.0" encoding="UTF-8"?>
<gpx version="1.1" creator="north-bay-planning" xmlns="http://www.topografix.com/GPX/1/1">
<metadata><name>Mon Oct 26 B Haypress over the bridge to Embarcadero</name><desc>Mon Oct 26 B Haypress over the bridge to Embarcadero</desc></metadata>
<wpt lat="37.824620" lon="-122.526580"><name>Night 1 Bicentennial site 02</name><desc>Booked.</desc></wpt>
<wpt lat="37.903820" lon="-122.603640"><name>Night 2 Pantoll hike-and-bike</name><desc>Walk-up.</desc></wpt>
<wpt lat="38.018280" lon="-122.733140"><name>Night 3 Samuel P. Taylor hike-and-bike</name><desc>Walk-up.</desc></wpt>
<wpt lat="37.860800" lon="-122.545820"><name>Night 4 Haypress</name><desc>Reserve on recreation.gov.</desc></wpt>
<trk><name>Mon Oct 26 B Haypress over the bridge to Embarcadero</name><trkseg><trkpt lat="37.860875" lon="-122.545730"><ele>98.1</ele></trkpt><trkpt lat="37.860875" lon="-122.545730"><ele>98.1</ele></trkpt><trkpt lat="37.860893" lon="-122.545726"><ele>98.0</ele></trkpt><trkpt lat="37.860909" lon="-122.545716"><ele>97.9</ele></trkpt><trkpt lat="37.860922" lon="-122.545698"><ele>97.8</ele></trkpt><trkpt lat="37.860938" lon="-122.545671"><ele>97.6</ele></trkpt><trkpt lat="37.861010" lon="-122.545530"><ele>96.6</ele></trkpt><trkpt lat="37.861080" lon="-122.545422"><ele>95.8</ele></trkpt><trkpt lat="37.861122" lon="-122.545375"><ele>95.4</ele></trkpt><trkpt lat="37.861482" lon="-122.545065"><ele>92.1</ele></trkpt><trkpt lat="37.861542" lon="-122.545003"><ele>91.5</ele></trkpt><trkpt lat="37.861579" lon="-122.544948"><ele>90.9</ele></trkpt><trkpt lat="37.861594" lon="-122.544878"><ele>90.4</ele></trkpt><trkpt lat="37.861593" lon="-122.544817"><ele>90.0</ele></trkpt><trkpt lat="37.861585" lon="-122.544765"><ele>89.6</ele></trkpt><trkpt lat="37.861558" lon="-122.544717"><ele>89.2</ele></trkpt><trkpt lat="37.861529" lon="-122.544686"><ele>88.8</ele></trkpt><trkpt lat="37.861487" lon="-122.544667"><ele>88.4</ele></trkpt><trkpt lat="37.861440" lon="-122.544660"><ele>88.0</ele></trkpt><trkpt lat="37.861294" lon="-122.544675"><ele>86.7</ele></trkpt><trkpt lat="37.861193" lon="-122.544677"><ele>85.9</ele></trkpt><trkpt lat="37.861139" lon="-122.544669"><ele>85.5</ele></trkpt><trkpt lat="37.861087" lon="-122.544651"><ele>85.1</ele></trkpt><trkpt lat="37.860924" lon="-122.544558"><ele>83.8</ele></trkpt><trkpt lat="37.860783" lon="-122.544451"><ele>82.5</ele></trkpt><trkpt lat="37.860605" lon="-122.544293"><ele>81.0</ele></trkpt><trkpt lat="37.860223" lon="-122.543894"><ele>79.1</ele></trkpt><trkpt lat="37.859847" lon="-122.543445"><ele>79.0</ele></trkpt><trkpt lat="37.859763" lon="-122.543319"><ele>79.3</ele></trkpt><trkpt lat="37.859701" lon="-122.543220"><ele>79.5</ele></trkpt><trkpt lat="37.859637" lon="-122.543095"><ele>79.7</ele></trkpt><trkpt lat="37.859353" lon="-122.542466"><ele>77.0</ele></trkpt><trkpt lat="37.859290" lon="-122.542355"><ele>76.4</ele></trkpt><trkpt lat="37.859239" lon="-122.542271"><ele>76.0</ele></trkpt><trkpt lat="37.859153" lon="-122.542170"><ele>75.1</ele></trkpt><trkpt lat="37.858966" lon="-122.541972"><ele>73.2</ele></trkpt><trkpt lat="37.858877" lon="-122.541865"><ele>72.3</ele></trkpt><trkpt lat="37.858663" lon="-122.541559"><ele>69.7</ele></trkpt><trkpt lat="37.858570" lon="-122.541430"><ele>68.2</ele></trkpt><trkpt lat="37.858332" lon="-122.541129"><ele>64.7</ele></trkpt><trkpt lat="37.858200" lon="-122.540950"><ele>62.6</ele></trkpt><trkpt lat="37.858147" lon="-122.540856"><ele>61.6</ele></trkpt><trkpt lat="37.858088" lon="-122.540711"><ele>60.2</ele></trkpt><trkpt lat="37.858012" lon="-122.540523"><ele>58.3</ele></trkpt><trkpt lat="37.857972" lon="-122.540443"><ele>57.5</ele></trkpt><trkpt lat="37.857912" lon="-122.540351"><ele>56.4</ele></trkpt><trkpt lat="37.857811" lon="-122.540229"><ele>54.9</ele></trkpt><trkpt lat="37.857730" lon="-122.540122"><ele>54.2</ele></trkpt><trkpt lat="37.857684" lon="-122.540044"><ele>53.8</ele></trkpt><trkpt lat="37.857645" lon="-122.539966"><ele>53.4</ele></trkpt><trkpt lat="37.857621" lon="-122.539877"><ele>53.0</ele></trkpt><trkpt lat="37.857603" lon="-122.539782"><ele>52.6</ele></trkpt><trkpt lat="37.857586" lon="-122.539674"><ele>52.1</ele></trkpt><trkpt lat="37.857568" lon="-122.539566"><ele>51.6</ele></trkpt><trkpt lat="37.857547" lon="-122.539465"><ele>51.2</ele></trkpt><trkpt lat="37.857521" lon="-122.539359"><ele>50.6</ele></trkpt><trkpt lat="37.857488" lon="-122.539243"><ele>49.8</ele></trkpt><trkpt lat="37.857448" lon="-122.539108"><ele>48.9</ele></trkpt><trkpt lat="37.857412" lon="-122.538995"><ele>48.1</ele></trkpt><trkpt lat="37.857471" lon="-122.538964"><ele>47.6</ele></trkpt><trkpt lat="37.857526" lon="-122.538929"><ele>47.1</ele></trkpt><trkpt lat="37.857583" lon="-122.538885"><ele>46.6</ele></trkpt><trkpt lat="37.857636" lon="-122.538838"><ele>46.1</ele></trkpt><trkpt lat="37.857701" lon="-122.538767"><ele>45.4</ele></trkpt><trkpt lat="37.857769" lon="-122.538689"><ele>45.1</ele></trkpt><trkpt lat="37.857835" lon="-122.538603"><ele>45.0</ele></trkpt><trkpt lat="37.858026" lon="-122.538342"><ele>44.7</ele></trkpt><trkpt lat="37.858099" lon="-122.538247"><ele>44.7</ele></trkpt><trkpt lat="37.858167" lon="-122.538163"><ele>44.6</ele></trkpt><trkpt lat="37.858230" lon="-122.538091"><ele>44.5</ele></trkpt><trkpt lat="37.858300" lon="-122.538017"><ele>44.8</ele></trkpt><trkpt lat="37.858378" lon="-122.537943"><ele>45.2</ele></trkpt><trkpt lat="37.858456" lon="-122.537879"><ele>45.5</ele></trkpt><trkpt lat="37.858539" lon="-122.537817"><ele>45.9</ele></trkpt><trkpt lat="37.858630" lon="-122.537754"><ele>46.3</ele></trkpt><trkpt lat="37.858730" lon="-122.537690"><ele>46.7</ele></trkpt><trkpt lat="37.859154" lon="-122.537413"><ele>49.6</ele></trkpt><trkpt lat="37.859614" lon="-122.537106"><ele>53.2</ele></trkpt><trkpt lat="37.859709" lon="-122.537038"><ele>54.1</ele></trkpt><trkpt lat="37.859794" lon="-122.536965"><ele>54.9</ele></trkpt><trkpt lat="37.859867" lon="-122.536892"><ele>55.7</ele></trkpt><trkpt lat="37.859945" lon="-122.536809"><ele>56.5</ele></trkpt><trkpt lat="37.860018" lon="-122.536725"><ele>57.3</ele></trkpt><trkpt lat="37.860101" lon="-122.536630"><ele>58.0</ele></trkpt><trkpt lat="37.860190" lon="-122.536531"><ele>58.2</ele></trkpt><trkpt lat="37.860328" lon="-122.536379"><ele>58.5</ele></trkpt><trkpt lat="37.860360" lon="-122.536345"><ele>58.6</ele></trkpt><trkpt lat="37.860549" lon="-122.536165"><ele>59.0</ele></trkpt><trkpt lat="37.860755" lon="-122.535969"><ele>58.9</ele></trkpt><trkpt lat="37.860840" lon="-122.535885"><ele>58.7</ele></trkpt><trkpt lat="37.860939" lon="-122.535781"><ele>58.5</ele></trkpt><trkpt lat="37.861031" lon="-122.535678"><ele>58.3</ele></trkpt><trkpt lat="37.861128" lon="-122.535567"><ele>58.0</ele></trkpt><trkpt lat="37.861222" lon="-122.535465"><ele>57.7</ele></trkpt><trkpt lat="37.861317" lon="-122.535367"><ele>57.2</ele></trkpt><trkpt lat="37.861368" lon="-122.535320"><ele>56.9</ele></trkpt><trkpt lat="37.861414" lon="-122.535279"><ele>56.7</ele></trkpt><trkpt lat="37.861467" lon="-122.535237"><ele>56.4</ele></trkpt><trkpt lat="37.861522" lon="-122.535196"><ele>56.2</ele></trkpt><trkpt lat="37.861581" lon="-122.535160"><ele>55.9</ele></trkpt><trkpt lat="37.861651" lon="-122.535124"><ele>55.6</ele></trkpt><trkpt lat="37.861826" lon="-122.535029"><ele>54.8</ele></trkpt><trkpt lat="37.861968" lon="-122.534927"><ele>54.1</ele></trkpt><trkpt lat="37.862069" lon="-122.534845"><ele>53.6</ele></trkpt><trkpt lat="37.862160" lon="-122.534741"><ele>53.1</ele></trkpt><trkpt lat="37.862235" lon="-122.534644"><ele>52.6</ele></trkpt><trkpt lat="37.862297" lon="-122.534553"><ele>52.2</ele></trkpt><trkpt lat="37.862364" lon="-122.534441"><ele>51.7</ele></trkpt><trkpt lat="37.862428" lon="-122.534341"><ele>51.3</ele></trkpt><trkpt lat="37.862502" lon="-122.534249"><ele>50.8</ele></trkpt><trkpt lat="37.862575" lon="-122.534173"><ele>50.4</ele></trkpt><trkpt lat="37.862660" lon="-122.534099"><ele>50.0</ele></trkpt><trkpt lat="37.862754" lon="-122.534032"><ele>49.6</ele></trkpt><trkpt lat="37.862838" lon="-122.533984"><ele>49.2</ele></trkpt><trkpt lat="37.862942" lon="-122.533938"><ele>48.7</ele></trkpt><trkpt lat="37.863436" lon="-122.533704"><ele>47.0</ele></trkpt><trkpt lat="37.863562" lon="-122.533653"><ele>46.5</ele></trkpt><trkpt lat="37.863900" lon="-122.533543"><ele>45.3</ele></trkpt><trkpt lat="37.864044" lon="-122.533481"><ele>44.8</ele></trkpt><trkpt lat="37.864163" lon="-122.533412"><ele>44.4</ele></trkpt><trkpt lat="37.864416" lon="-122.533226"><ele>43.0</ele></trkpt><trkpt lat="37.864515" lon="-122.533166"><ele>42.4</ele></trkpt><trkpt lat="37.864617" lon="-122.533124"><ele>41.7</ele></trkpt><trkpt lat="37.864776" lon="-122.533062"><ele>40.7</ele></trkpt><trkpt lat="37.864878" lon="-122.533018"><ele>40.1</ele></trkpt><trkpt lat="37.865089" lon="-122.532911"><ele>38.6</ele></trkpt><trkpt lat="37.865204" lon="-122.532840"><ele>37.8</ele></trkpt><trkpt lat="37.865302" lon="-122.532762"><ele>37.0</ele></trkpt><trkpt lat="37.865375" lon="-122.532679"><ele>36.3</ele></trkpt><trkpt lat="37.865450" lon="-122.532574"><ele>35.6</ele></trkpt><trkpt lat="37.865673" lon="-122.532206"><ele>33.4</ele></trkpt><trkpt lat="37.865763" lon="-122.532078"><ele>32.7</ele></trkpt><trkpt lat="37.865909" lon="-122.531894"><ele>31.6</ele></trkpt><trkpt lat="37.866001" lon="-122.531760"><ele>30.8</ele></trkpt><trkpt lat="37.866166" lon="-122.531540"><ele>30.4</ele></trkpt><trkpt lat="37.866232" lon="-122.531474"><ele>30.2</ele></trkpt><trkpt lat="37.866300" lon="-122.531425"><ele>30.1</ele></trkpt><trkpt lat="37.866373" lon="-122.531386"><ele>30.0</ele></trkpt><trkpt lat="37.866591" lon="-122.531293"><ele>29.6</ele></trkpt><trkpt lat="37.866681" lon="-122.531241"><ele>29.0</ele></trkpt><trkpt lat="37.866799" lon="-122.531152"><ele>28.1</ele></trkpt><trkpt lat="37.866910" lon="-122.531039"><ele>27.2</ele></trkpt><trkpt lat="37.867030" lon="-122.530892"><ele>26.1</ele></trkpt><trkpt lat="37.867128" lon="-122.530760"><ele>25.2</ele></trkpt><trkpt lat="37.867599" lon="-122.530084"><ele>21.6</ele></trkpt><trkpt lat="37.867704" lon="-122.529962"><ele>20.9</ele></trkpt><trkpt lat="37.867925" lon="-122.529757"><ele>19.5</ele></trkpt><trkpt lat="37.867999" lon="-122.529665"><ele>19.0</ele></trkpt><trkpt lat="37.868072" lon="-122.529548"><ele>18.4</ele></trkpt><trkpt lat="37.868258" lon="-122.529193"><ele>16.5</ele></trkpt><trkpt lat="37.868328" lon="-122.529089"><ele>15.9</ele></trkpt><trkpt lat="37.868425" lon="-122.528979"><ele>15.1</ele></trkpt><trkpt lat="37.868599" lon="-122.528804"><ele>13.7</ele></trkpt><trkpt lat="37.868807" lon="-122.528602"><ele>12.2</ele></trkpt><trkpt lat="37.868932" lon="-122.528490"><ele>11.3</ele></trkpt><trkpt lat="37.869069" lon="-122.528359"><ele>10.3</ele></trkpt><trkpt lat="37.869209" lon="-122.528213"><ele>9.2</ele></trkpt><trkpt lat="37.869388" lon="-122.528001"><ele>8.0</ele></trkpt><trkpt lat="37.869476" lon="-122.527886"><ele>7.3</ele></trkpt><trkpt lat="37.869544" lon="-122.527798"><ele>6.8</ele></trkpt><trkpt lat="37.869866" lon="-122.527393"><ele>6.7</ele></trkpt><trkpt lat="37.870050" lon="-122.527166"><ele>8.5</ele></trkpt><trkpt lat="37.870140" lon="-122.527070"><ele>9.3</ele></trkpt><trkpt lat="37.870222" lon="-122.527005"><ele>10.0</ele></trkpt><trkpt lat="37.870304" lon="-122.526953"><ele>10.4</ele></trkpt><trkpt lat="37.870409" lon="-122.526901"><ele>10.5</ele></trkpt><trkpt lat="37.870522" lon="-122.526853"><ele>10.6</ele></trkpt><trkpt lat="37.870932" lon="-122.526683"><ele>10.9</ele></trkpt><trkpt lat="37.871356" lon="-122.526495"><ele>11.3</ele></trkpt><trkpt lat="37.872011" lon="-122.526191"><ele>9.3</ele></trkpt><trkpt lat="37.872387" lon="-122.526039"><ele>7.4</ele></trkpt><trkpt lat="37.872935" lon="-122.525832"><ele>7.9</ele></trkpt><trkpt lat="37.873005" lon="-122.525818"><ele>7.9</ele></trkpt><trkpt lat="37.873060" lon="-122.525819"><ele>7.9</ele></trkpt><trkpt lat="37.873120" lon="-122.525833"><ele>7.9</ele></trkpt><trkpt lat="37.873394" lon="-122.525913"><ele>7.9</ele></trkpt><trkpt lat="37.873510" lon="-122.525941"><ele>7.9</ele></trkpt><trkpt lat="37.873689" lon="-122.525971"><ele>7.9</ele></trkpt><trkpt lat="37.873841" lon="-122.525995"><ele>8.0</ele></trkpt><trkpt lat="37.873962" lon="-122.526004"><ele>8.0</ele></trkpt><trkpt lat="37.874058" lon="-122.526000"><ele>8.1</ele></trkpt><trkpt lat="37.874231" lon="-122.525985"><ele>8.1</ele></trkpt><trkpt lat="37.874314" lon="-122.525983"><ele>8.2</ele></trkpt><trkpt lat="37.874379" lon="-122.525985"><ele>8.2</ele></trkpt><trkpt lat="37.874800" lon="-122.526056"><ele>8.5</ele></trkpt><trkpt lat="37.874892" lon="-122.526064"><ele>8.6</ele></trkpt><trkpt lat="37.874984" lon="-122.526069"><ele>8.7</ele></trkpt><trkpt lat="37.875073" lon="-122.526060"><ele>8.8</ele></trkpt><trkpt lat="37.875162" lon="-122.526045"><ele>8.8</ele></trkpt><trkpt lat="37.875401" lon="-122.525970"><ele>9.0</ele></trkpt><trkpt lat="37.875593" lon="-122.525905"><ele>9.2</ele></trkpt><trkpt lat="37.875675" lon="-122.525889"><ele>9.3</ele></trkpt><trkpt lat="37.875758" lon="-122.525887"><ele>9.3</ele></trkpt><trkpt lat="37.875851" lon="-122.525895"><ele>9.4</ele></trkpt><trkpt lat="37.875923" lon="-122.525923"><ele>9.4</ele></trkpt><trkpt lat="37.876010" lon="-122.525963"><ele>9.2</ele></trkpt><trkpt lat="37.876132" lon="-122.526047"><ele>9.0</ele></trkpt><trkpt lat="37.876245" lon="-122.526138"><ele>8.8</ele></trkpt><trkpt lat="37.876420" lon="-122.526297"><ele>8.4</ele></trkpt><trkpt lat="37.876518" lon="-122.526377"><ele>8.1</ele></trkpt><trkpt lat="37.876594" lon="-122.526418"><ele>7.7</ele></trkpt><trkpt lat="37.876664" lon="-122.526438"><ele>7.4</ele></trkpt><trkpt lat="37.876758" lon="-122.526443"><ele>6.9</ele></trkpt><trkpt lat="37.876862" lon="-122.526444"><ele>6.4</ele></trkpt><trkpt lat="37.876992" lon="-122.526434"><ele>5.7</ele></trkpt><trkpt lat="37.877058" lon="-122.526488"><ele>5.3</ele></trkpt><trkpt lat="37.877174" lon="-122.526428"><ele>4.7</ele></trkpt><trkpt lat="37.877288" lon="-122.526362"><ele>4.2</ele></trkpt><trkpt lat="37.877372" lon="-122.526283"><ele>3.8</ele></trkpt><trkpt lat="37.877461" lon="-122.526177"><ele>3.3</ele></trkpt><trkpt lat="37.877515" lon="-122.526086"><ele>3.0</ele></trkpt><trkpt lat="37.877588" lon="-122.525933"><ele>2.4</ele></trkpt><trkpt lat="37.877650" lon="-122.525784"><ele>1.9</ele></trkpt><trkpt lat="37.877681" lon="-122.525669"><ele>1.7</ele></trkpt><trkpt lat="37.877691" lon="-122.525581"><ele>1.6</ele></trkpt><trkpt lat="37.877695" lon="-122.525473"><ele>1.5</ele></trkpt><trkpt lat="37.877620" lon="-122.525037"><ele>1.1</ele></trkpt><trkpt lat="37.877630" lon="-122.524897"><ele>0.9</ele></trkpt><trkpt lat="37.877755" lon="-122.524516"><ele>1.3</ele></trkpt><trkpt lat="37.877855" lon="-122.524062"><ele>1.8</ele></trkpt><trkpt lat="37.877939" lon="-122.523883"><ele>2.0</ele></trkpt><trkpt lat="37.878026" lon="-122.523755"><ele>2.1</ele></trkpt><trkpt lat="37.878104" lon="-122.523670"><ele>2.3</ele></trkpt><trkpt lat="37.878188" lon="-122.523601"><ele>2.4</ele></trkpt><trkpt lat="37.878282" lon="-122.523543"><ele>2.5</ele></trkpt><trkpt lat="37.878398" lon="-122.523525"><ele>2.7</ele></trkpt><trkpt lat="37.878474" lon="-122.523529"><ele>2.8</ele></trkpt><trkpt lat="37.878598" lon="-122.523543"><ele>2.9</ele></trkpt><trkpt lat="37.878675" lon="-122.523545"><ele>2.9</ele></trkpt><trkpt lat="37.878797" lon="-122.523534"><ele>3.0</ele></trkpt><trkpt lat="37.878924" lon="-122.523509"><ele>3.2</ele></trkpt><trkpt lat="37.879015" lon="-122.523489"><ele>3.2</ele></trkpt><trkpt lat="37.879101" lon="-122.523457"><ele>3.3</ele></trkpt><trkpt lat="37.879210" lon="-122.523379"><ele>3.3</ele></trkpt><trkpt lat="37.879372" lon="-122.523249"><ele>3.2</ele></trkpt><trkpt lat="37.879435" lon="-122.523171"><ele>3.2</ele></trkpt><trkpt lat="37.879437" lon="-122.523126"><ele>3.2</ele></trkpt><trkpt lat="37.879441" lon="-122.523038"><ele>3.2</ele></trkpt><trkpt lat="37.879474" lon="-122.522959"><ele>3.1</ele></trkpt><trkpt lat="37.879520" lon="-122.522908"><ele>3.1</ele></trkpt><trkpt lat="37.879580" lon="-122.522886"><ele>3.1</ele></trkpt><trkpt lat="37.879691" lon="-122.522857"><ele>3.0</ele></trkpt><trkpt lat="37.879698" lon="-122.522838"><ele>3.0</ele></trkpt><trkpt lat="37.879765" lon="-122.522778"><ele>3.0</ele></trkpt><trkpt lat="37.880358" lon="-122.522236"><ele>2.9</ele></trkpt><trkpt lat="37.880541" lon="-122.522062"><ele>2.7</ele></trkpt><trkpt lat="37.880597" lon="-122.521996"><ele>2.7</ele></trkpt><trkpt lat="37.880883" lon="-122.521584"><ele>2.4</ele></trkpt><trkpt lat="37.881506" lon="-122.520647"><ele>2.4</ele></trkpt><trkpt lat="37.881538" lon="-122.520592"><ele>2.4</ele></trkpt><trkpt lat="37.881558" lon="-122.520545"><ele>2.4</ele></trkpt><trkpt lat="37.881567" lon="-122.520494"><ele>2.4</ele></trkpt><trkpt lat="37.881562" lon="-122.520406"><ele>2.4</ele></trkpt><trkpt lat="37.881563" lon="-122.520361"><ele>2.4</ele></trkpt><trkpt lat="37.881573" lon="-122.520309"><ele>2.4</ele></trkpt><trkpt lat="37.881589" lon="-122.520263"><ele>2.4</ele></trkpt><trkpt lat="37.881649" lon="-122.520152"><ele>2.4</ele></trkpt><trkpt lat="37.881791" lon="-122.520022"><ele>2.3</ele></trkpt><trkpt lat="37.881819" lon="-122.519976"><ele>2.3</ele></trkpt><trkpt lat="37.881877" lon="-122.519873"><ele>2.3</ele></trkpt><trkpt lat="37.881893" lon="-122.519829"><ele>2.2</ele></trkpt><trkpt lat="37.881940" lon="-122.519653"><ele>2.2</ele></trkpt><trkpt lat="37.881968" lon="-122.519576"><ele>2.1</ele></trkpt><trkpt lat="37.882118" lon="-122.519326"><ele>2.1</ele></trkpt><trkpt lat="37.882275" lon="-122.519068"><ele>2.1</ele></trkpt><trkpt lat="37.882298" lon="-122.519034"><ele>2.1</ele></trkpt><trkpt lat="37.882327" lon="-122.519003"><ele>2.1</ele></trkpt><trkpt lat="37.882350" lon="-122.518992"><ele>2.1</ele></trkpt><trkpt lat="37.882384" lon="-122.518982"><ele>2.1</ele></trkpt><trkpt lat="37.882426" lon="-122.518982"><ele>2.1</ele></trkpt><trkpt lat="37.882462" lon="-122.518992"><ele>2.1</ele></trkpt><trkpt lat="37.882510" lon="-122.518998"><ele>2.1</ele></trkpt><trkpt lat="37.882549" lon="-122.518993"><ele>2.1</ele></trkpt><trkpt lat="37.882598" lon="-122.518970"><ele>2.0</ele></trkpt><trkpt lat="37.882625" lon="-122.518954"><ele>2.0</ele></trkpt><trkpt lat="37.882680" lon="-122.518910"><ele>1.9</ele></trkpt><trkpt lat="37.882508" lon="-122.518687"><ele>1.6</ele></trkpt><trkpt lat="37.882230" lon="-122.518328"><ele>1.2</ele></trkpt><trkpt lat="37.882013" lon="-122.518028"><ele>1.0</ele></trkpt><trkpt lat="37.881799" lon="-122.517737"><ele>1.0</ele></trkpt><trkpt lat="37.881214" lon="-122.516975"><ele>2.3</ele></trkpt><trkpt lat="37.880170" lon="-122.515620"><ele>3.2</ele></trkpt><trkpt lat="37.879836" lon="-122.515185"><ele>2.8</ele></trkpt><trkpt lat="37.879797" lon="-122.515140"><ele>2.7</ele></trkpt><trkpt lat="37.879768" lon="-122.515116"><ele>2.7</ele></trkpt><trkpt lat="37.879733" lon="-122.515099"><ele>2.7</ele></trkpt><trkpt lat="37.879676" lon="-122.515081"><ele>2.6</ele></trkpt><trkpt lat="37.879647" lon="-122.515077"><ele>2.6</ele></trkpt><trkpt lat="37.879560" lon="-122.514962"><ele>2.5</ele></trkpt><trkpt lat="37.879447" lon="-122.514812"><ele>2.3</ele></trkpt><trkpt lat="37.879446" lon="-122.514779"><ele>2.3</ele></trkpt><trkpt lat="37.879441" lon="-122.514751"><ele>2.3</ele></trkpt><trkpt lat="37.879426" lon="-122.514705"><ele>2.3</ele></trkpt><trkpt lat="37.879408" lon="-122.514661"><ele>2.2</ele></trkpt><trkpt lat="37.879385" lon="-122.514620"><ele>2.2</ele></trkpt><trkpt lat="37.879358" lon="-122.514577"><ele>2.2</ele></trkpt><trkpt lat="37.879330" lon="-122.514539"><ele>2.1</ele></trkpt><trkpt lat="37.879095" lon="-122.514230"><ele>2.1</ele></trkpt><trkpt lat="37.878977" lon="-122.514078"><ele>2.1</ele></trkpt><trkpt lat="37.878852" lon="-122.513924"><ele>2.1</ele></trkpt><trkpt lat="37.878678" lon="-122.513703"><ele>2.0</ele></trkpt><trkpt lat="37.878518" lon="-122.513496"><ele>1.8</ele></trkpt><trkpt lat="37.878330" lon="-122.513251"><ele>1.5</ele></trkpt><trkpt lat="37.878049" lon="-122.512883"><ele>2.0</ele></trkpt><trkpt lat="37.877704" lon="-122.512432"><ele>2.2</ele></trkpt><trkpt lat="37.876709" lon="-122.511137"><ele>0.7</ele></trkpt><trkpt lat="37.876262" lon="-122.510556"><ele>0.0</ele></trkpt><trkpt lat="37.875831" lon="-122.509993"><ele>0.0</ele></trkpt><trkpt lat="37.875296" lon="-122.509298"><ele>0.6</ele></trkpt><trkpt lat="37.874505" lon="-122.508269"><ele>0.8</ele></trkpt><trkpt lat="37.874123" lon="-122.507767"><ele>1.0</ele></trkpt><trkpt lat="37.873844" lon="-122.507403"><ele>1.2</ele></trkpt><trkpt lat="37.873790" lon="-122.507330"><ele>1.2</ele></trkpt><trkpt lat="37.873752" lon="-122.507276"><ele>1.3</ele></trkpt><trkpt lat="37.873717" lon="-122.507222"><ele>1.4</ele></trkpt><trkpt lat="37.873683" lon="-122.507170"><ele>1.5</ele></trkpt><trkpt lat="37.873649" lon="-122.507122"><ele>1.6</ele></trkpt><trkpt lat="37.873611" lon="-122.507072"><ele>1.7</ele></trkpt><trkpt lat="37.873577" lon="-122.507029"><ele>1.8</ele></trkpt><trkpt lat="37.873545" lon="-122.506990"><ele>1.8</ele></trkpt><trkpt lat="37.873511" lon="-122.506949"><ele>1.9</ele></trkpt><trkpt lat="37.873475" lon="-122.506910"><ele>2.0</ele></trkpt><trkpt lat="37.873444" lon="-122.506876"><ele>2.1</ele></trkpt><trkpt lat="37.873416" lon="-122.506844"><ele>2.1</ele></trkpt><trkpt lat="37.873387" lon="-122.506810"><ele>2.2</ele></trkpt><trkpt lat="37.873345" lon="-122.506755"><ele>2.3</ele></trkpt><trkpt lat="37.873297" lon="-122.506685"><ele>2.4</ele></trkpt><trkpt lat="37.873227" lon="-122.506571"><ele>2.6</ele></trkpt><trkpt lat="37.873191" lon="-122.506508"><ele>2.6</ele></trkpt><trkpt lat="37.872768" lon="-122.505719"><ele>3.4</ele></trkpt><trkpt lat="37.872740" lon="-122.505680"><ele>3.4</ele></trkpt><trkpt lat="37.872683" lon="-122.505600"><ele>3.4</ele></trkpt><trkpt lat="37.872598" lon="-122.505455"><ele>3.4</ele></trkpt><trkpt lat="37.872449" lon="-122.505200"><ele>3.4</ele></trkpt><trkpt lat="37.872112" lon="-122.504728"><ele>4.0</ele></trkpt><trkpt lat="37.871775" lon="-122.504334"><ele>5.1</ele></trkpt><trkpt lat="37.871671" lon="-122.504225"><ele>5.5</ele></trkpt><trkpt lat="37.871618" lon="-122.504168"><ele>5.8</ele></trkpt><trkpt lat="37.871254" lon="-122.503899"><ele>6.8</ele></trkpt><trkpt lat="37.870937" lon="-122.503717"><ele>7.1</ele></trkpt><trkpt lat="37.870815" lon="-122.503651"><ele>7.2</ele></trkpt><trkpt lat="37.870780" lon="-122.503638"><ele>7.3</ele></trkpt><trkpt lat="37.870709" lon="-122.503611"><ele>7.3</ele></trkpt><trkpt lat="37.870645" lon="-122.503580"><ele>7.3</ele></trkpt><trkpt lat="37.870587" lon="-122.503556"><ele>7.3</ele></trkpt><trkpt lat="37.870549" lon="-122.503540"><ele>7.2</ele></trkpt><trkpt lat="37.870414" lon="-122.503480"><ele>7.2</ele></trkpt><trkpt lat="37.869954" lon="-122.503277"><ele>6.7</ele></trkpt><trkpt lat="37.869743" lon="-122.503174"><ele>5.9</ele></trkpt><trkpt lat="37.869493" lon="-122.503055"><ele>5.0</ele></trkpt><trkpt lat="37.869361" lon="-122.502985"><ele>4.6</ele></trkpt><trkpt lat="37.869316" lon="-122.502957"><ele>4.6</ele></trkpt><trkpt lat="37.869286" lon="-122.502955"><ele>4.6</ele></trkpt><trkpt lat="37.869210" lon="-122.502914"><ele>4.6</ele></trkpt><trkpt lat="37.869089" lon="-122.502837"><ele>4.6</ele></trkpt><trkpt lat="37.869014" lon="-122.502784"><ele>4.6</ele></trkpt><trkpt lat="37.868990" lon="-122.502757"><ele>4.6</ele></trkpt><trkpt lat="37.868945" lon="-122.502724"><ele>4.6</ele></trkpt><trkpt lat="37.868774" lon="-122.502600"><ele>4.6</ele></trkpt><trkpt lat="37.868724" lon="-122.502556"><ele>4.6</ele></trkpt><trkpt lat="37.868657" lon="-122.502503"><ele>4.5</ele></trkpt><trkpt lat="37.868611" lon="-122.502459"><ele>4.5</ele></trkpt><trkpt lat="37.868455" lon="-122.502324"><ele>4.4</ele></trkpt><trkpt lat="37.868202" lon="-122.502086"><ele>4.3</ele></trkpt><trkpt lat="37.868063" lon="-122.501935"><ele>4.4</ele></trkpt><trkpt lat="37.867959" lon="-122.501813"><ele>4.5</ele></trkpt><trkpt lat="37.867928" lon="-122.501776"><ele>4.5</ele></trkpt><trkpt lat="37.867707" lon="-122.501534"><ele>4.8</ele></trkpt><trkpt lat="37.867370" lon="-122.501191"><ele>4.8</ele></trkpt><trkpt lat="37.867023" lon="-122.500854"><ele>4.6</ele></trkpt><trkpt lat="37.866984" lon="-122.500811"><ele>4.6</ele></trkpt><trkpt lat="37.866946" lon="-122.500769"><ele>4.6</ele></trkpt><trkpt lat="37.866956" lon="-122.500755"><ele>4.6</ele></trkpt><trkpt lat="37.867126" lon="-122.500529"><ele>4.7</ele></trkpt><trkpt lat="37.867033" lon="-122.500424"><ele>4.8</ele></trkpt><trkpt lat="37.866948" lon="-122.500328"><ele>4.8</ele></trkpt><trkpt lat="37.866813" lon="-122.500180"><ele>4.8</ele></trkpt><trkpt lat="37.866667" lon="-122.500019"><ele>4.7</ele></trkpt><trkpt lat="37.866256" lon="-122.499594"><ele>4.3</ele></trkpt><trkpt lat="37.866217" lon="-122.499554"><ele>4.3</ele></trkpt><trkpt lat="37.865706" lon="-122.499006"><ele>4.3</ele></trkpt><trkpt lat="37.865134" lon="-122.498393"><ele>4.6</ele></trkpt><trkpt lat="37.865122" lon="-122.498381"><ele>4.6</ele></trkpt><trkpt lat="37.864985" lon="-122.498372"><ele>4.6</ele></trkpt><trkpt lat="37.864953" lon="-122.498365"><ele>4.6</ele></trkpt><trkpt lat="37.864924" lon="-122.498345"><ele>4.6</ele></trkpt><trkpt lat="37.864879" lon="-122.498310"><ele>4.6</ele></trkpt><trkpt lat="37.864704" lon="-122.498101"><ele>4.6</ele></trkpt><trkpt lat="37.864504" lon="-122.497872"><ele>4.6</ele></trkpt><trkpt lat="37.864234" lon="-122.497555"><ele>4.6</ele></trkpt><trkpt lat="37.864217" lon="-122.497429"><ele>4.6</ele></trkpt><trkpt lat="37.864293" lon="-122.497329"><ele>4.6</ele></trkpt><trkpt lat="37.864312" lon="-122.497304"><ele>4.6</ele></trkpt><trkpt lat="37.864466" lon="-122.497099"><ele>4.5</ele></trkpt><trkpt lat="37.864493" lon="-122.497062"><ele>4.4</ele></trkpt><trkpt lat="37.864515" lon="-122.497035"><ele>4.4</ele></trkpt><trkpt lat="37.864374" lon="-122.496864"><ele>4.3</ele></trkpt><trkpt lat="37.863883" lon="-122.496271"><ele>5.3</ele></trkpt><trkpt lat="37.863876" lon="-122.496262"><ele>5.3</ele></trkpt><trkpt lat="37.863601" lon="-122.495927"><ele>6.1</ele></trkpt><trkpt lat="37.863586" lon="-122.495912"><ele>6.1</ele></trkpt><trkpt lat="37.863544" lon="-122.495871"><ele>6.2</ele></trkpt><trkpt lat="37.863496" lon="-122.495836"><ele>6.3</ele></trkpt><trkpt lat="37.863473" lon="-122.495803"><ele>6.3</ele></trkpt><trkpt lat="37.862735" lon="-122.494898"><ele>7.0</ele></trkpt><trkpt lat="37.862642" lon="-122.494782"><ele>7.0</ele></trkpt><trkpt lat="37.862578" lon="-122.494703"><ele>6.8</ele></trkpt><trkpt lat="37.862532" lon="-122.494650"><ele>6.8</ele></trkpt><trkpt lat="37.862466" lon="-122.494563"><ele>6.6</ele></trkpt><trkpt lat="37.862434" lon="-122.494503"><ele>6.6</ele></trkpt><trkpt lat="37.862390" lon="-122.494425"><ele>6.5</ele></trkpt><trkpt lat="37.862341" lon="-122.494296"><ele>6.3</ele></trkpt><trkpt lat="37.862300" lon="-122.494274"><ele>6.3</ele></trkpt><trkpt lat="37.862276" lon="-122.494252"><ele>6.2</ele></trkpt><trkpt lat="37.862253" lon="-122.494217"><ele>6.2</ele></trkpt><trkpt lat="37.862226" lon="-122.494157"><ele>6.1</ele></trkpt><trkpt lat="37.862180" lon="-122.494022"><ele>6.0</ele></trkpt><trkpt lat="37.862129" lon="-122.493856"><ele>5.8</ele></trkpt><trkpt lat="37.862087" lon="-122.493734"><ele>5.7</ele></trkpt><trkpt lat="37.862048" lon="-122.493657"><ele>5.6</ele></trkpt><trkpt lat="37.862010" lon="-122.493616"><ele>5.5</ele></trkpt><trkpt lat="37.861990" lon="-122.493585"><ele>5.5</ele></trkpt><trkpt lat="37.861932" lon="-122.493616"><ele>5.4</ele></trkpt><trkpt lat="37.861835" lon="-122.493674"><ele>5.3</ele></trkpt><trkpt lat="37.861832" lon="-122.493598"><ele>5.2</ele></trkpt><trkpt lat="37.861830" lon="-122.493511"><ele>5.2</ele></trkpt><trkpt lat="37.861806" lon="-122.492460"><ele>5.1</ele></trkpt><trkpt lat="37.861801" lon="-122.492251"><ele>5.0</ele></trkpt><trkpt lat="37.861799" lon="-122.492148"><ele>5.0</ele></trkpt><trkpt lat="37.861798" lon="-122.492110"><ele>5.0</ele></trkpt><trkpt lat="37.861793" lon="-122.491913"><ele>4.9</ele></trkpt><trkpt lat="37.861792" lon="-122.491890"><ele>4.9</ele></trkpt><trkpt lat="37.861785" lon="-122.491761"><ele>4.9</ele></trkpt><trkpt lat="37.861773" lon="-122.491590"><ele>5.3</ele></trkpt><trkpt lat="37.861758" lon="-122.491438"><ele>5.6</ele></trkpt><trkpt lat="37.861756" lon="-122.491417"><ele>5.6</ele></trkpt><trkpt lat="37.861739" lon="-122.491279"><ele>5.9</ele></trkpt><trkpt lat="37.861716" lon="-122.491123"><ele>6.2</ele></trkpt><trkpt lat="37.861690" lon="-122.490963"><ele>6.5</ele></trkpt><trkpt lat="37.861679" lon="-122.490909"><ele>6.6</ele></trkpt><trkpt lat="37.861668" lon="-122.490852"><ele>6.7</ele></trkpt><trkpt lat="37.861659" lon="-122.490807"><ele>6.7</ele></trkpt><trkpt lat="37.861625" lon="-122.490652"><ele>6.8</ele></trkpt><trkpt lat="37.861587" lon="-122.490494"><ele>6.8</ele></trkpt><trkpt lat="37.861552" lon="-122.490333"><ele>6.9</ele></trkpt><trkpt lat="37.861512" lon="-122.490192"><ele>6.9</ele></trkpt><trkpt lat="37.861462" lon="-122.490051"><ele>7.0</ele></trkpt><trkpt lat="37.861402" lon="-122.489904"><ele>7.1</ele></trkpt><trkpt lat="37.861342" lon="-122.489766"><ele>7.1</ele></trkpt><trkpt lat="37.861259" lon="-122.489583"><ele>7.2</ele></trkpt><trkpt lat="37.861246" lon="-122.489532"><ele>7.2</ele></trkpt><trkpt lat="37.861253" lon="-122.489434"><ele>7.2</ele></trkpt><trkpt lat="37.861205" lon="-122.489335"><ele>7.3</ele></trkpt><trkpt lat="37.861152" lon="-122.489229"><ele>7.3</ele></trkpt><trkpt lat="37.861101" lon="-122.489123"><ele>7.0</ele></trkpt><trkpt lat="37.861034" lon="-122.488985"><ele>6.6</ele></trkpt><trkpt lat="37.860978" lon="-122.488869"><ele>6.2</ele></trkpt><trkpt lat="37.860853" lon="-122.488613"><ele>5.4</ele></trkpt><trkpt lat="37.860826" lon="-122.488557"><ele>5.3</ele></trkpt><trkpt lat="37.860778" lon="-122.488454"><ele>4.9</ele></trkpt><trkpt lat="37.860433" lon="-122.487725"><ele>4.1</ele></trkpt><trkpt lat="37.860400" lon="-122.487653"><ele>4.0</ele></trkpt><trkpt lat="37.860363" lon="-122.487572"><ele>3.9</ele></trkpt><trkpt lat="37.860236" lon="-122.487295"><ele>3.7</ele></trkpt><trkpt lat="37.860155" lon="-122.487116"><ele>3.6</ele></trkpt><trkpt lat="37.860074" lon="-122.486937"><ele>3.4</ele></trkpt><trkpt lat="37.860021" lon="-122.486821"><ele>3.3</ele></trkpt><trkpt lat="37.859982" lon="-122.486727"><ele>3.3</ele></trkpt><trkpt lat="37.859955" lon="-122.486666"><ele>3.2</ele></trkpt><trkpt lat="37.859742" lon="-122.486189"><ele>2.8</ele></trkpt><trkpt lat="37.859648" lon="-122.485975"><ele>2.8</ele></trkpt><trkpt lat="37.859623" lon="-122.485917"><ele>2.8</ele></trkpt><trkpt lat="37.859587" lon="-122.485836"><ele>2.8</ele></trkpt><trkpt lat="37.859551" lon="-122.485760"><ele>2.9</ele></trkpt><trkpt lat="37.859431" lon="-122.485511"><ele>3.0</ele></trkpt><trkpt lat="37.859282" lon="-122.485201"><ele>3.0</ele></trkpt><trkpt lat="37.859196" lon="-122.485020"><ele>2.9</ele></trkpt><trkpt lat="37.859159" lon="-122.484941"><ele>2.9</ele></trkpt><trkpt lat="37.859126" lon="-122.484867"><ele>2.9</ele></trkpt><trkpt lat="37.858952" lon="-122.484469"><ele>2.7</ele></trkpt><trkpt lat="37.858937" lon="-122.484433"><ele>2.8</ele></trkpt><trkpt lat="37.858901" lon="-122.484349"><ele>2.8</ele></trkpt><trkpt lat="37.858868" lon="-122.484271"><ele>2.8</ele></trkpt><trkpt lat="37.858835" lon="-122.484189"><ele>2.9</ele></trkpt><trkpt lat="37.858803" lon="-122.484105"><ele>2.9</ele></trkpt><trkpt lat="37.858772" lon="-122.484019"><ele>2.9</ele></trkpt><trkpt lat="37.858744" lon="-122.483939"><ele>2.9</ele></trkpt><trkpt lat="37.858566" lon="-122.483430"><ele>3.4</ele></trkpt><trkpt lat="37.858531" lon="-122.483329"><ele>3.5</ele></trkpt><trkpt lat="37.858499" lon="-122.483238"><ele>3.7</ele></trkpt><trkpt lat="37.858474" lon="-122.483163"><ele>3.8</ele></trkpt><trkpt lat="37.858441" lon="-122.483060"><ele>3.9</ele></trkpt><trkpt lat="37.858422" lon="-122.482983"><ele>4.0</ele></trkpt><trkpt lat="37.858405" lon="-122.482910"><ele>4.1</ele></trkpt><trkpt lat="37.858387" lon="-122.482837"><ele>4.2</ele></trkpt><trkpt lat="37.858379" lon="-122.482808"><ele>4.3</ele></trkpt><trkpt lat="37.858366" lon="-122.482763"><ele>4.3</ele></trkpt><trkpt lat="37.858339" lon="-122.482680"><ele>4.3</ele></trkpt><trkpt lat="37.858310" lon="-122.482598"><ele>4.3</ele></trkpt><trkpt lat="37.858249" lon="-122.482424"><ele>4.3</ele></trkpt><trkpt lat="37.858218" lon="-122.482349"><ele>4.3</ele></trkpt><trkpt lat="37.858183" lon="-122.482278"><ele>4.3</ele></trkpt><trkpt lat="37.858146" lon="-122.482211"><ele>4.3</ele></trkpt><trkpt lat="37.858025" lon="-122.482006"><ele>4.3</ele></trkpt><trkpt lat="37.857972" lon="-122.481917"><ele>4.4</ele></trkpt><trkpt lat="37.857919" lon="-122.481833"><ele>4.4</ele></trkpt><trkpt lat="37.857865" lon="-122.481754"><ele>4.5</ele></trkpt><trkpt lat="37.857805" lon="-122.481672"><ele>4.6</ele></trkpt><trkpt lat="37.857741" lon="-122.481588"><ele>4.7</ele></trkpt><trkpt lat="37.857677" lon="-122.481506"><ele>4.7</ele></trkpt><trkpt lat="37.857529" lon="-122.481323"><ele>5.2</ele></trkpt><trkpt lat="37.857463" lon="-122.481236"><ele>5.8</ele></trkpt><trkpt lat="37.857455" lon="-122.481227"><ele>5.9</ele></trkpt><trkpt lat="37.857378" lon="-122.481122"><ele>6.6</ele></trkpt><trkpt lat="37.857304" lon="-122.481016"><ele>7.4</ele></trkpt><trkpt lat="37.857213" lon="-122.480887"><ele>8.3</ele></trkpt><trkpt lat="37.857109" lon="-122.480733"><ele>9.4</ele></trkpt><trkpt lat="37.857024" lon="-122.480604"><ele>9.9</ele></trkpt><trkpt lat="37.856978" lon="-122.480533"><ele>10.1</ele></trkpt><trkpt lat="37.856937" lon="-122.480470"><ele>10.2</ele></trkpt><trkpt lat="37.856772" lon="-122.480216"><ele>10.7</ele></trkpt><trkpt lat="37.856737" lon="-122.480166"><ele>10.9</ele></trkpt><trkpt lat="37.856698" lon="-122.480115"><ele>11.0</ele></trkpt><trkpt lat="37.856661" lon="-122.480071"><ele>11.1</ele></trkpt><trkpt lat="37.856621" lon="-122.480032"><ele>11.2</ele></trkpt><trkpt lat="37.856575" lon="-122.479997"><ele>11.3</ele></trkpt><trkpt lat="37.856528" lon="-122.479967"><ele>11.7</ele></trkpt><trkpt lat="37.856461" lon="-122.479928"><ele>12.1</ele></trkpt><trkpt lat="37.856429" lon="-122.479908"><ele>12.4</ele></trkpt><trkpt lat="37.856400" lon="-122.479890"><ele>12.6</ele></trkpt><trkpt lat="37.855976" lon="-122.479596"><ele>15.6</ele></trkpt><trkpt lat="37.855915" lon="-122.479554"><ele>15.6</ele></trkpt><trkpt lat="37.855874" lon="-122.479526"><ele>15.3</ele></trkpt><trkpt lat="37.855823" lon="-122.479493"><ele>14.9</ele></trkpt><trkpt lat="37.855783" lon="-122.479468"><ele>14.6</ele></trkpt><trkpt lat="37.855300" lon="-122.479186"><ele>11.0</ele></trkpt><trkpt lat="37.855144" lon="-122.479094"><ele>10.9</ele></trkpt><trkpt lat="37.855016" lon="-122.479020"><ele>10.8</ele></trkpt><trkpt lat="37.854975" lon="-122.478997"><ele>10.8</ele></trkpt><trkpt lat="37.854943" lon="-122.478982"><ele>10.8</ele></trkpt><trkpt lat="37.854922" lon="-122.478973"><ele>10.8</ele></trkpt><trkpt lat="37.854901" lon="-122.478965"><ele>10.8</ele></trkpt><trkpt lat="37.854878" lon="-122.478958"><ele>10.8</ele></trkpt><trkpt lat="37.854856" lon="-122.478954"><ele>10.8</ele></trkpt><trkpt lat="37.854834" lon="-122.478952"><ele>10.8</ele></trkpt><trkpt lat="37.854810" lon="-122.478950"><ele>10.8</ele></trkpt><trkpt lat="37.854547" lon="-122.478950"><ele>10.4</ele></trkpt><trkpt lat="37.851649" lon="-122.478949"><ele>24.5</ele></trkpt><trkpt lat="37.851623" lon="-122.478949"><ele>24.7</ele></trkpt><trkpt lat="37.851599" lon="-122.478950"><ele>24.8</ele></trkpt><trkpt lat="37.851575" lon="-122.478955"><ele>25.0</ele></trkpt><trkpt lat="37.851550" lon="-122.478961"><ele>25.2</ele></trkpt><trkpt lat="37.851526" lon="-122.478971"><ele>25.3</ele></trkpt><trkpt lat="37.851499" lon="-122.478984"><ele>25.5</ele></trkpt><trkpt lat="37.850932" lon="-122.479295"><ele>29.0</ele></trkpt><trkpt lat="37.850895" lon="-122.479315"><ele>29.1</ele></trkpt><trkpt lat="37.850857" lon="-122.479338"><ele>29.1</ele></trkpt><trkpt lat="37.850825" lon="-122.479360"><ele>29.1</ele></trkpt><trkpt lat="37.850504" lon="-122.479590"><ele>29.5</ele></trkpt><trkpt lat="37.850456" lon="-122.479624"><ele>29.5</ele></trkpt><trkpt lat="37.850408" lon="-122.479653"><ele>29.6</ele></trkpt><trkpt lat="37.850359" lon="-122.479678"><ele>28.9</ele></trkpt><trkpt lat="37.850313" lon="-122.479698"><ele>28.1</ele></trkpt><trkpt lat="37.850033" lon="-122.479801"><ele>23.6</ele></trkpt><trkpt lat="37.850008" lon="-122.479814"><ele>23.2</ele></trkpt><trkpt lat="37.849984" lon="-122.479828"><ele>22.8</ele></trkpt><trkpt lat="37.849962" lon="-122.479844"><ele>22.4</ele></trkpt><trkpt lat="37.849942" lon="-122.479864"><ele>22.0</ele></trkpt><trkpt lat="37.849927" lon="-122.479883"><ele>21.7</ele></trkpt><trkpt lat="37.849912" lon="-122.479907"><ele>21.3</ele></trkpt><trkpt lat="37.849899" lon="-122.479934"><ele>20.9</ele></trkpt><trkpt lat="37.849888" lon="-122.479962"><ele>20.5</ele></trkpt><trkpt lat="37.849880" lon="-122.479997"><ele>20.1</ele></trkpt><trkpt lat="37.849873" lon="-122.480032"><ele>19.6</ele></trkpt><trkpt lat="37.849870" lon="-122.480065"><ele>19.2</ele></trkpt><trkpt lat="37.849869" lon="-122.480099"><ele>18.8</ele></trkpt><trkpt lat="37.849877" lon="-122.480764"><ele>13.9</ele></trkpt><trkpt lat="37.849594" lon="-122.480760"><ele>11.8</ele></trkpt><trkpt lat="37.849449" lon="-122.480760"><ele>11.7</ele></trkpt><trkpt lat="37.849287" lon="-122.480761"><ele>11.6</ele></trkpt><trkpt lat="37.849092" lon="-122.480767"><ele>11.4</ele></trkpt><trkpt lat="37.848910" lon="-122.480773"><ele>11.4</ele></trkpt><trkpt lat="37.848691" lon="-122.480775"><ele>12.1</ele></trkpt><trkpt lat="37.848438" lon="-122.480778"><ele>12.9</ele></trkpt><trkpt lat="37.848003" lon="-122.480784"><ele>14.9</ele></trkpt><trkpt lat="37.847952" lon="-122.480784"><ele>15.2</ele></trkpt><trkpt lat="37.847894" lon="-122.480786"><ele>15.5</ele></trkpt><trkpt lat="37.847291" lon="-122.480792"><ele>17.9</ele></trkpt><trkpt lat="37.847241" lon="-122.480792"><ele>17.9</ele></trkpt><trkpt lat="37.847179" lon="-122.480791"><ele>17.9</ele></trkpt><trkpt lat="37.847124" lon="-122.480789"><ele>17.8</ele></trkpt><trkpt lat="37.847090" lon="-122.480781"><ele>17.8</ele></trkpt><trkpt lat="37.847057" lon="-122.480763"><ele>17.8</ele></trkpt><trkpt lat="37.847030" lon="-122.480732"><ele>17.8</ele></trkpt><trkpt lat="37.847007" lon="-122.480681"><ele>17.8</ele></trkpt><trkpt lat="37.846996" lon="-122.480621"><ele>17.8</ele></trkpt><trkpt lat="37.846990" lon="-122.480534"><ele>17.7</ele></trkpt><trkpt lat="37.846992" lon="-122.480379"><ele>17.5</ele></trkpt><trkpt lat="37.846989" lon="-122.480148"><ele>15.7</ele></trkpt><trkpt lat="37.846987" lon="-122.479908"><ele>13.8</ele></trkpt><trkpt lat="37.846981" lon="-122.479150"><ele>11.5</ele></trkpt><trkpt lat="37.846976" lon="-122.479044"><ele>11.7</ele></trkpt><trkpt lat="37.846956" lon="-122.478961"><ele>12.0</ele></trkpt><trkpt lat="37.846922" lon="-122.478867"><ele>12.2</ele></trkpt><trkpt lat="37.846877" lon="-122.478784"><ele>12.4</ele></trkpt><trkpt lat="37.846809" lon="-122.478704"><ele>12.7</ele></trkpt><trkpt lat="37.846443" lon="-122.478329"><ele>21.8</ele></trkpt><trkpt lat="37.846367" lon="-122.478259"><ele>23.7</ele></trkpt><trkpt lat="37.846286" lon="-122.478201"><ele>25.6</ele></trkpt><trkpt lat="37.846224" lon="-122.478168"><ele>27.0</ele></trkpt><trkpt lat="37.846174" lon="-122.478142"><ele>28.3</ele></trkpt><trkpt lat="37.846122" lon="-122.478123"><ele>30.0</ele></trkpt><trkpt lat="37.846037" lon="-122.478093"><ele>32.8</ele></trkpt><trkpt lat="37.845903" lon="-122.478051"><ele>37.2</ele></trkpt><trkpt lat="37.845730" lon="-122.478000"><ele>42.8</ele></trkpt><trkpt lat="37.845602" lon="-122.477964"><ele>46.9</ele></trkpt><trkpt lat="37.845483" lon="-122.477933"><ele>50.4</ele></trkpt><trkpt lat="37.845402" lon="-122.477914"><ele>51.2</ele></trkpt><trkpt lat="37.845302" lon="-122.477899"><ele>52.2</ele></trkpt><trkpt lat="37.845199" lon="-122.477885"><ele>53.2</ele></trkpt><trkpt lat="37.845126" lon="-122.477877"><ele>53.9</ele></trkpt><trkpt lat="37.845024" lon="-122.477869"><ele>54.9</ele></trkpt><trkpt lat="37.844945" lon="-122.477867"><ele>55.7</ele></trkpt><trkpt lat="37.844872" lon="-122.477867"><ele>56.4</ele></trkpt><trkpt lat="37.844801" lon="-122.477872"><ele>57.0</ele></trkpt><trkpt lat="37.844784" lon="-122.477874"><ele>57.2</ele></trkpt><trkpt lat="37.844730" lon="-122.477879"><ele>57.1</ele></trkpt><trkpt lat="37.844676" lon="-122.477886"><ele>56.9</ele></trkpt><trkpt lat="37.844628" lon="-122.477894"><ele>56.8</ele></trkpt><trkpt lat="37.844575" lon="-122.477911"><ele>56.5</ele></trkpt><trkpt lat="37.844511" lon="-122.477937"><ele>56.3</ele></trkpt><trkpt lat="37.844432" lon="-122.477965"><ele>56.0</ele></trkpt><trkpt lat="37.844310" lon="-122.478010"><ele>55.5</ele></trkpt><trkpt lat="37.844178" lon="-122.478054"><ele>55.0</ele></trkpt><trkpt lat="37.843921" lon="-122.478141"><ele>52.9</ele></trkpt><trkpt lat="37.843803" lon="-122.478183"><ele>51.6</ele></trkpt><trkpt lat="37.843696" lon="-122.478221"><ele>50.4</ele></trkpt><trkpt lat="37.843596" lon="-122.478257"><ele>49.2</ele></trkpt><trkpt lat="37.843519" lon="-122.478284"><ele>48.4</ele></trkpt><trkpt lat="37.843464" lon="-122.478297"><ele>47.7</ele></trkpt><trkpt lat="37.843406" lon="-122.478310"><ele>47.1</ele></trkpt><trkpt lat="37.843347" lon="-122.478318"><ele>46.7</ele></trkpt><trkpt lat="37.843283" lon="-122.478323"><ele>47.0</ele></trkpt><trkpt lat="37.843219" lon="-122.478325"><ele>47.3</ele></trkpt><trkpt lat="37.843173" lon="-122.478323"><ele>47.5</ele></trkpt><trkpt lat="37.843123" lon="-122.478317"><ele>47.8</ele></trkpt><trkpt lat="37.843069" lon="-122.478311"><ele>48.0</ele></trkpt><trkpt lat="37.843005" lon="-122.478300"><ele>48.3</ele></trkpt><trkpt lat="37.842951" lon="-122.478285"><ele>48.6</ele></trkpt><trkpt lat="37.842894" lon="-122.478267"><ele>48.9</ele></trkpt><trkpt lat="37.842828" lon="-122.478246"><ele>49.2</ele></trkpt><trkpt lat="37.842747" lon="-122.478216"><ele>49.6</ele></trkpt><trkpt lat="37.842671" lon="-122.478183"><ele>50.0</ele></trkpt><trkpt lat="37.842523" lon="-122.478111"><ele>51.7</ele></trkpt><trkpt lat="37.842272" lon="-122.477984"><ele>54.8</ele></trkpt><trkpt lat="37.841851" lon="-122.477777"><ele>61.1</ele></trkpt><trkpt lat="37.841742" lon="-122.477720"><ele>63.4</ele></trkpt><trkpt lat="37.841667" lon="-122.477684"><ele>65.0</ele></trkpt><trkpt lat="37.841602" lon="-122.477657"><ele>66.4</ele></trkpt><trkpt lat="37.841538" lon="-122.477633"><ele>67.7</ele></trkpt><trkpt lat="37.841478" lon="-122.477616"><ele>68.9</ele></trkpt><trkpt lat="37.841403" lon="-122.477601"><ele>70.4</ele></trkpt><trkpt lat="37.841324" lon="-122.477590"><ele>71.9</ele></trkpt><trkpt lat="37.841261" lon="-122.477584"><ele>73.0</ele></trkpt><trkpt lat="37.841196" lon="-122.477581"><ele>73.8</ele></trkpt><trkpt lat="37.841142" lon="-122.477583"><ele>74.5</ele></trkpt><trkpt lat="37.841079" lon="-122.477589"><ele>75.4</ele></trkpt><trkpt lat="37.841006" lon="-122.477599"><ele>76.4</ele></trkpt><trkpt lat="37.840937" lon="-122.477616"><ele>77.3</ele></trkpt><trkpt lat="37.840878" lon="-122.477632"><ele>78.1</ele></trkpt><trkpt lat="37.840816" lon="-122.477655"><ele>78.9</ele></trkpt><trkpt lat="37.840690" lon="-122.477710"><ele>80.7</ele></trkpt><trkpt lat="37.840628" lon="-122.477743"><ele>81.6</ele></trkpt><trkpt lat="37.840554" lon="-122.477789"><ele>81.7</ele></trkpt><trkpt lat="37.840486" lon="-122.477839"><ele>81.3</ele></trkpt><trkpt lat="37.840434" lon="-122.477883"><ele>80.9</ele></trkpt><trkpt lat="37.840358" lon="-122.477954"><ele>80.4</ele></trkpt><trkpt lat="37.840294" lon="-122.478027"><ele>79.9</ele></trkpt><trkpt lat="37.840243" lon="-122.478088"><ele>79.6</ele></trkpt><trkpt lat="37.840194" lon="-122.478152"><ele>79.2</ele></trkpt><trkpt lat="37.840139" lon="-122.478234"><ele>78.7</ele></trkpt><trkpt lat="37.840079" lon="-122.478338"><ele>78.2</ele></trkpt><trkpt lat="37.840037" lon="-122.478422"><ele>77.6</ele></trkpt><trkpt lat="37.840003" lon="-122.478500"><ele>77.1</ele></trkpt><trkpt lat="37.839957" lon="-122.478615"><ele>76.3</ele></trkpt><trkpt lat="37.839917" lon="-122.478748"><ele>75.5</ele></trkpt><trkpt lat="37.839881" lon="-122.478905"><ele>74.5</ele></trkpt><trkpt lat="37.839857" lon="-122.479062"><ele>73.5</ele></trkpt><trkpt lat="37.839846" lon="-122.479203"><ele>72.7</ele></trkpt><trkpt lat="37.839849" lon="-122.479372"><ele>71.9</ele></trkpt><trkpt lat="37.839853" lon="-122.479523"><ele>71.1</ele></trkpt><trkpt lat="37.839891" lon="-122.480559"><ele>68.4</ele></trkpt><trkpt lat="37.839905" lon="-122.480839"><ele>68.5</ele></trkpt><trkpt lat="37.839910" lon="-122.481031"><ele>68.6</ele></trkpt><trkpt lat="37.839905" lon="-122.481224"><ele>67.6</ele></trkpt><trkpt lat="37.839887" lon="-122.481413"><ele>66.6</ele></trkpt><trkpt lat="37.839854" lon="-122.481592"><ele>65.6</ele></trkpt><trkpt lat="37.839804" lon="-122.481779"><ele>64.5</ele></trkpt><trkpt lat="37.839735" lon="-122.481961"><ele>63.3</ele></trkpt><trkpt lat="37.839660" lon="-122.482121"><ele>61.6</ele></trkpt><trkpt lat="37.839588" lon="-122.482256"><ele>60.1</ele></trkpt><trkpt lat="37.839500" lon="-122.482397"><ele>58.5</ele></trkpt><trkpt lat="37.839399" lon="-122.482526"><ele>56.9</ele></trkpt><trkpt lat="37.839290" lon="-122.482642"><ele>55.5</ele></trkpt><trkpt lat="37.839177" lon="-122.482749"><ele>55.6</ele></trkpt><trkpt lat="37.839061" lon="-122.482842"><ele>55.7</ele></trkpt><trkpt lat="37.838998" lon="-122.482882"><ele>55.8</ele></trkpt><trkpt lat="37.838925" lon="-122.482922"><ele>55.9</ele></trkpt><trkpt lat="37.838865" lon="-122.482951"><ele>55.9</ele></trkpt><trkpt lat="37.838800" lon="-122.482979"><ele>56.0</ele></trkpt><trkpt lat="37.838736" lon="-122.483002"><ele>56.0</ele></trkpt><trkpt lat="37.838669" lon="-122.483022"><ele>56.1</ele></trkpt><trkpt lat="37.838606" lon="-122.483037"><ele>56.6</ele></trkpt><trkpt lat="37.838540" lon="-122.483051"><ele>57.2</ele></trkpt><trkpt lat="37.838485" lon="-122.483057"><ele>57.6</ele></trkpt><trkpt lat="37.838421" lon="-122.483063"><ele>58.2</ele></trkpt><trkpt lat="37.838360" lon="-122.483065"><ele>58.7</ele></trkpt><trkpt lat="37.838295" lon="-122.483063"><ele>59.2</ele></trkpt><trkpt lat="37.838074" lon="-122.483053"><ele>61.1</ele></trkpt><trkpt lat="37.837988" lon="-122.483048"><ele>61.8</ele></trkpt><trkpt lat="37.837865" lon="-122.483038"><ele>63.4</ele></trkpt><trkpt lat="37.837775" lon="-122.483030"><ele>64.8</ele></trkpt><trkpt lat="37.837449" lon="-122.483002"><ele>69.9</ele></trkpt><trkpt lat="37.837380" lon="-122.482995"><ele>70.9</ele></trkpt><trkpt lat="37.837245" lon="-122.482993"><ele>73.0</ele></trkpt><trkpt lat="37.837170" lon="-122.482999"><ele>73.8</ele></trkpt><trkpt lat="37.837080" lon="-122.483017"><ele>74.6</ele></trkpt><trkpt lat="37.836929" lon="-122.483065"><ele>75.8</ele></trkpt><trkpt lat="37.836851" lon="-122.483102"><ele>76.5</ele></trkpt><trkpt lat="37.836788" lon="-122.483137"><ele>77.1</ele></trkpt><trkpt lat="37.836736" lon="-122.483170"><ele>77.6</ele></trkpt><trkpt lat="37.836678" lon="-122.483205"><ele>78.1</ele></trkpt><trkpt lat="37.836627" lon="-122.483238"><ele>78.5</ele></trkpt><trkpt lat="37.836574" lon="-122.483275"><ele>79.0</ele></trkpt><trkpt lat="37.836524" lon="-122.483313"><ele>79.4</ele></trkpt><trkpt lat="37.836486" lon="-122.483343"><ele>79.6</ele></trkpt><trkpt lat="37.836444" lon="-122.483380"><ele>79.8</ele></trkpt><trkpt lat="37.836403" lon="-122.483420"><ele>80.1</ele></trkpt><trkpt lat="37.836365" lon="-122.483460"><ele>80.3</ele></trkpt><trkpt lat="37.836322" lon="-122.483510"><ele>80.6</ele></trkpt><trkpt lat="37.836286" lon="-122.483554"><ele>80.8</ele></trkpt><trkpt lat="37.836250" lon="-122.483605"><ele>81.1</ele></trkpt><trkpt lat="37.836213" lon="-122.483661"><ele>81.3</ele></trkpt><trkpt lat="37.836176" lon="-122.483727"><ele>81.6</ele></trkpt><trkpt lat="37.836079" lon="-122.483904"><ele>82.4</ele></trkpt><trkpt lat="37.836070" lon="-122.483921"><ele>82.5</ele></trkpt><trkpt lat="37.836040" lon="-122.483978"><ele>82.6</ele></trkpt><trkpt lat="37.835990" lon="-122.484075"><ele>82.7</ele></trkpt><trkpt lat="37.835900" lon="-122.484254"><ele>82.7</ele></trkpt><trkpt lat="37.835818" lon="-122.484411"><ele>82.8</ele></trkpt><trkpt lat="37.835758" lon="-122.484526"><ele>82.8</ele></trkpt><trkpt lat="37.835731" lon="-122.484573"><ele>82.8</ele></trkpt><trkpt lat="37.835704" lon="-122.484617"><ele>82.9</ele></trkpt><trkpt lat="37.835678" lon="-122.484656"><ele>82.9</ele></trkpt><trkpt lat="37.835651" lon="-122.484693"><ele>82.9</ele></trkpt><trkpt lat="37.835625" lon="-122.484726"><ele>82.9</ele></trkpt><trkpt lat="37.835600" lon="-122.484757"><ele>83.0</ele></trkpt><trkpt lat="37.835577" lon="-122.484784"><ele>83.0</ele></trkpt><trkpt lat="37.835550" lon="-122.484812"><ele>83.0</ele></trkpt><trkpt lat="37.835526" lon="-122.484836"><ele>83.0</ele></trkpt><trkpt lat="37.835501" lon="-122.484859"><ele>83.1</ele></trkpt><trkpt lat="37.835466" lon="-122.484886"><ele>83.1</ele></trkpt><trkpt lat="37.835430" lon="-122.484911"><ele>83.1</ele></trkpt><trkpt lat="37.835390" lon="-122.484935"><ele>83.2</ele></trkpt><trkpt lat="37.835344" lon="-122.484958"><ele>83.2</ele></trkpt><trkpt lat="37.835296" lon="-122.484977"><ele>83.3</ele></trkpt><trkpt lat="37.835243" lon="-122.484992"><ele>83.3</ele></trkpt><trkpt lat="37.835189" lon="-122.485003"><ele>83.3</ele></trkpt><trkpt lat="37.835154" lon="-122.485007"><ele>83.4</ele></trkpt><trkpt lat="37.835118" lon="-122.485010"><ele>83.4</ele></trkpt><trkpt lat="37.835084" lon="-122.485012"><ele>83.4</ele></trkpt><trkpt lat="37.835054" lon="-122.485013"><ele>83.5</ele></trkpt><trkpt lat="37.835024" lon="-122.485013"><ele>83.5</ele></trkpt><trkpt lat="37.834996" lon="-122.485011"><ele>83.5</ele></trkpt><trkpt lat="37.834969" lon="-122.485008"><ele>83.5</ele></trkpt><trkpt lat="37.834941" lon="-122.485004"><ele>83.5</ele></trkpt><trkpt lat="37.834910" lon="-122.484997"><ele>83.4</ele></trkpt><trkpt lat="37.834880" lon="-122.484990"><ele>83.4</ele></trkpt><trkpt lat="37.834853" lon="-122.484981"><ele>83.4</ele></trkpt><trkpt lat="37.834826" lon="-122.484972"><ele>83.4</ele></trkpt><trkpt lat="37.834797" lon="-122.484960"><ele>83.3</ele></trkpt><trkpt lat="37.834769" lon="-122.484947"><ele>83.3</ele></trkpt><trkpt lat="37.834739" lon="-122.484933"><ele>83.3</ele></trkpt><trkpt lat="37.834712" lon="-122.484918"><ele>83.3</ele></trkpt><trkpt lat="37.834685" lon="-122.484902"><ele>83.2</ele></trkpt><trkpt lat="37.834655" lon="-122.484882"><ele>83.2</ele></trkpt><trkpt lat="37.834628" lon="-122.484863"><ele>83.2</ele></trkpt><trkpt lat="37.834597" lon="-122.484838"><ele>83.2</ele></trkpt><trkpt lat="37.834571" lon="-122.484815"><ele>83.1</ele></trkpt><trkpt lat="37.834544" lon="-122.484790"><ele>83.1</ele></trkpt><trkpt lat="37.834519" lon="-122.484763"><ele>83.1</ele></trkpt><trkpt lat="37.834492" lon="-122.484732"><ele>83.0</ele></trkpt><trkpt lat="37.834469" lon="-122.484701"><ele>83.0</ele></trkpt><trkpt lat="37.834444" lon="-122.484669"><ele>83.0</ele></trkpt><trkpt lat="37.834424" lon="-122.484640"><ele>83.0</ele></trkpt><trkpt lat="37.834378" lon="-122.484563"><ele>82.9</ele></trkpt><trkpt lat="37.834327" lon="-122.484477"><ele>83.0</ele></trkpt><trkpt lat="37.834273" lon="-122.484377"><ele>83.1</ele></trkpt><trkpt lat="37.834243" lon="-122.484322"><ele>83.1</ele></trkpt><trkpt lat="37.834212" lon="-122.484268"><ele>83.2</ele></trkpt><trkpt lat="37.834175" lon="-122.484209"><ele>83.2</ele></trkpt><trkpt lat="37.834135" lon="-122.484148"><ele>83.3</ele></trkpt><trkpt lat="37.834101" lon="-122.484098"><ele>83.3</ele></trkpt><trkpt lat="37.833962" lon="-122.483899"><ele>83.5</ele></trkpt><trkpt lat="37.833904" lon="-122.483815"><ele>83.5</ele></trkpt><trkpt lat="37.833845" lon="-122.483726"><ele>83.4</ele></trkpt><trkpt lat="37.833785" lon="-122.483633"><ele>83.3</ele></trkpt><trkpt lat="37.833734" lon="-122.483682"><ele>83.3</ele></trkpt><trkpt lat="37.833707" lon="-122.483705"><ele>83.2</ele></trkpt><trkpt lat="37.833693" lon="-122.483716"><ele>83.2</ele></trkpt><trkpt lat="37.833679" lon="-122.483725"><ele>83.2</ele></trkpt><trkpt lat="37.833666" lon="-122.483732"><ele>83.2</ele></trkpt><trkpt lat="37.833650" lon="-122.483739"><ele>83.2</ele></trkpt><trkpt lat="37.833634" lon="-122.483744"><ele>83.2</ele></trkpt><trkpt lat="37.833620" lon="-122.483747"><ele>83.2</ele></trkpt><trkpt lat="37.833603" lon="-122.483747"><ele>83.1</ele></trkpt><trkpt lat="37.833590" lon="-122.483747"><ele>83.1</ele></trkpt><trkpt lat="37.833575" lon="-122.483743"><ele>83.1</ele></trkpt><trkpt lat="37.833559" lon="-122.483738"><ele>83.1</ele></trkpt><trkpt lat="37.833544" lon="-122.483731"><ele>83.1</ele></trkpt><trkpt lat="37.833529" lon="-122.483721"><ele>83.1</ele></trkpt><trkpt lat="37.833514" lon="-122.483710"><ele>83.1</ele></trkpt><trkpt lat="37.833502" lon="-122.483701"><ele>83.1</ele></trkpt><trkpt lat="37.833438" lon="-122.483647"><ele>83.0</ele></trkpt><trkpt lat="37.833303" lon="-122.483536"><ele>82.7</ele></trkpt><trkpt lat="37.833271" lon="-122.483511"><ele>82.6</ele></trkpt><trkpt lat="37.833237" lon="-122.483488"><ele>82.5</ele></trkpt><trkpt lat="37.833232" lon="-122.483427"><ele>82.3</ele></trkpt><trkpt lat="37.833214" lon="-122.483315"><ele>82.1</ele></trkpt><trkpt lat="37.833205" lon="-122.483274"><ele>82.0</ele></trkpt><trkpt lat="37.833197" lon="-122.483241"><ele>81.9</ele></trkpt><trkpt lat="37.833182" lon="-122.483202"><ele>81.8</ele></trkpt><trkpt lat="37.833164" lon="-122.483167"><ele>81.7</ele></trkpt><trkpt lat="37.833146" lon="-122.483137"><ele>81.6</ele></trkpt><trkpt lat="37.833086" lon="-122.483044"><ele>81.3</ele></trkpt><trkpt lat="37.833066" lon="-122.483009"><ele>81.2</ele></trkpt><trkpt lat="37.833045" lon="-122.482970"><ele>81.1</ele></trkpt><trkpt lat="37.833025" lon="-122.482926"><ele>81.0</ele></trkpt><trkpt lat="37.833008" lon="-122.482883"><ele>80.9</ele></trkpt><trkpt lat="37.832992" lon="-122.482835"><ele>80.7</ele></trkpt><trkpt lat="37.832980" lon="-122.482779"><ele>80.4</ele></trkpt><trkpt lat="37.832929" lon="-122.482554"><ele>79.2</ele></trkpt><trkpt lat="37.832918" lon="-122.482509"><ele>79.0</ele></trkpt><trkpt lat="37.832907" lon="-122.482470"><ele>78.8</ele></trkpt><trkpt lat="37.832895" lon="-122.482437"><ele>78.6</ele></trkpt><trkpt lat="37.832882" lon="-122.482403"><ele>78.4</ele></trkpt><trkpt lat="37.832867" lon="-122.482372"><ele>78.2</ele></trkpt><trkpt lat="37.832852" lon="-122.482344"><ele>78.1</ele></trkpt><trkpt lat="37.832836" lon="-122.482317"><ele>77.9</ele></trkpt><trkpt lat="37.832796" lon="-122.482158"><ele>77.1</ele></trkpt><trkpt lat="37.832706" lon="-122.481994"><ele>76.1</ele></trkpt><trkpt lat="37.832473" lon="-122.481568"><ele>74.2</ele></trkpt><trkpt lat="37.832483" lon="-122.481526"><ele>74.1</ele></trkpt><trkpt lat="37.832487" lon="-122.481482"><ele>73.9</ele></trkpt><trkpt lat="37.832486" lon="-122.481436"><ele>73.7</ele></trkpt><trkpt lat="37.832480" lon="-122.481389"><ele>73.5</ele></trkpt><trkpt lat="37.832472" lon="-122.481344"><ele>73.4</ele></trkpt><trkpt lat="37.832462" lon="-122.481304"><ele>73.2</ele></trkpt><trkpt lat="37.832450" lon="-122.481263"><ele>73.1</ele></trkpt><trkpt lat="37.832437" lon="-122.481229"><ele>72.9</ele></trkpt><trkpt lat="37.832421" lon="-122.481194"><ele>72.6</ele></trkpt><trkpt lat="37.832401" lon="-122.481155"><ele>72.0</ele></trkpt><trkpt lat="37.832380" lon="-122.481119"><ele>71.4</ele></trkpt><trkpt lat="37.832255" lon="-122.480952"><ele>68.4</ele></trkpt><trkpt lat="37.832135" lon="-122.480819"><ele>65.8</ele></trkpt><trkpt lat="37.832013" lon="-122.480696"><ele>63.3</ele></trkpt><trkpt lat="37.831910" lon="-122.480601"><ele>61.2</ele></trkpt><trkpt lat="37.831796" lon="-122.480505"><ele>58.1</ele></trkpt><trkpt lat="37.831691" lon="-122.480424"><ele>55.2</ele></trkpt><trkpt lat="37.831559" lon="-122.480334"><ele>51.6</ele></trkpt><trkpt lat="37.831445" lon="-122.480265"><ele>48.7</ele></trkpt><trkpt lat="37.831329" lon="-122.480202"><ele>45.7</ele></trkpt><trkpt lat="37.831210" lon="-122.480146"><ele>42.8</ele></trkpt><trkpt lat="37.831086" lon="-122.480092"><ele>39.9</ele></trkpt><trkpt lat="37.830965" lon="-122.480051"><ele>37.1</ele></trkpt><trkpt lat="37.830832" lon="-122.480017"><ele>34.1</ele></trkpt><trkpt lat="37.830706" lon="-122.479988"><ele>31.3</ele></trkpt><trkpt lat="37.830581" lon="-122.479968"><ele>28.5</ele></trkpt><trkpt lat="37.830423" lon="-122.479947"><ele>28.7</ele></trkpt><trkpt lat="37.830275" lon="-122.479929"><ele>29.4</ele></trkpt><trkpt lat="37.828906" lon="-122.479769"><ele>45.3</ele></trkpt><trkpt lat="37.825577" lon="-122.479375"><ele>16.1</ele></trkpt><trkpt lat="37.825572" lon="-122.479413"><ele>15.2</ele></trkpt><trkpt lat="37.825558" lon="-122.479430"><ele>14.6</ele></trkpt><trkpt lat="37.825516" lon="-122.479448"><ele>13.6</ele></trkpt><trkpt lat="37.825489" lon="-122.479452"><ele>13.1</ele></trkpt><trkpt lat="37.825463" lon="-122.479447"><ele>12.6</ele></trkpt><trkpt lat="37.825434" lon="-122.479433"><ele>12.0</ele></trkpt><trkpt lat="37.825405" lon="-122.479401"><ele>11.2</ele></trkpt><trkpt lat="37.825406" lon="-122.479354"><ele>10.5</ele></trkpt><trkpt lat="37.814079" lon="-122.478034"><ele>0.0</ele></trkpt><trkpt lat="37.814076" lon="-122.478060"><ele>0.0</ele></trkpt><trkpt lat="37.814067" lon="-122.478085"><ele>0.0</ele></trkpt><trkpt lat="37.814041" lon="-122.478109"><ele>0.0</ele></trkpt><trkpt lat="37.814010" lon="-122.478113"><ele>0.0</ele></trkpt><trkpt lat="37.813984" lon="-122.478108"><ele>0.0</ele></trkpt><trkpt lat="37.813949" lon="-122.478090"><ele>0.0</ele></trkpt><trkpt lat="37.813918" lon="-122.478058"><ele>0.0</ele></trkpt><trkpt lat="37.813922" lon="-122.478018"><ele>0.0</ele></trkpt><trkpt lat="37.809632" lon="-122.477514"><ele>5.0</ele></trkpt><trkpt lat="37.809522" lon="-122.477497"><ele>5.7</ele></trkpt><trkpt lat="37.809410" lon="-122.477474"><ele>6.3</ele></trkpt><trkpt lat="37.809296" lon="-122.477446"><ele>6.9</ele></trkpt><trkpt lat="37.809191" lon="-122.477412"><ele>7.5</ele></trkpt><trkpt lat="37.809082" lon="-122.477373"><ele>8.5</ele></trkpt><trkpt lat="37.808963" lon="-122.477319"><ele>10.1</ele></trkpt><trkpt lat="37.808834" lon="-122.477254"><ele>11.8</ele></trkpt><trkpt lat="37.808715" lon="-122.477188"><ele>13.4</ele></trkpt><trkpt lat="37.808595" lon="-122.477111"><ele>15.1</ele></trkpt><trkpt lat="37.808484" lon="-122.477031"><ele>16.7</ele></trkpt><trkpt lat="37.808374" lon="-122.476944"><ele>18.9</ele></trkpt><trkpt lat="37.808009" lon="-122.476654"><ele>26.5</ele></trkpt><trkpt lat="37.807967" lon="-122.476622"><ele>27.4</ele></trkpt><trkpt lat="37.807929" lon="-122.476699"><ele>28.6</ele></trkpt><trkpt lat="37.807915" lon="-122.476730"><ele>29.1</ele></trkpt><trkpt lat="37.807896" lon="-122.476762"><ele>29.7</ele></trkpt><trkpt lat="37.807874" lon="-122.476784"><ele>30.0</ele></trkpt><trkpt lat="37.807809" lon="-122.476839"><ele>30.5</ele></trkpt><trkpt lat="37.807797" lon="-122.476858"><ele>30.6</ele></trkpt><trkpt lat="37.807793" lon="-122.476880"><ele>30.7</ele></trkpt><trkpt lat="37.807796" lon="-122.476902"><ele>30.8</ele></trkpt><trkpt lat="37.807809" lon="-122.476931"><ele>31.0</ele></trkpt><trkpt lat="37.807830" lon="-122.476954"><ele>31.2</ele></trkpt><trkpt lat="37.807854" lon="-122.476970"><ele>31.4</ele></trkpt><trkpt lat="37.807883" lon="-122.476981"><ele>31.6</ele></trkpt><trkpt lat="37.807915" lon="-122.476986"><ele>31.8</ele></trkpt><trkpt lat="37.807948" lon="-122.476981"><ele>32.0</ele></trkpt><trkpt lat="37.807979" lon="-122.476965"><ele>32.2</ele></trkpt><trkpt lat="37.808009" lon="-122.476942"><ele>32.4</ele></trkpt><trkpt lat="37.808041" lon="-122.476905"><ele>32.7</ele></trkpt><trkpt lat="37.808067" lon="-122.476863"><ele>33.0</ele></trkpt><trkpt lat="37.808088" lon="-122.476814"><ele>33.2</ele></trkpt><trkpt lat="37.808112" lon="-122.476755"><ele>33.6</ele></trkpt><trkpt lat="37.808138" lon="-122.476702"><ele>33.9</ele></trkpt><trkpt lat="37.808169" lon="-122.476646"><ele>34.3</ele></trkpt><trkpt lat="37.808201" lon="-122.476591"><ele>34.7</ele></trkpt><trkpt lat="37.808266" lon="-122.476494"><ele>35.8</ele></trkpt><trkpt lat="37.808352" lon="-122.476346"><ele>37.3</ele></trkpt><trkpt lat="37.808379" lon="-122.476295"><ele>37.8</ele></trkpt><trkpt lat="37.808411" lon="-122.476245"><ele>38.3</ele></trkpt><trkpt lat="37.808526" lon="-122.476070"><ele>40.2</ele></trkpt><trkpt lat="37.808557" lon="-122.476018"><ele>40.8</ele></trkpt><trkpt lat="37.808583" lon="-122.475968"><ele>41.3</ele></trkpt><trkpt lat="37.808602" lon="-122.475922"><ele>41.7</ele></trkpt><trkpt lat="37.808618" lon="-122.475872"><ele>42.1</ele></trkpt><trkpt lat="37.808629" lon="-122.475833"><ele>42.0</ele></trkpt><trkpt lat="37.808637" lon="-122.475794"><ele>42.0</ele></trkpt><trkpt lat="37.808641" lon="-122.475753"><ele>42.0</ele></trkpt><trkpt lat="37.808642" lon="-122.475711"><ele>42.0</ele></trkpt><trkpt lat="37.808641" lon="-122.475668"><ele>42.0</ele></trkpt><trkpt lat="37.808637" lon="-122.475632"><ele>42.0</ele></trkpt><trkpt lat="37.808637" lon="-122.475626"><ele>42.0</ele></trkpt><trkpt lat="37.808628" lon="-122.475586"><ele>42.0</ele></trkpt><trkpt lat="37.808617" lon="-122.475546"><ele>41.9</ele></trkpt><trkpt lat="37.808609" lon="-122.475527"><ele>41.9</ele></trkpt><trkpt lat="37.808603" lon="-122.475510"><ele>41.9</ele></trkpt><trkpt lat="37.808585" lon="-122.475473"><ele>41.9</ele></trkpt><trkpt lat="37.808564" lon="-122.475439"><ele>41.9</ele></trkpt><trkpt lat="37.808540" lon="-122.475408"><ele>41.9</ele></trkpt><trkpt lat="37.808515" lon="-122.475381"><ele>41.9</ele></trkpt><trkpt lat="37.808488" lon="-122.475359"><ele>41.9</ele></trkpt><trkpt lat="37.808463" lon="-122.475344"><ele>41.9</ele></trkpt><trkpt lat="37.808431" lon="-122.475326"><ele>41.8</ele></trkpt><trkpt lat="37.808392" lon="-122.475315"><ele>41.8</ele></trkpt><trkpt lat="37.808364" lon="-122.475305"><ele>41.8</ele></trkpt><trkpt lat="37.808320" lon="-122.475282"><ele>41.8</ele></trkpt><trkpt lat="37.808290" lon="-122.475261"><ele>41.8</ele></trkpt><trkpt lat="37.808256" lon="-122.475231"><ele>41.8</ele></trkpt><trkpt lat="37.808226" lon="-122.475191"><ele>42.1</ele></trkpt><trkpt lat="37.808160" lon="-122.475270"><ele>42.8</ele></trkpt><trkpt lat="37.808137" lon="-122.475291"><ele>43.1</ele></trkpt><trkpt lat="37.808109" lon="-122.475306"><ele>43.3</ele></trkpt><trkpt lat="37.808077" lon="-122.475314"><ele>43.6</ele></trkpt><trkpt lat="37.808046" lon="-122.475312"><ele>43.8</ele></trkpt><trkpt lat="37.808013" lon="-122.475297"><ele>44.1</ele></trkpt><trkpt lat="37.807982" lon="-122.475271"><ele>44.4</ele></trkpt><trkpt lat="37.807787" lon="-122.475063"><ele>46.4</ele></trkpt><trkpt lat="37.807763" lon="-122.475037"><ele>46.7</ele></trkpt><trkpt lat="37.807801" lon="-122.475002"><ele>47.0</ele></trkpt><trkpt lat="37.807763" lon="-122.475037"><ele>47.4</ele></trkpt><trkpt lat="37.807728" lon="-122.475028"><ele>47.5</ele></trkpt><trkpt lat="37.807633" lon="-122.474928"><ele>47.4</ele></trkpt><trkpt lat="37.807601" lon="-122.474975"><ele>47.3</ele></trkpt><trkpt lat="37.807593" lon="-122.474966"><ele>47.3</ele></trkpt><trkpt lat="37.807584" lon="-122.474958"><ele>47.3</ele></trkpt><trkpt lat="37.807580" lon="-122.474953"><ele>47.3</ele></trkpt><trkpt lat="37.807563" lon="-122.474936"><ele>47.2</ele></trkpt><trkpt lat="37.807531" lon="-122.474902"><ele>47.2</ele></trkpt><trkpt lat="37.807566" lon="-122.474844"><ele>47.1</ele></trkpt><trkpt lat="37.807596" lon="-122.474798"><ele>47.0</ele></trkpt><trkpt lat="37.807619" lon="-122.474765"><ele>47.0</ele></trkpt><trkpt lat="37.807624" lon="-122.474718"><ele>47.0</ele></trkpt><trkpt lat="37.807624" lon="-122.474622"><ele>46.9</ele></trkpt><trkpt lat="37.807618" lon="-122.474564"><ele>46.8</ele></trkpt><trkpt lat="37.807602" lon="-122.474498"><ele>46.7</ele></trkpt><trkpt lat="37.807573" lon="-122.474446"><ele>46.7</ele></trkpt><trkpt lat="37.807540" lon="-122.474402"><ele>46.5</ele></trkpt><trkpt lat="37.807308" lon="-122.474162"><ele>45.0</ele></trkpt><trkpt lat="37.807209" lon="-122.474060"><ele>44.4</ele></trkpt><trkpt lat="37.807189" lon="-122.474040"><ele>44.2</ele></trkpt><trkpt lat="37.807149" lon="-122.473979"><ele>43.9</ele></trkpt><trkpt lat="37.806954" lon="-122.473762"><ele>42.8</ele></trkpt><trkpt lat="37.806899" lon="-122.473702"><ele>42.6</ele></trkpt><trkpt lat="37.806770" lon="-122.473542"><ele>42.2</ele></trkpt><trkpt lat="37.806710" lon="-122.473451"><ele>41.9</ele></trkpt><trkpt lat="37.806727" lon="-122.473386"><ele>41.8</ele></trkpt><trkpt lat="37.806787" lon="-122.473161"><ele>41.3</ele></trkpt><trkpt lat="37.806853" lon="-122.472936"><ele>40.6</ele></trkpt><trkpt lat="37.806892" lon="-122.472784"><ele>40.1</ele></trkpt><trkpt lat="37.806910" lon="-122.472669"><ele>39.7</ele></trkpt><trkpt lat="37.806920" lon="-122.472573"><ele>39.3</ele></trkpt><trkpt lat="37.806922" lon="-122.472487"><ele>39.0</ele></trkpt><trkpt lat="37.806912" lon="-122.472399"><ele>38.7</ele></trkpt><trkpt lat="37.806889" lon="-122.472317"><ele>38.4</ele></trkpt><trkpt lat="37.806856" lon="-122.472226"><ele>38.1</ele></trkpt><trkpt lat="37.806815" lon="-122.472139"><ele>37.7</ele></trkpt><trkpt lat="37.806770" lon="-122.472062"><ele>37.2</ele></trkpt><trkpt lat="37.806666" lon="-122.471893"><ele>36.3</ele></trkpt><trkpt lat="37.806642" lon="-122.471854"><ele>36.1</ele></trkpt><trkpt lat="37.806607" lon="-122.471798"><ele>35.8</ele></trkpt><trkpt lat="37.806597" lon="-122.471783"><ele>35.7</ele></trkpt><trkpt lat="37.806548" lon="-122.471704"><ele>35.3</ele></trkpt><trkpt lat="37.806498" lon="-122.471623"><ele>34.8</ele></trkpt><trkpt lat="37.806444" lon="-122.471530"><ele>34.3</ele></trkpt><trkpt lat="37.806396" lon="-122.471440"><ele>34.0</ele></trkpt><trkpt lat="37.806362" lon="-122.471365"><ele>33.8</ele></trkpt><trkpt lat="37.806329" lon="-122.471285"><ele>33.6</ele></trkpt><trkpt lat="37.806298" lon="-122.471196"><ele>33.4</ele></trkpt><trkpt lat="37.806270" lon="-122.471112"><ele>33.1</ele></trkpt><trkpt lat="37.806134" lon="-122.470674"><ele>32.0</ele></trkpt><trkpt lat="37.806100" lon="-122.470565"><ele>31.8</ele></trkpt><trkpt lat="37.806064" lon="-122.470460"><ele>31.6</ele></trkpt><trkpt lat="37.806037" lon="-122.470387"><ele>31.5</ele></trkpt><trkpt lat="37.805989" lon="-122.470282"><ele>31.3</ele></trkpt><trkpt lat="37.805947" lon="-122.470204"><ele>31.2</ele></trkpt><trkpt lat="37.805913" lon="-122.470157"><ele>31.0</ele></trkpt><trkpt lat="37.805867" lon="-122.470106"><ele>30.9</ele></trkpt><trkpt lat="37.805794" lon="-122.470045"><ele>30.7</ele></trkpt><trkpt lat="37.805726" lon="-122.470002"><ele>30.6</ele></trkpt><trkpt lat="37.805661" lon="-122.469969"><ele>30.5</ele></trkpt><trkpt lat="37.805593" lon="-122.469941"><ele>30.7</ele></trkpt><trkpt lat="37.805515" lon="-122.469917"><ele>30.9</ele></trkpt><trkpt lat="37.805438" lon="-122.469902"><ele>31.1</ele></trkpt><trkpt lat="37.805347" lon="-122.469890"><ele>31.4</ele></trkpt><trkpt lat="37.805261" lon="-122.469885"><ele>31.6</ele></trkpt><trkpt lat="37.805173" lon="-122.469885"><ele>31.8</ele></trkpt><trkpt lat="37.805084" lon="-122.469895"><ele>32.0</ele></trkpt><trkpt lat="37.804994" lon="-122.469919"><ele>32.3</ele></trkpt><trkpt lat="37.804903" lon="-122.469955"><ele>31.9</ele></trkpt><trkpt lat="37.804894" lon="-122.469927"><ele>31.7</ele></trkpt><trkpt lat="37.804882" lon="-122.469900"><ele>31.6</ele></trkpt><trkpt lat="37.804872" lon="-122.469881"><ele>31.5</ele></trkpt><trkpt lat="37.804860" lon="-122.469869"><ele>31.4</ele></trkpt><trkpt lat="37.804848" lon="-122.469858"><ele>31.3</ele></trkpt><trkpt lat="37.804830" lon="-122.469846"><ele>31.2</ele></trkpt><trkpt lat="37.804795" lon="-122.469835"><ele>31.0</ele></trkpt><trkpt lat="37.804750" lon="-122.469820"><ele>30.8</ele></trkpt><trkpt lat="37.804699" lon="-122.469799"><ele>30.5</ele></trkpt><trkpt lat="37.804647" lon="-122.469770"><ele>30.2</ele></trkpt><trkpt lat="37.804602" lon="-122.469736"><ele>29.9</ele></trkpt><trkpt lat="37.804558" lon="-122.469695"><ele>29.6</ele></trkpt><trkpt lat="37.804519" lon="-122.469645"><ele>29.3</ele></trkpt><trkpt lat="37.804481" lon="-122.469588"><ele>29.0</ele></trkpt><trkpt lat="37.804446" lon="-122.469522"><ele>28.6</ele></trkpt><trkpt lat="37.804413" lon="-122.469458"><ele>28.2</ele></trkpt><trkpt lat="37.804344" lon="-122.469317"><ele>26.5</ele></trkpt><trkpt lat="37.804311" lon="-122.469254"><ele>25.7</ele></trkpt><trkpt lat="37.804274" lon="-122.469198"><ele>25.0</ele></trkpt><trkpt lat="37.804236" lon="-122.469153"><ele>24.3</ele></trkpt><trkpt lat="37.804190" lon="-122.469106"><ele>23.5</ele></trkpt><trkpt lat="37.803860" lon="-122.468802"><ele>18.2</ele></trkpt><trkpt lat="37.803819" lon="-122.468765"><ele>17.5</ele></trkpt><trkpt lat="37.803785" lon="-122.468726"><ele>16.9</ele></trkpt><trkpt lat="37.803754" lon="-122.468682"><ele>16.2</ele></trkpt><trkpt lat="37.803728" lon="-122.468632"><ele>15.6</ele></trkpt><trkpt lat="37.803706" lon="-122.468568"><ele>14.8</ele></trkpt><trkpt lat="37.803654" lon="-122.468401"><ele>12.9</ele></trkpt><trkpt lat="37.803622" lon="-122.468306"><ele>11.7</ele></trkpt><trkpt lat="37.803547" lon="-122.468087"><ele>9.1</ele></trkpt><trkpt lat="37.803530" lon="-122.468022"><ele>8.7</ele></trkpt><trkpt lat="37.803524" lon="-122.467954"><ele>8.3</ele></trkpt><trkpt lat="37.803527" lon="-122.467905"><ele>8.0</ele></trkpt><trkpt lat="37.803532" lon="-122.467861"><ele>7.7</ele></trkpt><trkpt lat="37.803541" lon="-122.467836"><ele>7.5</ele></trkpt><trkpt lat="37.803548" lon="-122.467814"><ele>7.4</ele></trkpt><trkpt lat="37.803565" lon="-122.467777"><ele>7.1</ele></trkpt><trkpt lat="37.803694" lon="-122.467577"><ele>5.5</ele></trkpt><trkpt lat="37.803707" lon="-122.467557"><ele>5.3</ele></trkpt><trkpt lat="37.803746" lon="-122.467498"><ele>4.8</ele></trkpt><trkpt lat="37.803772" lon="-122.467459"><ele>4.5</ele></trkpt><trkpt lat="37.803779" lon="-122.467447"><ele>4.4</ele></trkpt><trkpt lat="37.803740" lon="-122.467385"><ele>3.9</ele></trkpt><trkpt lat="37.803717" lon="-122.467348"><ele>3.6</ele></trkpt><trkpt lat="37.803704" lon="-122.467314"><ele>3.4</ele></trkpt><trkpt lat="37.803694" lon="-122.467280"><ele>3.3</ele></trkpt><trkpt lat="37.803687" lon="-122.467243"><ele>3.3</ele></trkpt><trkpt lat="37.803658" lon="-122.467064"><ele>3.2</ele></trkpt><trkpt lat="37.803579" lon="-122.466578"><ele>2.9</ele></trkpt><trkpt lat="37.803573" lon="-122.466527"><ele>2.8</ele></trkpt><trkpt lat="37.803572" lon="-122.466482"><ele>2.8</ele></trkpt><trkpt lat="37.803569" lon="-122.466433"><ele>2.8</ele></trkpt><trkpt lat="37.804128" lon="-122.463630"><ele>2.4</ele></trkpt><trkpt lat="37.804610" lon="-122.461202"><ele>1.5</ele></trkpt><trkpt lat="37.804652" lon="-122.460971"><ele>1.5</ele></trkpt><trkpt lat="37.804725" lon="-122.460505"><ele>1.5</ele></trkpt><trkpt lat="37.804812" lon="-122.459842"><ele>1.8</ele></trkpt><trkpt lat="37.804928" lon="-122.458952"><ele>1.7</ele></trkpt><trkpt lat="37.805008" lon="-122.458320"><ele>1.2</ele></trkpt><trkpt lat="37.805090" lon="-122.457671"><ele>1.2</ele></trkpt><trkpt lat="37.805132" lon="-122.457338"><ele>1.2</ele></trkpt><trkpt lat="37.805179" lon="-122.456972"><ele>1.2</ele></trkpt><trkpt lat="37.805247" lon="-122.456451"><ele>1.4</ele></trkpt><trkpt lat="37.805355" lon="-122.455621"><ele>2.0</ele></trkpt><trkpt lat="37.805488" lon="-122.454586"><ele>1.5</ele></trkpt><trkpt lat="37.805520" lon="-122.454353"><ele>1.5</ele></trkpt><trkpt lat="37.805558" lon="-122.454061"><ele>1.5</ele></trkpt><trkpt lat="37.805573" lon="-122.453947"><ele>1.5</ele></trkpt><trkpt lat="37.805613" lon="-122.453613"><ele>1.5</ele></trkpt><trkpt lat="37.805640" lon="-122.453345"><ele>1.5</ele></trkpt><trkpt lat="37.805675" lon="-122.453013"><ele>1.5</ele></trkpt><trkpt lat="37.805748" lon="-122.452453"><ele>1.3</ele></trkpt><trkpt lat="37.805784" lon="-122.452453"><ele>1.3</ele></trkpt><trkpt lat="37.805812" lon="-122.452243"><ele>1.2</ele></trkpt><trkpt lat="37.805846" lon="-122.451976"><ele>1.2</ele></trkpt><trkpt lat="37.805850" lon="-122.451947"><ele>1.2</ele></trkpt><trkpt lat="37.805879" lon="-122.451718"><ele>1.2</ele></trkpt><trkpt lat="37.805910" lon="-122.451468"><ele>1.2</ele></trkpt><trkpt lat="37.805944" lon="-122.451207"><ele>1.2</ele></trkpt><trkpt lat="37.805735" lon="-122.451167"><ele>1.3</ele></trkpt><trkpt lat="37.805528" lon="-122.451123"><ele>1.4</ele></trkpt><trkpt lat="37.804701" lon="-122.450952"><ele>2.8</ele></trkpt><trkpt lat="37.804797" lon="-122.450180"><ele>3.7</ele></trkpt><trkpt lat="37.804823" lon="-122.449990"><ele>3.9</ele></trkpt><trkpt lat="37.804849" lon="-122.449798"><ele>4.0</ele></trkpt><trkpt lat="37.804865" lon="-122.449694"><ele>4.1</ele></trkpt><trkpt lat="37.804882" lon="-122.449586"><ele>4.2</ele></trkpt><trkpt lat="37.804899" lon="-122.449481"><ele>4.3</ele></trkpt><trkpt lat="37.804918" lon="-122.449373"><ele>4.3</ele></trkpt><trkpt lat="37.804939" lon="-122.449260"><ele>4.4</ele></trkpt><trkpt lat="37.804962" lon="-122.449141"><ele>4.5</ele></trkpt><trkpt lat="37.805061" lon="-122.448715"><ele>4.4</ele></trkpt><trkpt lat="37.805097" lon="-122.448545"><ele>4.2</ele></trkpt><trkpt lat="37.805133" lon="-122.448406"><ele>4.1</ele></trkpt><trkpt lat="37.805141" lon="-122.448352"><ele>4.1</ele></trkpt><trkpt lat="37.805147" lon="-122.448310"><ele>4.1</ele></trkpt><trkpt lat="37.805152" lon="-122.448277"><ele>4.1</ele></trkpt><trkpt lat="37.805245" lon="-122.447347"><ele>2.6</ele></trkpt><trkpt lat="37.805251" lon="-122.447297"><ele>2.5</ele></trkpt><trkpt lat="37.805259" lon="-122.447238"><ele>2.4</ele></trkpt><trkpt lat="37.805486" lon="-122.445599"><ele>0.4</ele></trkpt><trkpt lat="37.805701" lon="-122.443927"><ele>0.6</ele></trkpt><trkpt lat="37.805893" lon="-122.442479"><ele>1.6</ele></trkpt><trkpt lat="37.805908" lon="-122.442374"><ele>1.7</ele></trkpt><trkpt lat="37.805921" lon="-122.442249"><ele>1.9</ele></trkpt><trkpt lat="37.805813" lon="-122.442228"><ele>2.1</ele></trkpt><trkpt lat="37.805688" lon="-122.442240"><ele>2.3</ele></trkpt><trkpt lat="37.805662" lon="-122.442228"><ele>2.4</ele></trkpt><trkpt lat="37.805636" lon="-122.442202"><ele>2.4</ele></trkpt><trkpt lat="37.805597" lon="-122.442138"><ele>2.6</ele></trkpt><trkpt lat="37.805577" lon="-122.442100"><ele>2.7</ele></trkpt><trkpt lat="37.805555" lon="-122.442059"><ele>2.8</ele></trkpt><trkpt lat="37.805539" lon="-122.441962"><ele>3.0</ele></trkpt><trkpt lat="37.804975" lon="-122.440914"><ele>5.6</ele></trkpt><trkpt lat="37.804961" lon="-122.440889"><ele>5.6</ele></trkpt><trkpt lat="37.804927" lon="-122.440824"><ele>5.8</ele></trkpt><trkpt lat="37.804898" lon="-122.440771"><ele>5.9</ele></trkpt><trkpt lat="37.804750" lon="-122.440498"><ele>6.4</ele></trkpt><trkpt lat="37.804278" lon="-122.439619"><ele>7.4</ele></trkpt><trkpt lat="37.804180" lon="-122.439436"><ele>7.5</ele></trkpt><trkpt lat="37.804150" lon="-122.439387"><ele>7.5</ele></trkpt><trkpt lat="37.804087" lon="-122.439262"><ele>7.6</ele></trkpt><trkpt lat="37.804030" lon="-122.439157"><ele>7.6</ele></trkpt><trkpt lat="37.803999" lon="-122.439099"><ele>7.7</ele></trkpt><trkpt lat="37.803906" lon="-122.438926"><ele>7.9</ele></trkpt><trkpt lat="37.803437" lon="-122.438055"><ele>9.1</ele></trkpt><trkpt lat="37.803199" lon="-122.437612"><ele>9.8</ele></trkpt><trkpt lat="37.803115" lon="-122.437456"><ele>9.9</ele></trkpt><trkpt lat="37.802970" lon="-122.437187"><ele>10.1</ele></trkpt><trkpt lat="37.802849" lon="-122.436965"><ele>10.3</ele></trkpt><trkpt lat="37.802809" lon="-122.436886"><ele>10.4</ele></trkpt><trkpt lat="37.802777" lon="-122.436817"><ele>10.4</ele></trkpt><trkpt lat="37.802744" lon="-122.436726"><ele>10.4</ele></trkpt><trkpt lat="37.802716" lon="-122.436647"><ele>10.5</ele></trkpt><trkpt lat="37.802700" lon="-122.436598"><ele>10.5</ele></trkpt><trkpt lat="37.802690" lon="-122.436555"><ele>10.5</ele></trkpt><trkpt lat="37.802685" lon="-122.436489"><ele>10.5</ele></trkpt><trkpt lat="37.802685" lon="-122.436438"><ele>10.5</ele></trkpt><trkpt lat="37.802687" lon="-122.436380"><ele>10.5</ele></trkpt><trkpt lat="37.802690" lon="-122.436319"><ele>10.6</ele></trkpt><trkpt lat="37.802715" lon="-122.436118"><ele>10.6</ele></trkpt><trkpt lat="37.802735" lon="-122.435976"><ele>10.7</ele></trkpt><trkpt lat="37.802835" lon="-122.435141"><ele>11.0</ele></trkpt><trkpt lat="37.802841" lon="-122.435092"><ele>11.0</ele></trkpt><trkpt lat="37.802854" lon="-122.434990"><ele>11.0</ele></trkpt><trkpt lat="37.802868" lon="-122.434886"><ele>11.0</ele></trkpt><trkpt lat="37.802960" lon="-122.434158"><ele>11.1</ele></trkpt><trkpt lat="37.803048" lon="-122.433468"><ele>12.0</ele></trkpt><trkpt lat="37.803051" lon="-122.433441"><ele>12.0</ele></trkpt><trkpt lat="37.803064" lon="-122.433344"><ele>12.2</ele></trkpt><trkpt lat="37.803075" lon="-122.433255"><ele>12.3</ele></trkpt><trkpt lat="37.803077" lon="-122.433237"><ele>12.3</ele></trkpt><trkpt lat="37.803139" lon="-122.432755"><ele>13.0</ele></trkpt><trkpt lat="37.803232" lon="-122.432022"><ele>14.2</ele></trkpt><trkpt lat="37.803250" lon="-122.431884"><ele>14.5</ele></trkpt><trkpt lat="37.803260" lon="-122.431797"><ele>14.7</ele></trkpt><trkpt lat="37.803270" lon="-122.431712"><ele>14.9</ele></trkpt><trkpt lat="37.803349" lon="-122.431457"><ele>15.4</ele></trkpt><trkpt lat="37.803369" lon="-122.431335"><ele>15.5</ele></trkpt><trkpt lat="37.803516" lon="-122.430160"><ele>17.3</ele></trkpt><trkpt lat="37.803528" lon="-122.430066"><ele>17.5</ele></trkpt><trkpt lat="37.803541" lon="-122.429965"><ele>17.6</ele></trkpt><trkpt lat="37.803736" lon="-122.428419"><ele>21.1</ele></trkpt><trkpt lat="37.803930" lon="-122.426880"><ele>24.8</ele></trkpt><trkpt lat="37.803944" lon="-122.426776"><ele>25.0</ele></trkpt><trkpt lat="37.803955" lon="-122.426688"><ele>25.3</ele></trkpt><trkpt lat="37.804110" lon="-122.425461"><ele>25.8</ele></trkpt><trkpt lat="37.804126" lon="-122.425331"><ele>25.7</ele></trkpt><trkpt lat="37.804142" lon="-122.425202"><ele>25.5</ele></trkpt><trkpt lat="37.804161" lon="-122.425050"><ele>25.3</ele></trkpt><trkpt lat="37.804175" lon="-122.424943"><ele>25.1</ele></trkpt><trkpt lat="37.804348" lon="-122.423585"><ele>23.6</ele></trkpt><trkpt lat="37.804360" lon="-122.423483"><ele>23.5</ele></trkpt><trkpt lat="37.804373" lon="-122.423390"><ele>23.7</ele></trkpt><trkpt lat="37.804467" lon="-122.422648"><ele>25.9</ele></trkpt><trkpt lat="37.804477" lon="-122.422569"><ele>26.2</ele></trkpt><trkpt lat="37.804554" lon="-122.421943"><ele>28.8</ele></trkpt><trkpt lat="37.804566" lon="-122.421867"><ele>29.1</ele></trkpt><trkpt lat="37.804581" lon="-122.421747"><ele>29.6</ele></trkpt><trkpt lat="37.804786" lon="-122.420303"><ele>32.6</ele></trkpt><trkpt lat="37.804799" lon="-122.420213"><ele>32.6</ele></trkpt><trkpt lat="37.804801" lon="-122.420194"><ele>32.6</ele></trkpt><trkpt lat="37.804804" lon="-122.420176"><ele>32.6</ele></trkpt><trkpt lat="37.804815" lon="-122.420080"><ele>32.6</ele></trkpt><trkpt lat="37.804999" lon="-122.418634"><ele>23.6</ele></trkpt><trkpt lat="37.805008" lon="-122.418549"><ele>22.9</ele></trkpt><trkpt lat="37.805022" lon="-122.418448"><ele>22.1</ele></trkpt><trkpt lat="37.805098" lon="-122.417846"><ele>17.4</ele></trkpt><trkpt lat="37.805136" lon="-122.417552"><ele>15.1</ele></trkpt><trkpt lat="37.805141" lon="-122.417509"><ele>14.8</ele></trkpt><trkpt lat="37.805156" lon="-122.417397"><ele>13.9</ele></trkpt><trkpt lat="37.805171" lon="-122.417280"><ele>13.0</ele></trkpt><trkpt lat="37.805101" lon="-122.417182"><ele>12.3</ele></trkpt><trkpt lat="37.804971" lon="-122.417004"><ele>12.9</ele></trkpt><trkpt lat="37.804831" lon="-122.416817"><ele>13.6</ele></trkpt><trkpt lat="37.804423" lon="-122.416226"><ele>14.6</ele></trkpt><trkpt lat="37.804353" lon="-122.416116"><ele>14.6</ele></trkpt><trkpt lat="37.804301" lon="-122.416045"><ele>14.6</ele></trkpt><trkpt lat="37.804153" lon="-122.415858"><ele>14.6</ele></trkpt><trkpt lat="37.803951" lon="-122.415553"><ele>15.4</ele></trkpt><trkpt lat="37.803666" lon="-122.415120"><ele>16.4</ele></trkpt><trkpt lat="37.803542" lon="-122.414880"><ele>15.7</ele></trkpt><trkpt lat="37.803515" lon="-122.414841"><ele>15.6</ele></trkpt><trkpt lat="37.803400" lon="-122.414672"><ele>15.1</ele></trkpt><trkpt lat="37.803369" lon="-122.414626"><ele>14.9</ele></trkpt><trkpt lat="37.803250" lon="-122.414452"><ele>14.4</ele></trkpt><trkpt lat="37.802850" lon="-122.413865"><ele>14.3</ele></trkpt><trkpt lat="37.802751" lon="-122.413721"><ele>14.3</ele></trkpt><trkpt lat="37.802688" lon="-122.413630"><ele>14.2</ele></trkpt><trkpt lat="37.802623" lon="-122.413538"><ele>14.1</ele></trkpt><trkpt lat="37.802199" lon="-122.412929"><ele>14.3</ele></trkpt><trkpt lat="37.802184" lon="-122.412908"><ele>14.3</ele></trkpt><trkpt lat="37.802005" lon="-122.412725"><ele>15.2</ele></trkpt><trkpt lat="37.801918" lon="-122.412603"><ele>15.7</ele></trkpt><trkpt lat="37.801812" lon="-122.412447"><ele>16.3</ele></trkpt><trkpt lat="37.801257" lon="-122.411656"><ele>19.7</ele></trkpt><trkpt lat="37.801197" lon="-122.411570"><ele>20.3</ele></trkpt><trkpt lat="37.801118" lon="-122.411458"><ele>21.0</ele></trkpt><trkpt lat="37.801056" lon="-122.411367"><ele>21.6</ele></trkpt><trkpt lat="37.800755" lon="-122.410930"><ele>24.4</ele></trkpt><trkpt lat="37.800461" lon="-122.410500"><ele>26.4</ele></trkpt><trkpt lat="37.800393" lon="-122.410398"><ele>26.9</ele></trkpt><trkpt lat="37.800314" lon="-122.410286"><ele>27.5</ele></trkpt><trkpt lat="37.800247" lon="-122.410189"><ele>28.0</ele></trkpt><trkpt lat="37.799621" lon="-122.409276"><ele>32.2</ele></trkpt><trkpt lat="37.799543" lon="-122.409153"><ele>32.6</ele></trkpt><trkpt lat="37.799498" lon="-122.409083"><ele>32.9</ele></trkpt><trkpt lat="37.799487" lon="-122.409001"><ele>33.1</ele></trkpt><trkpt lat="37.799337" lon="-122.408810"><ele>33.4</ele></trkpt><trkpt lat="37.799284" lon="-122.408734"><ele>33.5</ele></trkpt><trkpt lat="37.799217" lon="-122.408639"><ele>33.7</ele></trkpt><trkpt lat="37.798770" lon="-122.407986"><ele>33.7</ele></trkpt><trkpt lat="37.798696" lon="-122.407889"><ele>33.6</ele></trkpt><trkpt lat="37.798630" lon="-122.407807"><ele>33.5</ele></trkpt><trkpt lat="37.798229" lon="-122.407211"><ele>33.1</ele></trkpt><trkpt lat="37.798133" lon="-122.407075"><ele>33.0</ele></trkpt><trkpt lat="37.798077" lon="-122.407033"><ele>33.0</ele></trkpt><trkpt lat="37.798046" lon="-122.407003"><ele>32.9</ele></trkpt><trkpt lat="37.797964" lon="-122.406894"><ele>32.7</ele></trkpt><trkpt lat="37.797861" lon="-122.406742"><ele>32.0</ele></trkpt><trkpt lat="37.797793" lon="-122.406638"><ele>31.6</ele></trkpt><trkpt lat="37.797719" lon="-122.406534"><ele>31.1</ele></trkpt><trkpt lat="37.797667" lon="-122.406462"><ele>30.8</ele></trkpt><trkpt lat="37.797566" lon="-122.406315"><ele>30.1</ele></trkpt><trkpt lat="37.797543" lon="-122.406271"><ele>29.9</ele></trkpt><trkpt lat="37.797527" lon="-122.406227"><ele>29.8</ele></trkpt><trkpt lat="37.797516" lon="-122.406184"><ele>29.6</ele></trkpt><trkpt lat="37.797254" lon="-122.405805"><ele>27.8</ele></trkpt><trkpt lat="37.797157" lon="-122.405665"><ele>27.1</ele></trkpt><trkpt lat="37.797072" lon="-122.405542"><ele>26.5</ele></trkpt><trkpt lat="37.796894" lon="-122.405282"><ele>24.5</ele></trkpt><trkpt lat="37.796823" lon="-122.405180"><ele>23.8</ele></trkpt><trkpt lat="37.796724" lon="-122.405036"><ele>22.7</ele></trkpt><trkpt lat="37.796384" lon="-122.404543"><ele>19.9</ele></trkpt><trkpt lat="37.796358" lon="-122.404503"><ele>19.8</ele></trkpt><trkpt lat="37.796308" lon="-122.404428"><ele>19.4</ele></trkpt><trkpt lat="37.796264" lon="-122.404357"><ele>19.1</ele></trkpt><trkpt lat="37.796183" lon="-122.404242"><ele>18.6</ele></trkpt><trkpt lat="37.796144" lon="-122.404184"><ele>18.3</ele></trkpt><trkpt lat="37.796085" lon="-122.404097"><ele>17.9</ele></trkpt><trkpt lat="37.796074" lon="-122.404081"><ele>17.8</ele></trkpt><trkpt lat="37.795849" lon="-122.403752"><ele>16.3</ele></trkpt><trkpt lat="37.795757" lon="-122.403619"><ele>15.6</ele></trkpt><trkpt lat="37.795661" lon="-122.403475"><ele>14.9</ele></trkpt><trkpt lat="37.795535" lon="-122.403327"><ele>14.6</ele></trkpt><trkpt lat="37.795453" lon="-122.403309"><ele>14.4</ele></trkpt><trkpt lat="37.795065" lon="-122.403234"><ele>13.6</ele></trkpt><trkpt lat="37.794748" lon="-122.403171"><ele>13.4</ele></trkpt><trkpt lat="37.794676" lon="-122.403158"><ele>13.4</ele></trkpt><trkpt lat="37.794607" lon="-122.403143"><ele>13.4</ele></trkpt><trkpt lat="37.794227" lon="-122.403066"><ele>13.4</ele></trkpt><trkpt lat="37.793847" lon="-122.402987"><ele>13.6</ele></trkpt><trkpt lat="37.793788" lon="-122.402976"><ele>13.6</ele></trkpt><trkpt lat="37.793726" lon="-122.402964"><ele>13.6</ele></trkpt><trkpt lat="37.793415" lon="-122.402901"><ele>13.9</ele></trkpt><trkpt lat="37.792963" lon="-122.402812"><ele>14.5</ele></trkpt><trkpt lat="37.792877" lon="-122.402795"><ele>14.6</ele></trkpt><trkpt lat="37.792859" lon="-122.402791"><ele>14.6</ele></trkpt><trkpt lat="37.792871" lon="-122.402703"><ele>14.4</ele></trkpt><trkpt lat="37.792963" lon="-122.401974"><ele>11.7</ele></trkpt><trkpt lat="37.793054" lon="-122.401257"><ele>10.0</ele></trkpt><trkpt lat="37.793067" lon="-122.401152"><ele>9.8</ele></trkpt><trkpt lat="37.793080" lon="-122.401054"><ele>9.6</ele></trkpt><trkpt lat="37.793201" lon="-122.400099"><ele>6.1</ele></trkpt><trkpt lat="37.793202" lon="-122.400085"><ele>6.1</ele></trkpt><trkpt lat="37.793216" lon="-122.399977"><ele>6.1</ele></trkpt><trkpt lat="37.793229" lon="-122.399877"><ele>6.1</ele></trkpt><trkpt lat="37.793352" lon="-122.398902"><ele>6.3</ele></trkpt><trkpt lat="37.793365" lon="-122.398801"><ele>6.4</ele></trkpt><trkpt lat="37.793377" lon="-122.398705"><ele>6.4</ele></trkpt><trkpt lat="37.793381" lon="-122.398676"><ele>6.4</ele></trkpt><trkpt lat="37.793498" lon="-122.397736"><ele>7.6</ele></trkpt><trkpt lat="37.793513" lon="-122.397627"><ele>7.8</ele></trkpt><trkpt lat="37.793527" lon="-122.397517"><ele>8.0</ele></trkpt><trkpt lat="37.793651" lon="-122.396558"><ele>7.9</ele></trkpt><trkpt lat="37.793664" lon="-122.396480"><ele>7.9</ele></trkpt><trkpt lat="37.793650" lon="-122.396479"><ele>7.9</ele></trkpt><trkpt lat="37.793606" lon="-122.396472"><ele>7.9</ele></trkpt><trkpt lat="37.793459" lon="-122.396442"><ele>7.8</ele></trkpt><trkpt lat="37.793387" lon="-122.396426"><ele>7.8</ele></trkpt><trkpt lat="37.793288" lon="-122.396377"><ele>7.8</ele></trkpt><trkpt lat="37.793276" lon="-122.396360"><ele>7.8</ele></trkpt><trkpt lat="37.793057" lon="-122.396623"><ele>7.6</ele></trkpt><trkpt lat="37.792869" lon="-122.396860"><ele>7.6</ele></trkpt></trkseg></trk>
</gpx>